geonameid;name;asciiname;latitude;longitude;feature code
713840;Zsujta Vasúti Megállóhely;Zsujta Vasuti Megallohely;48,5000;21,2667;RSTP
713904;Ziliz Vasúti Megállóhely;Ziliz Vasuti Megallohely;48,2500;20,7833;RSTP
713909;Zelemér Vasúti Megállóhely;Zelemer Vasuti Megallohely;47,6333;21,5833;RSTP
713930;Zagyvarékas Vasúti Megállóhely;Zagyvarekas Vasuti Megallohely;47,2500;20,1000;RSTP
714007;Viss Vasúti Megállóhely;Viss Vasuti Megallohely;48,2333;21,5167;RSTP
714011;Virányos Vasúti Megállóhely;Viranyos Vasuti Megallohely;48,0667;21,5167;RSTP
714035;Vilmaszállás Vasúti Megállóhely;Vilmaszallas Vasuti Megallohely;46,3667;20,0333;RSTP
714147;Végegyháza Vasúti Megállóhely;Vegegyhaza Vasuti Megallohely;46,3833;20,8833;RSTP
714148;Végegyháza Alsó Vasúti Megállóhely;Vegegyhaza Also Vasuti Megallohely;46,3667;20,8667;RSTP
714187;Vásárosnamény Külső Vasúti Megállóhely;Vasarosnameny Kulso Vasuti Megallohely;48,1000;22,3000;RSTP
714309;Vadna Vasúti Megállóhely;Vadna Vasuti Megallohely;48,2833;20,5500;RSTP
714338;Ürmöshát Vasúti Megállóhely;Urmoshat Vasuti Megallohely;47,2667;21,1000;RSTP
714347;Ürgehát Vasúti Megállóhely;Urgehat Vasuti Megallohely;47,1167;20,3667;RSTP
714361;Újváros Vasúti Megállóhely;Ujvaros Vasuti Megallohely;46,6500;20,5333;RSTP
714454;Újkenéz Vasúti Megállóhely;Ujkenez Vasuti Megallohely;48,2500;22,2167;RSTP
714511;Turgony Vasúti Megállóhely;Turgony Vasuti Megallohely;47,2167;20,6500;RSTP
714517;Tunyogmatolcs Alsó Vasúti Megállóhely;Tunyogmatolcs Also Vasuti Megallohely;47,9667;22,4667;RSTP
714618;Tompapuszta Vasúti Megállóhely;Tompapuszta Vasuti Megallohely;46,3167;20,9667;RSTP
714672;Tófalu Vasúti Megállóhely;Tofalu Vasuti Megallohely;47,7726;20,2320;RSTP
714683;Tisztavíz Vasúti Megállóhely;Tisztaviz Vasuti Megallohely;47,6500;21,8333;RSTP
714699;Tiszaug-Tiszahídfő Vasúti Megállóhely;Tiszaug-Tiszahidfo Vasuti Megallohely;46,8667;20,0500;RSTP
714735;Tiszanagyfalu Vasúti Megállóhely;Tiszanagyfalu Vasuti Megallohely;48,1000;21,5167;RSTP
714741;Tiszalöki Vízművek Vasúti Megállóhely;Tiszaloki Vizmuvek Vasuti Megallohely;48,0167;21,3000;RSTP
714759;Tiszajenő Alsó Vasúti Megállóhely;Tiszajeno Also Vasuti Megallohely;47,0333;20,1333;RSTP
714790;Tiszabezdéd Vasúti Megállóhely;Tiszabezded Vasuti Megallohely;48,3667;22,1500;RSTP
714850;Tenyőszállás Vasúti Megállóhely;Tenyoszallas Vasuti Megallohely;47,1500;20,3500;RSTP
714887;Telekföld Vasúti Megállóhely;Telekfold Vasuti Megallohely;47,6000;21,4167;RSTP
714918;Tedej Vasúti Megállóhely;Tedej Vasuti Megallohely;47,9000;21,4167;RSTP
714946;Tarnaszentmária Vasúti Megállóhely;Tarnaszentmaria Vasuti Megallohely;47,8833;20,2000;RSTP
714963;Tardosi Kőbányák Vasúti Megállóhely;Tardosi Kobanyak Vasuti Megallohely;48,0167;20,3333;RSTP
714978;Tápiómajor Vasúti Megállóhely;Tapiomajor Vasuti Megallohely;47,3306;20,0318;RSTP
714993;Tamásipuszta Vasúti Megállóhely;Tamasipuszta Vasuti Megallohely;47,6333;21,8000;RSTP
715004;Taktaszada Vasúti Megállóhely;Taktaszada Vasuti Megallohely;48,1167;21,1500;RSTP
715198;Szirmabesenyő Vasúti Megállóhely;Szirmabesenyo Vasuti Megallohely;48,1483;20,7827;RSTP
715216;Szilvásvárad-Szalajkavölgy Vasúti Megállóhely;Szilvasvarad-Szalajkavolgy Vasuti Megallohely;48,1000;20,3833;RSTP
715257;Szikszó-Vásártér Vasúti Megállóhely;Szikszo-Vasarter Vasuti Megallohely;48,1833;20,9333;RSTP
715271;Szihalom Vasúti Megállóhely;Szihalom Vasuti Megallohely;47,7667;20,5000;RSTP
715297;Szerep Vasúti Megállóhely;Szerep Vasuti Megallohely;47,2333;21,1833;RSTP
715309;Szepes Vasúti Megállóhely;Szepes Vasuti Megallohely;47,4500;21,6167;RSTP
715312;Szepeshalom Vasúti Megállóhely;Szepeshalom Vasuti Megallohely;47,4781;21,5990;RSTP
715326;Szentkozma Vasúti Megállóhely;Szentkozma Vasuti Megallohely;47,2333;21,4667;RSTP
715343;Szentannapuszta Vasúti Megállóhely;Szentannapuszta Vasuti Megallohely;47,5206;21,9657;RSTP
715354;Szendrő Felső Vasúti Megállóhely;Szendro Felso Vasuti Megallohely;48,4000;20,7167;RSTP
715370;Szellőhát Vasúti Megállóhely;Szellohat Vasuti Megallohely;47,4333;20,2000;RSTP
715417;Szegi Vasúti Megállóhely;Szegi Vasuti Megallohely;48,2167;21,4000;RSTP
715613;Szabadkígyós Alsó Vasúti Megállóhely;Szabadkigyos Also Vasuti Megallohely;46,6000;21,0667;RSTP
715674;Sóstó Vasúti Megállóhely;Sosto Vasuti Megallohely;48,0000;21,7333;RSTP
715706;Sóshalom Vasúti Megállóhely;Soshalom Vasuti Megallohely;46,4833;20,4833;RSTP
715762;Sirok Vasúti Megállóhely;Sirok Vasuti Megallohely;47,9167;20,1833;RSTP
715765;Sirató Vasúti Megállóhely;Sirato Vasuti Megallohely;46,8500;20,6167;RSTP
715840;Sáta Vasúti Megállóhely;Sata Vasuti Megallohely;48,1833;20,3833;RSTP
715863;Sárrétudvardi Vasúti Megállóhely;Sarretudvardi Vasuti Megallohely;47,2333;21,1833;RSTP
715887;Sarkadi-Cukorgyár Vasúti Megállóhely;Sarkadi-Cukorgyar Vasuti Megallohely;46,7167;21,3667;RSTP
715919;Sándoros Vasúti Megállóhely;Sandoros Vasuti Megallohely;47,3333;21,7167;RSTP
715940;Sajószöged Vasúti Megállóhely;Sajoszoged Vasuti Megallohely;47,9500;20,9833;RSTP
715944;Sajószentpéter Piactér Vasúti Megállóhely;Sajoszentpeter Piacter Vasuti Megallohely;48,2167;20,7333;RSTP
715946;Sajósenye Vasúti Megállóhely;Sajosenye Vasuti Megallohely;48,2167;20,8000;RSTP
715953;Sajónémeti Vasúti Megállóhely;Sajonemeti Vasuti Megallohely;48,2667;20,3667;RSTP
715955;Sajómercse Vasúti Megállóhely;Sajomercse Vasuti Megallohely;48,2667;20,4333;RSTP
715959;Sajókeresztúr Vasúti Megállóhely;Sajokeresztur Vasuti Megallohely;48,1667;20,7833;RSTP
716121;Remete Vasúti Megállóhely;Remete Vasuti Megallohely;46,6833;21,3000;RSTP
716134;Reje Vasúti Megállóhely;Reje Vasuti Megallohely;47,9833;21,2167;RSTP
716159;Rátka Vasúti Megállóhely;Ratka Vasuti Megallohely;48,2000;21,2333;RSTP
716190;Rákóczitanya Vasúti Megállóhely;Rakoczitanya Vasuti Megallohely;48,0167;22,1833;RSTP
716201;Rákhát Vasúti Megállóhely;Rakhat Vasuti Megallohely;47,5167;20,4500;RSTP
716253;Pusztatemplom Vasúti Megállóhely;Pusztatemplom Vasuti Megallohely;46,6833;20,4000;RSTP
716258;Pusztaszenttornya Vasúti Megállóhely;Pusztaszenttornya Vasuti Megallohely;46,6167;20,6833;RSTP
716261;Pusztaszakállas Vasúti Megállóhely;Pusztaszakallas Vasuti Megallohely;47,1833;20,5333;RSTP
716264;Pusztapó Vasúti Megállóhely;Pusztapo Vasuti Megallohely;47,1000;20,4500;RSTP
716269;Pusztakürt Vasúti Megállóhely;Pusztakurt Vasuti Megallohely;47,4167;20,1833;RSTP
716275;Pusztakettős Vasúti Megállóhely;Pusztakettos Vasuti Megallohely;47,4667;20,7500;RSTP
716289;Pusztadomaháza Vasúti Megállóhely;Pusztadomahaza Vasuti Megallohely;47,5833;20,7333;RSTP
716300;Püspökladány Vásártér Vasúti Megállóhely;Puspokladany Vasarter Vasuti Megallohely;47,3000;21,0833;RSTP
716365;Pogonyipuszta Vasúti Megállóhely;Pogonyipuszta Vasuti Megallohely;48,3000;20,3833;RSTP
716379;Pitvaros Vasúti Megállóhely;Pitvaros Vasuti Megallohely;46,3167;20,7667;RSTP
716384;Piroska Vasúti Megállóhely;Piroska Vasuti Megallohely;47,1500;20,1333;RSTP
716454;Perkupa Vasúti Megállóhely;Perkupa Vasuti Megallohely;48,4667;20,7000;RSTP
716477;Perényitanya Vasúti Megállóhely;Perenyitanya Vasuti Megallohely;48,0819;22,2505;RSTP
716523;Pátyod Vasúti Megállóhely;Patyod Vasuti Megallohely;47,8492;22,6129;RSTP
716670;Ózd Alsó Vasúti Megállóhely;Ozd Also Vasuti Megallohely;48,2348;20,3196;RSTP
716697;Őszeszék Vasúti Megállóhely;Oszeszek Vasuti Megallohely;46,3833;20,0167;RSTP
716716;Országút Vasúti Megállóhely;Orszagut Vasuti Megallohely;46,4833;21,2000;RSTP
716731;Orosháza-Üveggyár Vasúti Megállóhely;Oroshaza-Uveggyar Vasuti Megallohely;46,5500;20,6833;RSTP
716733;Orosháza Külső Vasúti Megállóhely;Oroshaza Kulso Vasuti Megallohely;46,5833;20,6333;RSTP
716734;Orosháza Felső Vasúti Megállóhely;Oroshaza Felso Vasuti Megallohely;46,5500;20,6833;RSTP
716735;Orosháza Alsó Vasúti Megállóhely;Oroshaza Also Vasuti Megallohely;46,5833;20,6833;RSTP
716792;Ópályi Vasúti Megállóhely;Opalyi Vasuti Megallohely;48,0000;22,3167;RSTP
716798;Ongaújfalu Vasúti Megállóhely;Ongaujfalu Vasuti Megallohely;48,1500;20,9167;RSTP
716801;Ondód Vasúti Megállóhely;Ondod Vasuti Megallohely;47,4833;21,5500;RSTP
716843;Ököritófülpös Vasúti Megállóhely;Okoritofulpos Vasuti Megallohely;47,9167;22,5000;RSTP
716868;Óbög Vasúti Megállóhely;Obog Vasuti Megallohely;46,9833;20,1167;RSTP
716875;Nyulas Vasúti Megállóhely;Nyulas Vasuti Megallohely;47,5667;21,6000;RSTP
716902;Nyírmihálydi Vasúti Megállóhely;Nyirmihalydi Vasuti Megallohely;47,7333;21,9833;RSTP
716904;Nyírmeggyes Vasúti Megállóhely;Nyirmeggyes Vasuti Megallohely;47,9333;22,2667;RSTP
716932;Nyíregyháza-Petőfi Tér Vasúti Megállóhely;Nyiregyhaza-Petofi Ter Vasuti Megallohely;47,9491;21,7038;RSTP
716938;Nyírcsászári Vasúti Megállóhely;Nyircsaszari Vasuti Megallohely;47,8667;22,1833;RSTP
716940;Nyírcsaholy Vasúti Megállóhely;Nyircsaholy Vasuti Megallohely;47,9000;22,3500;RSTP
717030;Nekézseny Vasúti Megállóhely;Nekezseny Vasuti Megallohely;48,1667;20,4333;RSTP
717041;Napkor Vasúti Megállóhely;Napkor Vasuti Megallohely;47,9500;21,8667;RSTP
717057;Nagyvisnyó-Dédes Vasúti Megállóhely;Nagyvisnyo-Dedes Vasuti Megallohely;48,1500;20,4333;RSTP
717160;Nagyrét Vasúti Megállóhely;Nagyret Vasuti Megallohely;46,7833;20,7000;RSTP
717222;Nagymajor Vasúti Megállóhely;Nagymajor Vasuti Megallohely;47,6500;20,9833;RSTP
717243;Nagylaki Kendergyár Vasúti Megállóhely;Nagylaki Kendergyar Vasuti Megallohely;46,1833;20,7167;RSTP
717332;Nagyhalom Vasúti Megállóhely;Nagyhalom Vasuti Megallohely;47,5333;20,0667;RSTP
717377;Nagyér Vasúti Megállóhely;Nagyer Vasuti Megallohely;46,3667;20,7500;RSTP
717411;Nagycsécs Vasúti Megállóhely;Nagycsecs Vasuti Megallohely;47,9667;20,9500;RSTP
717586;Mirhó Vasúti Megállóhely;Mirho Vasuti Megallohely;47,1667;20,9667;RSTP
717614;Mikepércs Vasúti Megállóhely;Mikepercs Vasuti Megallohely;47,4333;21,6167;RSTP
717651;Mezőkövesd Felső Vasúti Megállóhely;Mezokovesd Felso Vasuti Megallohely;47,8000;20,5833;RSTP
717655;Mezőkovácsháza Felső Vasúti Megállóhely;Mezokovacshaza Felso Vasuti Megallohely;46,4167;20,9167;RSTP
717698;Méra Vasúti Megállóhely;Mera Vasuti Megallohely;48,3667;21,1333;RSTP
717719;Méhkerék Vasúti Megállóhely;Mehkerek Vasuti Megallohely;46,7833;21,4667;RSTP
717831;Márialaka Vasúti Megállóhely;Marialaka Vasuti Megallohely;47,1833;20,8500;RSTP
718044;Lórántháza Vasúti Megállóhely;Loranthaza Vasuti Megallohely;48,0099;22,0853;RSTP
718106;Levelek-Magy Vasúti Megállóhely;Levelek-Magy Vasuti Megallohely;47,9500;21,9833;RSTP
718172;Látókép Vasúti Megállóhely;Latokep Vasuti Megallohely;47,5667;21,5000;RSTP
718213;Lapistó Vasúti Megállóhely;Lapisto Vasuti Megallohely;46,6667;20,3333;RSTP
718311;Kunszentmárton-Érpart Vasúti Megállóhely;Kunszentmarton-Erpart Vasuti Megallohely;46,8333;20,3000;RSTP
718327;Kungyalu Vasúti Megállóhely;Kungyalu Vasuti Megallohely;46,9167;20,2667;RSTP
718328;Kungyalu Alsó Vasúti Megállóhely;Kungyalu Also Vasuti Megallohely;46,8833;20,2667;RSTP
718513;Körösújfalú Vasúti Megállóhely;Korosujfalu Vasuti Megallohely;46,9667;21,4000;RSTP
718524;Körösnagyharsány Vasúti Megállóhely;Korosnagyharsany Vasuti Megallohely;47,0167;21,6667;RSTP
718536;Kórógyszentgyörgy Vasúti Megállóhely;Korogyszentgyorgy Vasuti Megallohely;46,5667;20,2167;RSTP
718549;Korlát-Vizsoly Vasúti Megállóhely;Korlat-Vizsoly Vasuti Megallohely;48,3667;21,2167;RSTP
718573;Koportos Vasúti Megállóhely;Koportos Vasuti Megallohely;48,1089;22,2942;RSTP
718594;Kónya Vasúti Megállóhely;Konya Vasuti Megallohely;47,6000;21,2500;RSTP
718596;Kónyaszék Vasúti Megállóhely;Konyaszek Vasuti Megallohely;46,6833;20,0500;RSTP
718601;Konyári Sósfürdő Vasúti Megállóhely;Konyari Sosfurdo Vasuti Megallohely;47,3167;21,7667;RSTP
718631;Komjáti Vasúti Megállóhely;Komjati Vasuti Megallohely;48,5500;20,7667;RSTP
718659;Kőkútpuszta Vasúti Megállóhely;Kokutpuszta Vasuti Megallohely;47,9000;20,1833;RSTP
718693;Kocsord Vasúti Megállóhely;Kocsord Vasuti Megallohely;47,9500;20,3667;RSTP
718698;Kocsord Alsó Vasúti Megállóhely;Kocsord Also Vasuti Megallohely;47,9500;20,4000;RSTP
718721;Kiszombor Vasúti Megállóhely;Kiszombor Vasuti Megallohely;46,1833;20,4333;RSTP
718734;Kisvarsány Vasúti Megállóhely;Kisvarsany Vasuti Megallohely;48,1500;22,3000;RSTP
718738;Kisvárda Hármasút Vasúti Megállóhely;Kisvarda Harmasut Vasuti Megallohely;48,2000;22,1000;RSTP
718750;Kistőke Vasúti Megállóhely;Kistoke Vasuti Megallohely;46,7167;20,2833;RSTP
718752;Kistokaj Vasúti Megállóhely;Kistokaj Vasuti Megallohely;48,0333;20,8333;RSTP
718806;Kisszekeres Vasúti Megállóhely;Kisszekeres Vasuti Megallohely;47,9667;22,6333;RSTP
718877;Kismicske Vasúti Megállóhely;Kismicske Vasuti Megallohely;47,7500;21,7000;RSTP
718889;Kismargita Vasúti Megállóhely;Kismargita Vasuti Megallohely;47,7167;21,1167;RSTP
718894;Kismacs Vasúti Megállóhely;Kismacs Vasuti Megallohely;47,5500;21,5500;RSTP
718909;Kisköre-Tiszahíd Vasúti Megállóhely;Kiskore-Tiszahid Vasuti Megallohely;47,4667;20,5333;RSTP
718935;Kishomok Vasúti Megállóhely;Kishomok Vasuti Megallohely;46,4000;20,2833;RSTP
718957;Kisgyócs Vasúti Megállóhely;Kisgyocs Vasuti Megallohely;47,4167;20,6000;RSTP
719008;Kiscsákó Vasúti Megállóhely;Kiscsako Vasuti Megallohely;46,7167;20,7167;RSTP
719094;Kétútköz Vasúti Megállóhely;Ketutkoz Vasuti Megallohely;47,7000;20,5667;RSTP
719097;Kettőshalom Vasúti Megállóhely;Kettoshalom Vasuti Megallohely;46,6833;20,0167;RSTP
719116;Kéthalom Vasúti Megállóhely;Kethalom Vasuti Megallohely;47,0000;21,0000;RSTP
719124;Kétegyházi Tanyák Vasúti Megállóhely;Ketegyhazi Tanyak Vasuti Megallohely;46,5667;21,1500;RSTP
719208;Kerekdomb Vasúti Megállóhely;Kerekdomb Vasuti Megallohely;46,9000;20,0500;RSTP
719266;Kelenc Vasúti Megállóhely;Kelenc Vasuti Megallohely;47,3333;21,2000;RSTP
719272;Kék Vasúti Megállóhely;Kek Vasuti Megallohely;48,1000;21,8833;RSTP
719310;Kazincbarcika Alsó Vasúti Megállóhely;Kazincbarcika Also Vasuti Megallohely;48,2500;20,6667;RSTP
719325;Katraszél Vasúti Megállóhely;Katraszel Vasuti Megallohely;46,3833;20,4167;RSTP
719400;Karcagi Puszta Vasúti Megállóhely;Karcagi Puszta Vasuti Megallohely;47,2500;20,8333;RSTP
719402;Karcag-Ipartelep Vasúti Megállóhely;Karcag-Ipartelep Vasuti Megallohely;47,3500;20,8833;RSTP
719416;Karácsond Vasúti Megállóhely;Karacsond Vasuti Megallohely;47,7282;20,0610;RSTP
719431;Kápolna Vasúti Megállóhely;Kapolna Vasuti Megallohely;47,7500;20,2333;RSTP
719518;Kakasszék Vasúti Megállóhely;Kakasszek Vasuti Megallohely;46,5667;20,6000;RSTP
719557;Justhmajor Vasúti Megállóhely;Justhmajor Vasuti Megallohely;46,6333;20,6167;RSTP
719577;József-Szanatórium Vasúti Megállóhely;Jozsef-Szanatorium Vasuti Megallohely;46,7167;21,3333;RSTP
719584;Józsa Vasúti Megállóhely;Jozsa Vasuti Megallohely;47,6000;21,5833;RSTP
719642;Jászkisér Felső Vasútimegállóhely;Jaszkiser Felso Vasutimegallohely;47,4500;20,2167;RSTP
719673;Jánosszállás Vasúti Megállóhely;Janosszallas Vasuti Megallohely;46,3167;20,0667;RSTP
719690;Jámborhalom Vasúti Megállóhely;Jamborhalom Vasuti Megallohely;46,7500;20,3000;RSTP
719736;Istvánháza Vasúti Megállóhely;Istvanhaza Vasuti Megallohely;46,8500;20,2500;RSTP
719769;Ináncs Vasúti Megállóhely;Inancs Vasuti Megallohely;48,2833;21,0667;RSTP
719792;Igrici Vasúti Megállóhely;Igrici Vasuti Megallohely;47,8667;20,9167;RSTP
719853;Hosszúhát Vasúti Megállóhely;Hosszuhat Vasuti Megallohely;47,2333;21,1000;RSTP
719916;Homok Vasúti Megállóhely;Homok Vasuti Megallohely;46,9500;20,2667;RSTP
719963;Hódmezővásárhely-Ipartelepek Vasúti Megállóhely;Hodmezovasarhely-Ipartelepek Vasuti Megallohely;46,4000;20,3833;RSTP
719964;Hódmezővásárhelyi Népkert Vasúti Megállóhely;Hodmezovasarhelyi Nepkert Vasuti Megallohely;46,4000;20,3000;RSTP
719998;Hevesvezekény Vasúti Megállóhely;Hevesvezekeny Vasuti Megallohely;47,5667;20,3667;RSTP
720019;Hernádvécse Vasúti Megállóhely;Hernadvecse Vasuti Megallohely;48,5333;21,2000;RSTP
720021;Hernádszurdok Vasúti Megállóhely;Hernadszurdok Vasuti Megallohely;48,4833;21,2167;RSTP
720052;Hékéd Vasúti Megállóhely;Heked Vasuti Megallohely;46,6833;20,2667;RSTP
720240;Halászlak Vasúti Megállóhely;Halaszlak Vasuti Megallohely;46,9167;20,5667;RSTP
720254;Haláp Vasúti Megállóhely;Halap Vasuti Megallohely;47,5167;21,8167;RSTP
720268;Hajlanos Vasúti Megállóhely;Hajlanos Vasuti Megallohely;48,0000;21,4167;RSTP
720269;Hajdúvölgy Vasúti Megállóhely;Hajduvolgy Vasuti Megallohely;46,6500;20,6833;RSTP
720271;Hajdúvid Vasúti Megállóhely;Hajduvid Vasuti Megallohely;47,7500;21,5167;RSTP
720283;Hajdúnánás-Vásártér Vasúti Megállóhely;Hajdunanas-Vasarter Vasuti Megallohely;47,8333;21,4000;RSTP
720325;Gyula-Jánoszug Vasúti Megállóhely;Gyula-Janoszug Vasuti Megallohely;46,6500;21,1833;RSTP
720326;Gyulai Városerdő Vasúti Megállóhely;Gyulai Varoserdo Vasuti Megallohely;46,7000;21,3167;RSTP
720338;Győrtelek Vasúti Megállóhely;Gyortelek Vasuti Megallohely;47,9333;22,4333;RSTP
720356;Gyopárosfürdő Vasúti Megállóhely;Gyoparosfurdo Vasuti Megallohely;46,5667;20,6500;RSTP
720367;Gyökérkút Vasúti Megállóhely;Gyokerkut Vasuti Megallohely;47,6167;21,0167;RSTP
720441;Gorzsa Vasúti Megállóhely;Gorzsa Vasuti Megallohely;46,3667;20,4333;RSTP
720467;Görénypuszta Vasúti Megállóhely;Gorenypuszta Vasuti Megallohely;47,7919;21,8492;RSTP
720479;Görbeháza Vasúti Megállóhely;Gorbehaza Vasuti Megallohely;47,8500;21,1500;RSTP
720491;Göncruszka Vasúti Megállóhely;Goncruszka Vasuti Megallohely;48,4500;21,2500;RSTP
720504;Golop Vasúti Megállóhely;Golop Vasuti Megallohely;48,2500;21,2000;RSTP
720636;Gajdospuszta Vasúti Megállóhely;Gajdospuszta Vasuti Megallohely;46,3500;20,4667;RSTP
720678;Füzesgyarmatfürdő Vasúti Megállóhely;Fuzesgyarmatfurdo Vasuti Megallohely;47,0833;21,2167;RSTP
720684;Füzesbokor Vasúti Megállóhely;Fuzesbokor Vasuti Megallohely;47,9833;21,6667;RSTP
720702;Fürjes Vasúti Megállóhely;Furjes Vasuti Megallohely;46,6500;21,0000;RSTP
720725;Fülekipuszta Vasúti Megállóhely;Fulekipuszta Vasuti Megallohely;47,2833;20,6833;RSTP
720760;Fony Vasúti Megállóhely;Fony Vasuti Megallohely;48,4000;21,2333;RSTP
720825;Ferenctanya Vasúti Megállóhely;Ferenctanya Vasuti Megallohely;48,0167;21,5833;RSTP
720847;Fényesi Szőlők Vasúti Megállóhely;Fenyesi Szolok Vasuti Megallohely;46,6500;21,1500;RSTP
720937;Feketenagytanya Vasúti Megállóhely;Feketenagytanya Vasuti Megallohely;47,1500;21,6667;RSTP
721139;Erdőbénye Vasúti Megállóhely;Erdobenye Vasuti Megallohely;48,2167;21,4000;RSTP
721149;Eperjeske Alsó Vasúti Megállóhely;Eperjeske Also Vasuti Megallohely;48,3333;22,2000;RSTP
721203;Egyházerdő Vasúti Megállóhely;Egyhazerdo Vasuti Megallohely;47,9833;21,3667;RSTP
721221;Egervár Vasúti Megállóhely;Egervar Vasuti Megallohely;47,9000;20,3833;RSTP
721245;Edelény Alsó Vasúti Megállóhely;Edeleny Also Vasuti Megallohely;48,2833;20,7667;RSTP
721272;Dubicsány Vasúti Megállóhely;Dubicsany Vasuti Megallohely;48,2833;20,5000;RSTP
721301;Donát Vasúti Megállóhely;Donat Vasuti Megallohely;46,6667;20,3667;RSTP
721310;Dombostanya Vasúti Megállóhely;Dombostanya Vasuti Megallohely;47,6028;21,7065;RSTP
721362;Dobaipuszta Vasúti Megállóhely;Dobaipuszta Vasuti Megallohely;46,9667;21,3000;RSTP
721408;Deszk Vasúti Megállóhely;Deszk Vasuti Megallohely;46,2167;20,2500;RSTP
721426;Derecske-Vásártér Vasúti Megállóhely;Derecske-Vasarter Vasuti Megallohely;47,3500;21,5833;RSTP
721465;Debrecen-Tégláskert Vasúti Megállóhely;Debrecen-Teglaskert Vasuti Megallohely;47,5027;21,6084;RSTP
721466;Debrecen-Szabadságtelep Vasúti Megállóhely;Debrecen-Szabadsagtelep Vasuti Megallohely;47,5333;21,6833;RSTP
721468;Debrecen-Kondoros Vasúti Megállóhely;Debrecen-Kondoros Vasuti Megallohely;47,5333;21,7167;RSTP
721469;Debrecen-Kertváros Vasúti Megállóhely;Debrecen-Kertvaros Vasuti Megallohely;47,5667;21,6000;RSTP
721471;Debrecen-Csapókert Vasúti Megállóhely;Debrecen-Csapokert Vasuti Megallohely;47,5333;21,6500;RSTP
721558;Csorvás Alsó Vasúti Megállóhely;Csorvas Also Vasuti Megallohely;46,6333;20,8667;RSTP
721591;Csongrád Alsó Vasúti Megállóhely;Csongrad Also Vasuti Megallohely;46,7167;20,1167;RSTP
721623;Csobád Vasúti Megállóhely;Csobad Vasuti Megallohely;48,2833;21,0333;RSTP
721644;Csincse Vasúti Megállóhely;Csincse Vasuti Megallohely;47,9000;20,7667;RSTP
721744;Cserepes Vasúti Megállóhely;Cserepes Vasuti Megallohely;47,7000;21,0833;RSTP
721884;Csabacsűd Felső Vasúti Megállóhely;Csabacsud Felso Vasuti Megallohely;46,8333;20,6333;RSTP
721922;Cibak Vasúti Megállóhely;Cibak Vasuti Megallohely;47,7494;21,8454;RSTP
721933;Center Alsó Vasúti Megállóhely;Center Also Vasuti Megallohely;48,2500;20,3667;RSTP
721998;Büdöskútpuszta Vasúti Megállóhely;Budoskutpuszta Vasuti Megallohely;48,3833;20,7333;RSTP
722054;Borsodszirák Vasúti Megállóhely;Borsodszirak Vasuti Megallohely;48,2667;20,7667;RSTP
722120;Boldogkőváralja Vasúti Megállóhely;Boldogkovaralja Vasuti Megallohely;48,3500;21,2833;RSTP
722162;Bogárzó Vasúti Megállóhely;Bogarzo Vasuti Megallohely;46,5333;20,6833;RSTP
722185;Bodrogolaszi Vasúti Megállóhely;Bodrogolaszi Vasuti Megallohely;48,2833;21,5167;RSTP
722221;Bocskaikert Vasúti Megállóhely;Bocskaikert Vasuti Megallohely;47,6500;21,6667;RSTP
722247;Biri Vasúti Megállóhely;Biri Vasuti Megallohely;47,8158;21,8476;RSTP
722332;Berente Vasúti Megállóhely;Berente Vasuti Megallohely;48,2333;20,6833;RSTP
722338;Berekhát Vasúti Megállóhely;Berekhat Vasuti Megallohely;46,6167;20,2667;RSTP
722340;Berekfürdő Vasúti Megállóhely;Berekfurdo Vasuti Megallohely;47,3833;20,8333;RSTP
722372;Benedekvölgy Vasúti Megállóhely;Benedekvolgy Vasuti Megallohely;47,4000;21,3333;RSTP
722390;Belsőperegpuszta Vasúti Megállóhely;Belsoperegpuszta Vasuti Megallohely;46,3167;20,9167;RSTP
722394;Belsőkamaráspuszta Vasúti Megállóhely;Belsokamaraspuszta Vasuti Megallohely;46,3167;20,9167;RSTP
722422;Bélapátfalvi Cementgyár Vasúti Megállóhely;Belapatfalvi Cementgyar Vasuti Megallohely;48,0667;20,3667;RSTP
722468;Bazsómajor Vasúti Megállóhely;Bazsomajor Vasuti Megallohely;47,6667;20,3167;RSTP
722497;Bashalom Vasúti Megállóhely;Bashalom Vasuti Megallohely;48,0333;21,5167;RSTP
722507;Barta Vasúti Megállóhely;Barta Vasuti Megallohely;47,1833;20,4833;RSTP
722600;Bánhidymajor Vasúti Megállóhely;Banhidymajor Vasuti Megallohely;46,4667;21,2167;RSTP
722606;Bánhalma-Halastó Vasúti Megállóhely;Banhalma-Halasto Vasuti Megallohely;47,3333;20,6667;RSTP
722679;Baktó Vasúti Megállóhely;Bakto Vasuti Megallohely;46,3000;20,1667;RSTP
722732;Bagimajor Vasúti Megállóhely;Bagimajor Vasuti Megallohely;47,0667;20,3167;RSTP
722772;Aszaló Vasúti Megállóhely;Aszalo Vasuti Megallohely;48,2167;20,9667;RSTP
722838;Aradványpuszta Vasúti Megállóhely;Aradvanypuszta Vasuti Megallohely;47,6667;21,8500;RSTP
722844;Apavára Vasúti Megállóhely;Apavara Vasuti Megallohely;47,3167;21,0167;RSTP
722871;Andornaktálya Vasúti Megállóhely;Andornaktalya Vasuti Megallohely;47,8500;20,4000;RSTP
722878;Ambrózfalva Vasúti Megállóhely;Ambrozfalva Vasuti Megallohely;46,3500;20,7333;RSTP
722947;Almáskert Vasúti Megállóhely;Almaskert Vasuti Megallohely;46,6667;20,5000;RSTP
722952;Almár Vasúti Megállóhely;Almar Vasuti Megallohely;47,9667;20,3500;RSTP
722965;Aldebrő Vasúti Megállóhely;Aldebro Vasuti Megallohely;47,7833;20,2167;RSTP
722972;Albapuszta Vasúti Megállóhely;Albapuszta Vasuti Megallohely;47,7103;21,8683;RSTP
722996;Ajak Vasúti Megállóhely;Ajak Vasuti Megallohely;48,1833;22,0500;RSTP
723028;Abonyi Út Vasúti Megállóhely;Abonyi Ut Vasuti Megallohely;47,2000;20,1333;RSTP
723038;Abaújkér Vasúti Megállóhely;Abaujker Vasuti Megallohely;48,3000;21,2000;RSTP
3042510;Zrínyitelep Vasúti Megállóhely;Zrinyitelep Vasuti Megallohely;46,2833;17,1333;RSTP
3042567;Zánka-Úttörőváros Vasúti Megállóhely;Zanka-Uttorovaros Vasuti Megallohely;46,8667;17,7000;RSTP
3042577;Zamárdi Vasúti Megállóhely;Zamardi Vasuti Megallohely;46,8833;17,9000;RSTP
3042592;Zalaszentlőrinc Vasúti Megállóhely;Zalaszentlorinc Vasuti Megallohely;46,9167;16,8833;RSTP
3042611;Zalapatakalja Vasúti Megállóhely;Zalapatakalja Vasuti Megallohely;46,8500;16,6000;RSTP
3042632;Zalagyömörő Vasúti Megállóhely;Zalagyomoro Vasuti Megallohely;47,0167;17,2167;RSTP
3042636;Zalaegerszeg-Ola Vasúti Megállóhely;Zalaegerszeg-Ola Vasuti Megallohely;46,8333;17,8167;RSTP
3042667;Zádor Vasúti Megállóhely;Zador Vasuti Megallohely;45,9667;17,6667;RSTP
3042695;Vörs Vasúti Megállóhely;Vors Vasuti Megallohely;46,6667;17,2667;RSTP
3042773;Vizslás Vasúti Megállóhely;Vizslas Vasuti Megallohely;48,0399;19,8072;RSTP
3042794;Vitnyéd-Csermajor Vasúti Megállóhely;Vitnyed-Csermajor Vasuti Megallohely;47,5820;16,9872;RSTP
3042843;Vinye Vasúti Megállóhely;Vinye Vasuti Megallohely;47,3667;17,8167;RSTP
3042857;Vilonya-Királyszentistván Vasúti Megállóhely;Vilonya-Kiralyszentistvan Vasuti Megallohely;47,1167;18,0667;RSTP
3042868;Villánykövesd Vasúti Megállóhely;Villanykovesd Vasuti Megallohely;45,8833;18,4333;RSTP
3042876;Világospuszta Vasúti Megállóhely;Vilagospuszta Vasuti Megallohely;47,9167;19,2167;RSTP
3042887;Világoshegy Vasúti Megállóhely;Vilagoshegy Vasuti Megallohely;46,8667;19,9500;RSTP
3042930;Veszkény Vasúti Megállóhely;Veszkeny Vasuti Megallohely;47,5872;17,0995;RSTP
3042940;Vértesszőlős Vasúti Megállóhely;Vertesszolos Vasuti Megallohely;47,6167;18,3833;RSTP
3042955;Verőcemaros Felső Vasúti Megállóhely;Verocemaros Felso Vasuti Megallohely;47,8333;19,0000;RSTP
3042991;Velence Vasúti Megállóhely;Velence Vasuti Megallohely;47,2333;18,6667;RSTP
3042996;Velencefürdő Vasúti Megállóhely;Velencefurdo Vasuti Megallohely;47,2134;18,6400;RSTP
3043018;Vecsés Kertekalja Vasúti Megálló;Vecses Kertekalja Vasuti Megallo;47,4032;19,2797;RSTP
3043067;Vasegerszeg Vasúti Megállóhely;Vasegerszeg Vasuti Megallohely;47,3745;16,9283;RSTP
3043098;Városlőd Vasúti Megállóhely;Varoslod Vasuti Megallohely;47,1444;17,6531;RSTP
3043103;Városi Park Vasúti Megállóhely;Varosi Park Vasuti Megallohely;46,7000;19,8667;RSTP
3043177;Vasúti Megállóhely Várda;Vasuti Megallohely Varda;46,4500;17,7333;RSTP
3043188;Váralja Vasúti Megállóhely;Varalja Vasuti Megallohely;46,2833;18,4333;RSTP
3043211;Vámoscsalád Vasúti Megállóhely;Vamoscsalad Vasuti Megallohely;47,3851;16,9604;RSTP
3043283;Váckisújfalu Vasúti Megállóhely;Vackisujfalu Vasuti Megallohely;47,7000;19,3500;RSTP
3043287;Váchartyán Vasúti Megállóhely;Vachartyan Vasuti Megallohely;47,7333;19,2500;RSTP
3043292;Vác-Alsóváros Vasúti Megállóhely;Vac-Alsovaros Vasuti Megallohely;47,7667;19,1500;RSTP
3043297;Uzsabánya Alsó Vasúti Megállóhely;Uzsabanya Also Vasuti Megallohely;46,9000;17,3500;RSTP
3043298;Uzovicstelep Vasúti Megállóhely;Uzovicstelep Vasuti Megallohely;46,8000;19,3000;RSTP
3043319;Úrihegy Vasúti Megállóhely;Urihegy Vasuti Megallohely;46,9000;19,6333;RSTP
3043367;Újvenyim Vasúti Megállóhely;Ujvenyim Vasuti Megallohely;46,9366;18,8719;RSTP
3043469;Újpest Vasúti Megállóhely;Ujpest Vasuti Megallohely;47,5582;19,0800;RSTP
3043523;Újkér Vasúti Megállóhely;Ujker Vasuti Megallohely;47,4549;16,7871;RSTP
3043670;Türje Vasúti Megállóhely;Turje Vasuti Megallohely;46,9833;17,0833;RSTP
3043713;Tóvároskert Vasúti Megállóhely;Tovaroskert Vasuti Megallohely;47,6487;18,3475;RSTP
3043753;Tőserdő Vasúti Megállóhely;Toserdo Vasuti Megallohely;46,8500;19,9833;RSTP
3043777;Törökbálint Vasúti Megállóhely;Torokbalint Vasuti Megallohely;47,4495;18,9109;RSTP
3043785;Tormásliget Vasúti Megállóhely;Tormasliget Vasuti Megallohely;47,4305;16,7823;RSTP
3043817;Tompa Vasúti Megállóhely;Tompa Vasuti Megallohely;46,2197;19,5885;RSTP
3043879;Tófej Vasúti Megállóhely;Tofej Vasuti Megallohely;46,6667;16,8000;RSTP
3043902;Tiszaalpár Felső Vasúti Megállóhely;Tiszaalpar Felso Vasuti Megallohely;46,8333;19,9667;RSTP
3043911;Tímár utca vasúti megállóhely;Timar utca vasuti megallohely;47,5335;19,0440;RSTP
3043967;Terézhalom Vasúti Megállóhely;Terezhalom Vasuti Megallohely;46,3167;19,3667;RSTP
3043983;Tengelic Vasúti Megállóhely;Tengelic Vasuti Megallohely;46,5167;18,7167;RSTP
3044031;Teklefalu Vasúti Megállóhely;Teklefalu Vasuti Megallohely;45,9500;17,7333;RSTP
3044066;Tát Vasúti Megállóhely;Tat Vasuti Megallohely;47,7500;18,6333;RSTP
3044111;Tárkány-Csép Vasúti Megállóhely;Tarkany-Csep Vasuti Megallohely;47,5952;18,0414;RSTP
3044148;Tápiószentmárton Vasúti Megállóhely;Tapioszentmarton Vasuti Megallohely;47,3667;19,8000;RSTP
3044256;Szügy Vasúti Megállóhely;Szugy Vasuti Megallohely;48,0333;19,3333;RSTP
3044287;Szörény Vasúti Megállóhely;Szoreny Vasuti Megallohely;45,9667;17,6833;RSTP
3044293;Szőny Vasúti Megállóhely;Szony Vasuti Megallohely;47,7359;18,1767;RSTP
3044296;Szőny-Déli Vasúti Megállóhely;Szony-Deli Vasuti Megallohely;47,7358;18,1423;RSTP
3044308;Szombathely-Szőlős Vasúti Megállóhely;Szombathely-Szolos Vasuti Megallohely;47,2064;16,6419;RSTP
3044315;Szőlőstelep Vasúti Megállóhely;Szolostelep Vasuti Megallohely;47,4500;19,5667;RSTP
3044361;Szőkéd Vasúti Megállóhely;Szoked Vasuti Megallohely;45,9672;18,2906;RSTP
3044367;Sződ-Sződliget Vasúti Megállóhely;Szod-Szodliget Vasuti Megallohely;47,7283;19,1550;RSTP
3044379;Szob Alsó Vasúti Megállóhely;Szob Also Vasuti Megallohely;47,8167;18,8833;RSTP
3044457;Szikra Vasúti Megállóhely;Szikra Vasuti Megallohely;46,8667;19,9667;RSTP
3044527;Szepezdfürdő Vasúti Megállóhely;Szepezdfurdo Vasuti Megallohely;46,8500;17,6500;RSTP
3044566;Szentmártonkáta Vasúti Megállóhely;Szentmartonkata Vasuti Megallohely;47,4274;19,6952;RSTP
3044577;Szentléránt Vasúti Megállóhely;Szentlerant Vasuti Megallohely;47,1167;16,7500;RSTP
3044688;Szentdénes Vasúti Megállóhely;Szentdenes Vasuti Megallohely;46,0333;17,9333;RSTP
3044756;Szekszárd-Palánk Vasúti Megállóhely;Szekszard-Palank Vasuti Megallohely;46,3833;18,7333;RSTP
3044772;Székesfehérvár Repülőtér vasúti megállóhely;Szekesfehervar Repueloter vasuti megallohely;47,1599;18,4063;RSTP
3044815;Szebény Vasúti Megállóhely;Szebeny Vasuti Megallohely;46,1500;18,6000;RSTP
3044831;Szatina-kishajmás Vasúti Megállóhely;Szatina-kishajmas Vasuti Megallohely;46,2000;18,0833;RSTP
3044838;Szár Vasúti Megállóhely;Szar Vasuti Megallohely;47,4777;18,5348;RSTP
3044896;Szárazd Vasúti Megállóhely;Szarazd Vasuti Megallohely;46,5967;18,4254;RSTP
3044950;Szalatnak Vasúti Megállóhely;Szalatnak Vasuti Megallohely;46,2833;18,2833;RSTP
3044974;Szakmár Vasúti Megállóhely;Szakmar Vasuti Megallohely;46,5333;19,0667;RSTP
3045019;Szabadságtelep Vasúti Megállóhely;Szabadsagtelep Vasuti Megallohely;47,5500;19,2167;RSTP
3045044;Süttő Felső Vasúti Megállóhely;Sutto Felso Vasuti Megallohely;47,7564;18,4381;RSTP
3045109;Sövénykút Vasúti Megállóhely;Sovenykut Vasuti Megallohely;47,4167;18,1333;RSTP
3045153;Soroksár Felső Vasúti Megállóhely;Soroksar Felso Vasuti Megallohely;47,4167;19,1167;RSTP
3045164;Sorkifalud Vasúti Megállóhely;Sorkifalud Vasuti Megallohely;47,1333;16,7167;RSTP
3045183;Sopronkövesd Vasúti Megállóhely;Sopronkoevesd Vasuti Megallohely;47,5475;16,7485;RSTP
3045244;Somogyaszaló Vasúti Megállóhely;Somogyaszalo Vasuti Megallohely;46,4500;17,8333;RSTP
3045249;Somodor Vasúti Megállóhely;Somodor Vasuti Megallohely;46,4833;17,8333;RSTP
3045253;Som-Nagyberény Vasúti Megállóhely;Som-Nagybereny Vasuti Megallohely;46,8034;18,1491;RSTP
3045267;Somlóvásárhely Vasúti Megállóhely;Somlovasarhely Vasuti Megallohely;47,1244;17,3688;RSTP
3045291;Sóly Vasúti Megállóhely;Soly Vasuti Megallohely;47,1333;18,0333;RSTP
3045299;Soltszentimre Vasúti Megállóhely;Soltszentimre Vasuti Megallohely;46,7667;19,2667;RSTP
3045362;Siklósi Szőlők Vasúti Megállóhely;Siklosi Szolok Vasuti Megallohely;45,8642;18,2798;RSTP
3045383;Seregélyes-Szőlőhegy Vasúti Megállóhely;Seregelyes-Szolohegy Vasuti Megallohely;47,1167;18,5833;RSTP
3045397;Selymes Vasúti Megállóhely;Selymes Vasuti Megallohely;46,6500;19,8667;RSTP
3045410;Segesd Vasúti Megállóhely;Segesd Vasuti Megallohely;46,3333;17,3333;RSTP
3045474;Sashalom Vasúti Megállóhely;Sashalom Vasuti Megallohely;47,5091;19,1791;RSTP
3045495;Sárszentágota Vasúti Megállóhely;Sarszentagota Vasuti Megallohely;46,9667;18,5833;RSTP
3045503;Sárpentele Vasúti Megállóhely;Sarpentele Vasuti Megallohely;47,1689;18,3605;RSTP
3045529;Sárkeresztúr Vasúti Megállóhely;Sarkeresztur Vasuti Megallohely;47,0167;18,5500;RSTP
3045549;Sárhida Vasúti Megállóhely;Sarhida Vasuti Megallohely;46,7500;16,8500;RSTP
3045572;Sántos Vasúti Megállóhely;Santos Vasuti Megallohely;46,3500;17,9000;RSTP
3045636;Salköveskút-Vassurány Vasúti Megállóhely;Salkoeveskut-Vassurany Vasuti Megallohely;47,2904;16,7027;RSTP
3045695;Rudnaykert Vasúti Megállóhely;Rudnaykert Vasuti Megallohely;47,7188;19,2566;RSTP
3045703;Rózsavölgy Vasúti Megállóhely;Rozsavolgy Vasuti Megallohely;47,4333;19,0000;RSTP
3045760;Románd Vasúti Megállóhely;Romand Vasuti Megallohely;47,4390;17,7928;RSTP
3045821;Rigács-Megyer Vasúti Megállóhely;Rigacs-Megyer Vasuti Megallohely;47,0604;17,1988;RSTP
3045842;Rétszilas Alsó Vasúti Megállóhely;Retszilas Also Vasuti Megallohely;46,8292;18,6379;RSTP
3045885;Répáspuszta Vasúti Megállóhely;Repaspuszta Vasuti Megallohely;46,4333;17,8333;RSTP
3045916;Regöly Vasúti Megállóhely;Regoly Vasuti Megallohely;46,5689;18,3960;RSTP
3045934;Ravazd Vasúti Megállóhely;Ravazd Vasuti Megallohely;47,5296;17,7588;RSTP
3045946;Ráróspuszta Vasúti Megállóhely;Rarospuszta Vasuti Megallohely;48,2072;19,5416;RSTP
3045947;Raposka Vasúti Megállóhely;Raposka Vasuti Megallohely;46,8333;17,4167;RSTP
3045964;Rákospalota-Kertváros Vasúti Megállóhely;Rakospalota-Kertvaros Vasuti Megallohely;47,5833;19,1333;RSTP
3045967;Rákosliget Vasúti Megállóhely;Rakosliget Vasuti Megallohely;47,4862;19,2576;RSTP
3045969;Rákoskert Vasúti Megállóhely;Rakoskert Vasuti Megallohely;47,4569;19,2958;RSTP
3045978;Rákoscsaba-Újtelep Vasúti Megállóhely;Rakoscsaba-Ujtelep Vasuti Megallohely;47,4873;19,2715;RSTP
3046003;Rádiháza Vasúti Megállóhely;Radihaza Vasuti Megallohely;46,6500;16,7833;RSTP
3046078;Pusztaszentmihályfa Vasúti Megállóhely;Pusztaszentmihalyfa Vasuti Megallohely;46,8592;18,2704;RSTP
3046081;Pusztaszentistván Vasúti Megállóhely;Pusztaszentistvan Vasuti Megallohely;47,4500;19,4667;RSTP
3046109;Pusztagyimót Vasúti Megállóhely;Pusztagyimot Vasuti Megallohely;47,3500;17,5167;RSTP
3046175;Pötréte Vasúti Megállóhely;Potrete Vasuti Megallohely;46,6833;16,9500;RSTP
3046194;Pósfa Vasúti Megállóhely;Posfa Vasuti Megallohely;47,3270;16,8558;RSTP
3046198;Portelek Vasúti Megállóhely;Portelek Vasuti Megallohely;47,4154;19,9608;RSTP
3046202;Porrogszentkirály Vasúti Megállóhely;Porrogszentkiraly Vasuti Megallohely;46,2500;17,0167;RSTP
3046243;Polgárdi-Tekerespuszta Vasúti Megállóhely;Polgardi-Tekerespuszta Vasuti Megallohely;47,0333;18,3167;RSTP
3046291;Piszke Vasúti Megállóhely;Piszke Vasuti Megallohely;47,7500;18,4833;RSTP
3046299;Pirtói Szőlők Vasúti Megállóhely;Pirtoi Szolok Vasuti Megallohely;46,5167;19,4500;RSTP
3046348;Piliscsév Vasúti Megállóhely;Piliscsev Vasuti Megallohely;47,6667;18,8000;RSTP
3046364;Pettend Vasúti Megállóhely;Pettend Vasuti Megallohely;47,2667;18,7167;RSTP
3046384;Petőfiszállási Tanyák Vasúti Megállóhely;Petofiszallasi Tanyak Vasuti Megallohely;46,6000;19,8000;RSTP
3046410;Péterhida-Komlósd Vasúti Megállóhely;Peterhida-Komlosd Vasuti Megallohely;46,0167;17,3667;RSTP
3046437;Pestszentimre Felső Vasúti Megállóhely;Pestszentimre Felso Vasuti Megallohely;47,4140;19,1734;RSTP
3046443;Pesterzsébet Vasúti Megállóhely;Pesterzsebet Vasuti Megallohely;47,4338;19,0972;RSTP
3046484;Perdócmajor Vasúti Megállóhely;Perdocmajor Vasuti Megallohely;46,2034;17,0801;RSTP
3046506;Pécsújhegy Vasúti Megállóhely;Pecsujhegy Vasuti Megallohely;46,0833;18,2833;RSTP
3046518;Pécs-Gyárváros Vasúti Megállóhely;Pecs-Gyarvaros Vasuti Megallohely;46,0833;18,2833;RSTP
3046610;Pári Vasúti Megállóhely;Pari Vasuti Megallohely;46,5833;18,2500;RSTP
3046689;Pannonia Telep Vasúti Megállóhely;Pannonia Telep Vasuti Megallohely;47,6500;19,0667;RSTP
3046702;Pamuk Vasúti Megállóhely;Pamuk Vasuti Megallohely;46,5500;17,6667;RSTP
3046735;Palkonya Vasúti Megállóhely;Palkonya Vasuti Megallohely;45,8833;18,4000;RSTP
3046738;Páli-Vadosfa Vasúti Megállóhely;Pali-Vadosfa Vasuti Megallohely;47,4924;17,1381;RSTP
3046770;Pakod Vasúti Megállóhely;Pakod Vasuti Megallohely;46,9667;17,0000;RSTP
3046794;Pacsmag Vasúti Megállóhely;Pacsmag Vasuti Megallohely;46,6167;18,3833;RSTP
3046830;Ötfa Vasúti Megállóhely;Otfa Vasuti Megallohely;46,5333;19,7333;RSTP
3046854;Öskü Vasúti Megállóhely;Osku Vasuti Megallohely;47,1601;18,0748;RSTP
3046860;Örvényes Vasúti Megállóhely;Orvenyes Vasuti Megallohely;46,9167;17,8167;RSTP
3046868;Ortaháza Vasúti Megállóhely;Ortahaza Vasuti Megallohely;46,6167;16,6833;RSTP
3046917;Őrjeg Vasúti Megállóhely;Orjeg Vasuti Megallohely;46,5167;19,1500;RSTP
3046933;Őrhalom Vasúti Megállóhely;Orhalom Vasuti Megallohely;48,0772;19,3902;RSTP
3047177;Okorág-Kárászpuszta Vasúti Megállóhely;Okorag-Karaszpuszta Vasuti Megallohely;45,9333;17,8667;RSTP
3047204;Ócsai Szőlők Vasúti Megállóhely;Ocsai Szolok Vasuti Megallohely;47,2851;19,2678;RSTP
3047247;Nyírlak Vasúti Megállóhely;Nyirlak Vasuti Megallohely;47,0000;17,2500;RSTP
3047256;Nyíresszőlőtelep Vasúti Megállóhely;Nyiresszolotelep Vasuti Megallohely;47,6756;19,2866;RSTP
3047281;Nyergesújfalu Felső Vasúti Megállóhely;Nyergesujfalu Felso Vasuti Megallohely;47,7667;18,5500;RSTP
3047307;Nyárlőrinci Szőlők Vasúti Megállóhely;Nyarlorinci Szolok Vasuti Megallohely;46,8833;19,8333;RSTP
3047308;Nyárlőrinc Alsó Vasúti Megállóhely;Nyarlorinc Also Vasuti Megallohely;46,8667;19,8833;RSTP
3047339;Normafa Vasúti Megállóhely;Normafa Vasuti Megallohely;47,5005;18,9689;RSTP
3047363;Neszmélyi Téglagyár Vasúti Megállóhely;Neszmelyi Teglagyar Vasuti Megallohely;47,7369;18,3731;RSTP
3047369;Nemti Vasúti Megállóhely;Nemti Vasuti Megallohely;48,0000;19,9167;RSTP
3047403;Nemeskocs Vasúti Megállóhely;Nemeskocs Vasuti Megallohely;47,2032;17,1889;RSTP
3047406;Nemeske Vasúti Megállóhely;Nemeske Vasuti Megallohely;46,0167;17,7167;RSTP
3047407;Nemeskeresztúr Vasúti Megállóhely;Nemeskeresztur Vasuti Megallohely;47,0928;17,1833;RSTP
3047416;Nemesgulács-Kisapáti Vasúti Megállóhely;Nemesgulacs-Kisapati Vasuti Megallohely;46,8333;17,4833;RSTP
3047418;Nemesgörzsöny Vasúti Megállóhely;Nemesgorzsony Vasuti Megallohely;47,4030;17,3764;RSTP
3047500;Nagytétény-Érdliget Vasúti Megállóhely;Nagyteteny-Erdliget Vasuti Megallohely;47,3845;18,9550;RSTP
3047557;Nagysimonyi Vasúti Megállóhely;Nagysimonyi Vasuti Megallohely;47,2656;17,0575;RSTP
3047584;Nagypeterd Vasúti Megállóhely;Nagypeterd Vasuti Megallohely;46,0500;17,9000;RSTP
3047599;Nagypall Vasúti Megállóhely;Nagypall Vasuti Megallohely;46,1479;18,4601;RSTP
3047609;Nagynyír Vasúti Megállóhely;Nagynyir Vasuti Megallohely;46,9500;19,5833;RSTP
3047610;Nagynyárád Vasúti Megállóhely;Nagynyarad Vasuti Megallohely;45,9578;18,5871;RSTP
3047617;Nagymaros-Visegrád Vasúti Megállóhely;Nagymaros-Visegrad Vasuti Megallohely;47,8000;18,9667;RSTP
3047656;Nagykonda Vasúti Megállóhely;Nagykonda Vasuti Megallohely;46,4333;18,2000;RSTP
3047673;Nagykarácsony Felső Vasúti Megállóhely;Nagykaracsony Felso Vasuti Megallohely;46,8796;18,7917;RSTP
3047776;Nagycsány Vasúti Megállóhely;Nagycsany Vasuti Megallohely;45,8667;17,9500;RSTP
3047793;Nagyberki Vasúti Megállóhely;Nagyberki Vasuti Megallohely;46,3667;18,0167;RSTP
3047850;Nádasd Vasúti Megállóhely;Nadasd Vasuti Megallohely;46,9667;16,6167;RSTP
3047924;Mórágy-Alsónána Vasúti Megállóhely;Moragy-Alsonana Vasuti Megallohely;46,2226;18,6580;RSTP
3047940;Monori Erdő Vasúti Megállóhely;Monori Erdo Vasuti Megallohely;47,3000;19,5000;RSTP
3047943;Molvány Vasúti Megállóhely;Molvany Vasuti Megallohely;46,0333;17,7500;RSTP
3047994;Möcsény Vasúti Megállóhely;Mocseny Vasuti Megallohely;46,2667;18,6000;RSTP
3048046;Miklóstelep Vasúti Megállóhely;Miklostelep Vasuti Megallohely;46,9000;19,6500;RSTP
3048081;Mihályháza Vasúti Megállóhely;Mihalyhaza Vasuti Megallohely;47,3179;17,3298;RSTP
3048173;Méntelek Vasúti Megállóhely;Mentelek Vasuti Megallohely;46,9667;19,5833;RSTP
3048176;Ménfőcsanak Felső Vasúti Megállóhely;Menfocsanak Felso Vasuti Megallohely;47,6333;17,6167;RSTP
3048179;Ménesmajor Vasúti Megállóhely;Menesmajor Vasuti Megallohely;46,8833;18,8000;RSTP
3048232;Meggyespele Vasúti Megállóhely;Meggyespele Vasuti Megallohely;47,4333;19,9500;RSTP
3048248;Mecsekpölöske Vasúti Megállóhely;Mecsekpoloske Vasuti Megallohely;46,2167;18,2167;RSTP
3048261;Mázaszászvár Alsó Vasúti Megállóhely;Mazaszaszvar Also Vasuti Megallohely;46,2833;18,3667;RSTP
3048273;Mátyásföld Alsó Vasúti Megállóhely;Matyasfold Also Vasuti Megallohely;47,5157;19,2063;RSTP
3048280;Mátraverebély Vasúti Megállóhely;Matraverebely Vasuti Megallohely;47,9685;19,7791;RSTP
3048283;Mátraszőlős-Hasznos Vasúti Megállóhely;Matraszolos-Hasznos Vasuti Megallohely;47,9393;19,7075;RSTP
3048354;Márok Vasúti Megállóhely;Marok Vasuti Megallohely;45,8877;18,5000;RSTP
3048370;Márkó Vasúti Megállóhely;Marko Vasuti Megallohely;47,1272;17,8131;RSTP
3048385;Máriaudvar Vasúti Megállóhely;Mariaudvar Vasuti Megallohely;47,7500;19,1667;RSTP
3048427;Máriagyűd Vasúti Megállóhely;Mariagyud Vasuti Megallohely;45,8671;18,2691;RSTP
3048429;Máriabesnyő Vasúti Megállóhely;Mariabesnyo Vasuti Megallohely;47,6000;19,4000;RSTP
3048448;Marcaltő Vasúti Megállóhely;Marcalto Vasuti Megallohely;47,4278;17,3488;RSTP
3048572;Magyarszerdahely Vasúti Megállóhely;Magyarszerdahely Vasuti Megallohely;46,5500;17,0000;RSTP
3048592;Magyarkút-Verőcemaros Vasúti Megállóhely;Magyarkut-Verocemaros Vasuti Megallohely;47,8333;19,0500;RSTP
3048593;Magyarkút Vasúti Megállóhely;Magyarkut Vasuti Megallohely;47,8481;19,0473;RSTP
3048596;Magyarkeresztúr-Zsebeháza Vasúti Megállóhely;Magyarkeresztur-Zsebehaza Vasuti Megallohely;47,5143;17,1761;RSTP
3048601;Magyarhertelend Vasúti Megállóhely;Magyarhertelend Vasuti Megallohely;46,2000;18,1667;RSTP
3048629;Maglódi Nyaraló Vasúti Megállóhely;Maglodi Nyaralo Vasuti Megallohely;47,4348;19,3648;RSTP
3048698;Ludányhalászi Vasúti Megállóhely;Ludanyhalaszi Vasuti Megallohely;48,1321;19,5285;RSTP
3048814;Levél Vasúti Megállóhely;Level Vasuti Megallohely;47,8895;17,1931;RSTP
3048843;Lentiszombathely Vasúti Megállóhely;Lentiszombathely Vasuti Megallohely;46,6167;16,5667;RSTP
3048898;Lázi Vasúti Megállóhely;Lazi Vasuti Megallohely;47,4667;17,8333;RSTP
3049001;Lajosmizse Alsó Vasúti Megállóhely;Lajosmizse Also Vasuti Megallohely;47,0147;19,5494;RSTP
3049060;Kutas Vasúti Megállóhely;Kutas Vasuti Megallohely;46,3333;17,4500;RSTP
3049103;Kunszállás Vasúti Megállóhely;Kunszallas Vasuti Megallohely;46,7833;19,7667;RSTP
3049108;Küngös Vasúti Megállóhely;Kungos Vasuti Megallohely;47,0667;18,1833;RSTP
3049161;Kulcs Vasúti Megállóhely;Kulcs Vasuti Megallohely;47,0500;18,9000;RSTP
3049313;Kővágóér Vasúti Megállóhely;Kovagoer Vasuti Megallohely;46,6500;19,8167;RSTP
3049333;Kovácshida Vasúti Megállóhely;Kovacshida Vasuti Megallohely;45,8372;18,1898;RSTP
3049363;Kőszegfalva Vasúti Megállóhely;Koszegfalva Vasuti Megallohely;47,3616;16,5677;RSTP
3049441;Korhánköz Vasúti Megállóhely;Korhankoz Vasuti Megallohely;46,8833;19,6500;RSTP
3049455;Kopolya Vasúti Megállóhely;Kopolya Vasuti Megallohely;46,4000;19,4833;RSTP
3049460;Kópháza Vasúti Megállóhely;Kophaza Vasuti Megallohely;47,6328;16,6370;RSTP
3049504;Köncsög Vasúti Megállóhely;Koncsog Vasuti Megallohely;46,8528;19,5220;RSTP
3049528;Kolontár Vasúti Megállóhely;Kolontar Vasuti Megallohely;47,0892;17,4769;RSTP
3049644;Kőbánya Alsó Vasúti Megállóhely;Kobanya Also Vasuti Megallohely;47,4832;19,1274;RSTP
3049652;Klotildliget Vasúti Megállóhely;Klotildliget Vasuti Megallohely;47,6360;18,8508;RSTP
3049668;Kitérőgyár Vasúti Megállóhely;Kiterogyar Vasuti Megallohely;47,7667;19,9500;RSTP
3049695;Kistótfalu Vasúti Megállóhely;Kistotfalu Vasuti Megallohely;45,9096;18,3155;RSTP
3049707;Kisterenye-Bányatelep Vasúti Megállóhely;Kisterenye-Banyatelep Vasuti Megallohely;48,0333;19,8333;RSTP
3049712;Kisteleki Szőlők Vasúti Megállóhely;Kisteleki Szolok Vasuti Megallohely;46,5167;19,9333;RSTP
3049820;Kisnémedi Vasúti Megállóhely;Kisnemedi Vasuti Megallohely;47,7167;19,2667;RSTP
3049825;Kismindszenti Út Vasúti Megállóhely;Kismindszenti Ut Vasuti Megallohely;46,7500;19,8833;RSTP
3049881;Kiskunfélegyházi Út Vasúti Megállóhely;Kiskunfelegyhazi Ut Vasuti Megallohely;46,8500;19,7333;RSTP
3049883;Kiskunfélegyházi Gépállomás Vasúti Megállóhely;Kiskunfelegyhazi Gepallomas Vasuti Megallohely;46,8167;19,8500;RSTP
3050021;Kisfái Vasúti Megállóhely;Kisfai Vasuti Megallohely;46,8833;19,8000;RSTP
3050042;Kisdobsza Vasúti Megállóhely;Kisdobsza Vasuti Megallohely;46,0167;17,6667;RSTP
3050151;Királyegyháza-Rigópuszta Vasúti Megállóhely;Kiralyegyhaza-Rigopuszta Vasuti Megallohely;46,0000;17,9667;RSTP
3050167;Kilimán Vasúti Megállóhely;Kiliman Vasuti Megallohely;46,6333;17,0000;RSTP
3050171;Kiliántelep Vasúti Megállóhely;Kiliantelep Vasuti Megallohely;46,9000;17,7833;RSTP
3050193;Kétújfalu Vasútállomás;Ketujfalu Vasutallomas;45,9833;17,7167;RSTP
3050329;Kén Utca Vasúti Megállóhely;Ken Utca Vasuti Megallohely;47,4556;19,0858;RSTP
3050364;Kemenespálfa Vasúti Megállóhely;Kemenespalfa Vasuti Megallohely;47,1398;17,1836;RSTP
3050366;Kemenesmihályfa Vasúti Megállóhely;Kemenesmihalyfa Vasuti Megallohely;47,2790;17,1089;RSTP
3050374;Kemendollár Vasúti Megállóhely;Kemendollar Vasuti Megallohely;46,9000;16,9667;RSTP
3050425;Kecskéscsárda Vasúti Megállóhely;Kecskescsarda Vasuti Megallohely;47,1833;19,9167;RSTP
3050428;Kecskemét-Parasztfőiskola Vasúti Megállóhely;Kecskemet-Parasztfoiskola Vasuti Megallohely;46,9000;19,7167;RSTP
3050446;Kecskéd Alsó Vasúti Megállóhely;Kecsked Also Vasuti Megallohely;47,5167;18,3167;RSTP
3050451;Kecel-Szilos Vasúti Megállóhely;Kecel-Szilos Vasuti Megallohely;46,5167;19,2000;RSTP
3050509;Kastélyosdombó Vasúti Megállóhely;Kastelyosdombo Vasuti Megallohely;45,9500;17,6167;RSTP
3050579;Karakószörcsök Vasúti Megállóhely;Karakoszorcsok Vasuti Megallohely;47,1337;17,2876;RSTP
3050602;Káptalanfüred Vasúti Megállóhely;Kaptalanfured Vasuti Megallohely;47,0119;18,0057;RSTP
3050614;Kaposvár-Közvágóhíd Vasúti Megállóhely;Kaposvar-Kozvagohid Vasuti Megallohely;46,3667;17,8333;RSTP
3050615;Kaposvári Textilművek Vasúti Megállóhely;Kaposvari Textilmuvek Vasuti Megallohely;46,3833;17,8000;RSTP
3050617;Kaposújlak Vasúti Megállóhely;Kaposujlak Vasuti Megallohely;46,3671;17,7243;RSTP
3050621;Kaposszekcső Vasúti Megállóhely;Kaposszekcso Vasuti Megallohely;46,3333;18,1500;RSTP
3050624;Kapospula Vasúti Megállóhely;Kapospula Vasuti Megallohely;46,3833;18,1000;RSTP
3050629;Kaposhomok Vasúti Megállóhely;Kaposhomok Vasuti Megallohely;46,3677;17,9206;RSTP
3050661;Kapitányság Vasúti Megállóhely;Kapitanysag Vasuti Megallohely;46,4333;19,9833;RSTP
3050753;Kákics Vasúti Megállóhely;Kakics Vasuti Megallohely;45,9000;17,8500;RSTP
3050777;Kajdacs Vasúti Megállóhely;Kajdacs Vasuti Megallohely;46,5881;18,6499;RSTP
3050784;Kádárta Vasúti Megállóhely;Kadarta Vasuti Megallohely;47,1259;17,9531;RSTP
3050791;Kabókapuszta Vasúti Megállóhely;Kabokapuszta Vasuti Megallohely;46,9000;18,2667;RSTP
3050871;Jobbágyi Vasúti Megállóhely;Jobbagyi Vasuti Megallohely;47,8333;19,6833;RSTP
3051108;Ipolyszög Vasúti Megállóhely;Ipolyszog Vasuti Megallohely;48,0500;19,2167;RSTP
3051119;Inota Vasúti Megállóhely;Inota Vasuti Megallohely;47,1974;18,1712;RSTP
3051149;Ilonaszállás Vasúti Megállóhely;Ilonaszallas Vasuti Megallohely;46,5833;19,8000;RSTP
3051182;Iklódbördőce Vasúti Megállóhely;Iklodbordoce Vasuti Megallohely;46,6000;16,6167;RSTP
3051186;Iklad-Domony Felső Vasúti Megállóhely;Iklad-Domony Felso Vasuti Megallohely;47,6701;19,4236;RSTP
3051239;Hugyag Vasúti Megállóhely;Hugyag Vasuti Megallohely;48,0827;19,4231;RSTP
3051279;Hosszúhetény Vasúti Megállóhely;Hosszuheteny Vasuti Megallohely;46,1354;18,3671;RSTP
3051303;Hosszúberek-Péteri Vasúti Megállóhely;Hosszuberek-Peteri Vasuti Megallohely;47,3721;19,3902;RSTP
3051352;Homokterenye Vasúti Megállóhely;Homokterenye Vasuti Megallohely;48,0261;19,9569;RSTP
3051475;Hévízgyörk Vasúti Megállóhely;Hevizgyork Vasuti Megallohely;47,6333;19,5167;RSTP
3051479;Hetvehely Vasúti Megállóhely;Hetvehely Vasuti Megallohely;46,1333;18,0500;RSTP
3051508;Heresznye Vasúti Megállóhely;Heresznye Vasuti Megallohely;46,0667;17,3000;RSTP
3051764;Hanság-Nagyerdő Vasúti Megállóhely;Hansag-Nagyerdo Vasuti Megallohely;47,7411;17,1891;RSTP
3051766;Hanságliget Vasúti Megállóhely;Hansagliget Vasuti Megallohely;47,7200;17,2155;RSTP
3051811;Halesz Vasúti Megállóhely;Halesz Vasuti Megallohely;46,6667;19,8167;RSTP
3051833;Halászaranyos Vasúti Megállóhely;Halaszaranyos Vasuti Megallohely;47,7167;19,9500;RSTP
3051855;Halasi Tanyák Vasúti Megállóhely;Halasi Tanyak Vasuti Megallohely;46,4500;19,5667;RSTP
3051880;Hajmáskér-Újtelep Vasúti Megállóhely;Hajmasker-Ujtelep Vasuti Megallohely;47,1479;18,0397;RSTP
3051962;Győrvár Vasúti Megállóhely;Gyorvar Vasuti Megallohely;46,9833;16,8500;RSTP
3051986;Győri Ipartelepek Vasúti Megállóhely;Gyori Ipartelepek Vasuti Megallohely;47,6847;17,6628;RSTP
3052012;Gyón Vasúti Megállóhely;Gyon Vasuti Megallohely;47,1803;19,3528;RSTP
3052032;Gyöngyöshermán Vasúti Megállóhely;Gyongyosherman Vasuti Megallohely;47,2028;16,6571;RSTP
3052033;Gyöngyöshalász Vasúti Megállóhely;Gyongyoshalasz Vasuti Megallohely;47,7442;19,9322;RSTP
3052041;Gyöngyfa-Magyarmecske Vasúti Megállóhely;Gyongyfa-Magyarmecske Vasuti Megallohely;45,9833;17,9667;RSTP
3052047;Gyömöre-Tét Vasúti Megállóhely;Gyomore-Tet Vasuti Megallohely;47,4833;17,5667;RSTP
3052068;Gyenesdiás Vasúti Megállóhely;Gyenesdias Vasuti Megallohely;46,7667;17,2833;RSTP
3052100;Gyál Felső Vasúti Megállóhely;Gyal Felso Vasuti Megallohely;47,3898;19,2059;RSTP
3052235;Gödöllő-Állami Telepek Vasúti Megállóhely;Godollo-Allami Telepek Vasuti Megallohely;47,5667;19,3833;RSTP
3052238;Göd Felső Vasúti Megállóhely;God Felso Vasuti Megallohely;47,7167;19,1500;RSTP
3052240;Göd Alsó Vasúti Megállóhely;God Also Vasuti Megallohely;47,6833;19,1500;RSTP
3052328;Gencsapáti Felső Vasúti Megállóhely;Gencsapati Felso Vasuti Megallohely;47,3033;16,5927;RSTP
3052329;Gencsapáti Alsó Vasúti Megállóhely;Gencsapati Also Vasuti Megallohely;47,2858;16,6002;RSTP
3052400;Gamásza Vasúti Megállóhely;Gamasza Vasuti Megallohely;46,9333;18,1333;RSTP
3052418;Galgahévíz Vasúti Megállóhely;Galgaheviz Vasuti Megallohely;47,6313;19,5623;RSTP
3052438;Galambház Vasúti Megállóhely;Galambhaz Vasuti Megallohely;46,8500;19,5000;RSTP
3052540;Fótújfalu Vasúti Megállóhely;Fotujfalu Vasuti Megallohely;47,6167;19,2000;RSTP
3052572;Fonyódliget Vasúti Megállóhely;Fonyodliget Vasuti Megallohely;46,7590;17,5914;RSTP
3052618;Fityeház Vasúti Megállóhely;Fityehaz Vasuti Megallohely;46,3667;16,9167;RSTP
3052636;Fertőszéplak-Fertőd Vasúti Megállóhely;Fertoszeplak-Fertod Vasuti Megallohely;47,6180;16,8507;RSTP
3052656;Ferenctelep Vasúti Megállóhely;Ferenctelep Vasuti Megallohely;45,9833;17,3833;RSTP
3052691;Fenékpuszta Vasúti Megállóhely;Fenekpuszta Vasuti Megallohely;46,7167;17,2500;RSTP
3052810;Felsőméntelek Vasúti Megállóhely;Felsomentelek Vasuti Megallohely;46,9862;19,5588;RSTP
3052847;Felsőlajos Vasúti Megállóhely;Felsolajos Vasuti Megallohely;47,0675;19,4993;RSTP
3052851;Felsőkörtvélyes Vasúti Megállóhely;Felsokortvelyes Vasuti Megallohely;46,9333;18,6000;RSTP
3052861;Felsőkapony Vasúti Megállóhely;Felsokapony Vasuti Megallohely;47,3437;19,2318;RSTP
3052947;Felsőbogátpuszta Vasúti Megállóhely;Felsobogatpuszta Vasuti Megallohely;46,3500;17,3833;RSTP
3052982;Fekete Vasúti Megállóhely;Fekete Vasuti Megallohely;46,9833;19,7333;RSTP
3053004;Feketehalom Vasúti Megállóhely;Feketehalom Vasuti Megallohely;46,6000;19,3500;RSTP
3053020;Feketebézseny Vasúti Megállóhely;Feketebezseny Vasuti Megallohely;46,7167;17,5833;RSTP
3053024;Feked Vasúti Megállóhely;Feked Vasuti Megallohely;46,1502;18,5561;RSTP
3053031;Fehérvárcsurgó Vasúti Megállóhely;Fehervarcsurgo Vasuti Megallohely;47,2833;18,2833;RSTP
3053072;Farmos Vasúti Megállóhely;Farmos Vasuti Megallohely;47,3500;19,8500;RSTP
3053107;Farád Vasúti Megállóhely;Farad Vasuti Megallohely;47,5961;17,1962;RSTP
3053134;Fácánkert Vasúti Megállóhely;Facankert Vasuti Megallohely;46,4389;18,7431;RSTP
3053236;Erdőszél Vasúti Megállóhely;Erdoszel Vasuti Megallohely;46,3333;19,4000;RSTP
3053252;Erdőkertes Vasúti Megállóhely;Erdokertes Vasuti Megallohely;47,6630;19,2959;RSTP
3053273;Érdliget Vasúti Megállóhely;Erdliget Vasuti Megallohely;47,4000;18,9333;RSTP
3053274;Érd Felső Vasúti Megállóhely;Erd Felso Vasuti Megallohely;47,3833;18,9167;RSTP
3053356;Egyetemi Tangazdaság Vasúti Megállóhely;Egyetemi Tangazdasag Vasuti Megallohely;47,2500;18,9500;RSTP
3053397;Écs Vasúti Megállóhely;Ecs Vasuti Megallohely;47,5661;17,7203;RSTP
3053400;Ecser Vasúti Megállóhely;Ecser Vasuti Megallohely;47,4412;19,3141;RSTP
3053419;Dúzs Vasúti Megállóhely;Duzs Vasuti Megallohely;46,5000;18,3833;RSTP
3053433;Dunavarsány Vasúti Megállóhely;Dunavarsany Vasuti Megallohely;47,2667;19,0667;RSTP
3053436;Dunaújváros Külső Vasúti Megállóhely;Dunaujvaros Kulso Vasuti Megallohely;46,9833;18,9000;RSTP
3053471;Dunakömlőd Vasúti Megállóhely;Dunakomlod Vasuti Megallohely;46,6667;18,8833;RSTP
3053474;Dunakeszi-Gyártelep Vasúti Megállóhely;Dunakeszi-Gyartelep Vasuti Megallohely;47,6500;19,1333;RSTP
3053475;Dunakeszi Alsó Vasúti Megállóhely;Dunakeszi Also Vasuti Megallohely;47,6167;19,1333;RSTP
3053484;Dunaharaszti Alsó Vasúti Megállóhely;Dunaharaszti Also Vasuti Megallohely;47,3333;19,0833;RSTP
3053488;Dunaföldvár Felső Vasúti Megállóhely;Dunafoldvar Felso Vasuti Megallohely;46,8167;18,9333;RSTP
3053496;Dunaalmás Vasúti Megállóhely;Dunaalmas Vasuti Megallohely;47,7333;18,3333;RSTP
3053504;Dudar Vasúti Megállóhely;Dudar Vasuti Megallohely;47,3000;17,9667;RSTP
3053511;Drégely Vasúti Megállóhely;Dregely Vasuti Megallohely;48,0422;19,0555;RSTP
3053512;Drégelyvár Vasúti Megállóhely;Dregelyvar Vasuti Megallohely;48,0026;19,0777;RSTP
3053516;Drávatamási Vasúti Megállóhely;Dravatamasi Vasuti Megallohely;45,9667;17,5833;RSTP
3053530;Drávacsepely Vasúti Megállóhely;Dravacsepely Vasuti Megallohely;45,8389;18,1325;RSTP
3053579;Dömösi Átkelés Vasúti Megállóhely;Domosi Atkeles Vasuti Megallohely;47,7667;18,9167;RSTP
3053596;Dombay-tó Vasúti Megállóhely;Dombay-to Vasuti Megallohely;46,1448;18,3985;RSTP
3053741;Dénesfa Vasúti Megállóhely;Denesfa Vasuti Megallohely;47,4488;17,0551;RSTP
3053830;Dabronc Vasúti Megállóhely;Dabronc Vasuti Megallohely;47,0257;17,1672;RSTP
3053865;Csurgaszi Csárda Vasúti Megállóhely;Csurgaszi Csarda Vasuti Megallohely;46,8667;16,7333;RSTP
3053908;Csörög Vasúti Megállóhely;Csorog Vasuti Megallohely;47,7333;19,2000;RSTP
3053937;Csopak Vasúti Megállóhely;Csopak Vasuti Megallohely;46,9833;17,9333;RSTP
3053959;Csongrádi Úti Tanyák Vasúti Megállóhely;Csongradi Uti Tanyak Vasuti Megallohely;46,7000;19,9167;RSTP
3054003;Csókakő Vasúti Megállóhely;Csokako Vasuti Megallohely;47,3333;18,2333;RSTP
3054090;Csikóstőttős Vasúti Megállóhely;Csikostottos Vasuti Megallohely;46,3333;18,1500;RSTP
3054128;Csibrák Vasúti Megállóhely;Csibrak Vasuti Megallohely;46,4667;18,3500;RSTP
3054292;Csémpuszta Vasúti Megállóhely;Csempuszta Vasuti Megallohely;47,7038;18,1039;RSTP
3054449;Csajág Felső Vasúti Megállóhely;Csajag Felso Vasuti Megallohely;47,0500;18,1833;RSTP
3054497;Cikó Vasúti Megállóhely;Ciko Vasuti Megallohely;46,2667;18,5667;RSTP
3054539;Ceglédi Szállások Vasúti Megállóhely;Cegledi Szallasok Vasuti Megallohely;47,1667;19,8167;RSTP
3054540;Ceglédbercel Vasúti Megállóhely;Cegledbercel Vasuti Megallohely;47,2167;19,6667;RSTP
3054551;Buzsák Vasúti Megállóhely;Buzsak Vasuti Megallohely;46,6333;17,6167;RSTP
3054629;Budatétény Vasúti Megállóhely;Budateteny Vasuti Megallohely;47,4052;19,0164;RSTP
3054632;Budapest-Zugló Vasúti Megállóhely;Budapest-Zuglo Vasuti Megallohely;47,5118;19,1006;RSTP
3054649;Budakalász Lenfonógyár Vasúti Megállóhely;Budakalasz Lenfonogyar Vasuti Megallohely;47,6167;19,0500;RSTP
3054650;Budakalász Felső Vasúti Megállóhely;Budakalasz Felso Vasuti Megallohely;47,6333;19,0500;RSTP
3054654;Budai Út Vasúti Megállóhely;Budai Ut Vasuti Megallohely;47,2070;19,7388;RSTP
3054661;Budafok-Belváros Vasúti Megállóhely;Budafok-Belvaros Vasuti Megallohely;47,4262;19,0412;RSTP
3054664;Budafa Vasúti Megállóhely;Budafa Vasuti Megallohely;46,8500;16,6333;RSTP
3054704;Botykapeterd Vasúti Megállóhely;Botykapeterd Vasuti Megallohely;46,0500;17,8667;RSTP
3054755;Borsihalom Vasúti Megállóhely;Borsihalom Vasuti Megallohely;46,7667;19,9167;RSTP
3054836;Bolhás Vasúti Megállóhely;Bolhas Vasuti Megallohely;46,2833;17,2667;RSTP
3054843;Boldog Vasúti Megállóhely;Boldog Vasuti Megallohely;47,6167;19,7167;RSTP
3054859;Bokod Vasúti Megállóhely;Bokod Vasuti Megallohely;47,5137;18,2662;RSTP
3054890;Bogdása Vasúti Megállóhely;Bogdasa Vasuti Megallohely;45,8833;17,8000;RSTP
3054921;Bodolyabér Vasúti Megállóhely;Bodolyaber Vasuti Megallohely;46,2000;18,1333;RSTP
3054959;Bocfölde Vasúti Megállóhely;Bocfolde Vasuti Megallohely;46,7833;16,8333;RSTP
3054971;Bize Vasúti Megállóhely;Bize Vasuti Megallohely;46,5333;17,4333;RSTP
3055023;Bikács Vasúti Megállóhely;Bikacs Vasuti Megallohely;46,6829;18,6492;RSTP
3055029;Bicske Alsó Vasúti Megállóhely;Bicske Also Vasuti Megallohely;47,4833;18,6500;RSTP
3055051;Bezenye Vasúti Megállóhely;Bezenye Vasuti Megallohely;47,9667;17,2167;RSTP
3055090;Berhida Vasúti Megállóhely;Berhida Vasuti Megallohely;47,1167;18,1333;RSTP
3055095;Beretvástelep Vasúti Megállóhely;Beretvastelep Vasuti Megallohely;46,8667;19,6333;RSTP
3055163;Belsőnyír Vasúti Megállóhely;Belsonyir Vasuti Megallohely;46,9167;19,6167;RSTP
3055178;Belsőbáránd Vasúti Megállóhely;Belsobarand Vasuti Megallohely;47,1000;18,5000;RSTP
3055190;Belezna Vasúti Megállóhely;Belezna Vasuti Megallohely;46,3333;16,8833;RSTP
3055197;Belecska Vasúti Megállóhely;Belecska Vasuti Megallohely;46,6500;18,4167;RSTP
3055200;Belesapuszta;Belesapuszta;45,9500;17,4833;RSTP
3055201;Bélavár Vasúti Megállóhely;Belavar Vasuti Megallohely;46,1333;17,2000;RSTP
3055208;Bélatelep Vasúti Megállóhely;Belatelep Vasuti Megallohely;46,7333;17,5500;RSTP
3055251;Becske Alsó Vasúti Megállóhely;Becske Also Vasuti Megallohely;47,9000;19,3667;RSTP
3055263;Becehegy Vasúti Megállóhely;Becehegy Vasuti Megallohely;46,7833;17,3833;RSTP
3055367;Barcs Felső Vasúti Megállóhely;Barcs Felso Vasuti Megallohely;45,9589;17,4859;RSTP
3055409;Baracska Vasúti Megállóhely;Baracska Vasuti Megallohely;47,3000;18,7667;RSTP
3055496;Ballószög Vasúti Megállóhely;Balloszog Vasuti Megallohely;46,8500;19,5667;RSTP
3055517;Balatonvilágos Vasúti Megállóhely;Balatonvilagos Vasuti Megallohely;46,9667;18,1667;RSTP
3055520;Balatonújlak Vasúti Megállóhely;Balatonujlak Vasuti Megallohely;46,6667;17,4000;RSTP
3055523;Balatonudvardi Vasúti Megállóhely;Balatonudvardi Vasuti Megallohely;46,9000;17,8167;RSTP
3055525;Balatonszéplak Felső Vasúti Megállóhely;Balatonszeplak Felso Vasuti Megallohely;46,9000;18,0333;RSTP
3055526;Balatonszéplak Alsó Vasúti Megállóhely;Balatonszeplak Also Vasuti Megallohely;46,9000;18,0167;RSTP
3055527;Balatonszepezd Vasúti Megállóhely;Balatonszepezd Vasuti Megallohely;46,8500;17,6667;RSTP
3055536;Balatonszabadi Vasúti Megállóhely;Balatonszabadi Vasuti Megallohely;46,9333;18,1167;RSTP
3055541;Balatonrendes Vasúti Megállóhely;Balatonrendes Vasuti Megallohely;46,8333;17,5833;RSTP
3055546;Balatonmáriafürdő Alsó Vasúti Megállóhely;Balatonmariafurdo Also Vasuti Megallohely;46,7043;17,4334;RSTP
3055549;Balatonlelle Vasúti Megállóhely;Balatonlelle Vasuti Megallohely;46,7833;17,7000;RSTP
3055555;Balatonkenese-Üdülőtelep Vasúti Megállóhely;Balatonkenese-Udulotelep Vasuti Megallohely;47,0248;18,1378;RSTP
3055560;Balatongyörök Vasúti Megállóhely;Balatongyorok Vasuti Megallohely;46,7500;17,3667;RSTP
3055567;Balatonföldvár Vasúti Megállóhely;Balatonfoldvar Vasuti Megallohely;46,8500;17,8833;RSTP
3055571;Balatonfőkajár Felső Vasúti Megállóhely;Balatonfokajar Felso Vasuti Megallohely;47,0312;18,2125;RSTP
3055574;Balatonfenyves Alsó Vasúti Megállóhely;Balatonfenyves Also Vasuti Megallohely;46,7131;17,4826;RSTP
3055585;Balatonberény Vasúti Megállóhely;Balatonbereny Vasuti Megallohely;46,7167;17,3167;RSTP
3055587;Balatonarács Vasúti Megállóhely;Balatonaracs Vasuti Megallohely;46,9667;17,9000;RSTP
3055593;Balatonakarattya Vasúti Megállóhely;Balatonakarattya Vasuti Megallohely;47,0167;18,1667;RSTP
3055606;Baktüttös Vasúti Megállóhely;Baktuttos Vasuti Megallohely;46,7000;16,8333;RSTP
3055617;Bakonytamási Vasúti Megállóhely;Bakonytamasi Vasuti Megallohely;47,4167;17,7333;RSTP
3055620;Bakonyszombathely Vasútállomás;Bakonyszombathely Vasutallomas;47,4833;17,9500;RSTP
3055630;Bakonypéterd Vasúti Megállóhely;Bakonypeterd Vasuti Megallohely;47,4667;17,8000;RSTP
3055641;Bakonygyirót Vasúti Megállóhely;Bakonygyirot Vasuti Megallohely;47,4167;17,8000;RSTP
3055682;Bajai Szőlők Vasúti Megállóhely;Bajai Szolok Vasuti Megallohely;46,1678;19,0177;RSTP
3055684;Baja-Dunafürdő Vasúti Megállóhely;Baja-Dunafurdo Vasuti Megallohely;46,1924;18,9213;RSTP
3055691;Bag Vasúti Megállóhely;Bag Vasuti Megallohely;47,6413;19,4719;RSTP
3055726;Badacsony Vasúti Megállóhely;Badacsony Vasuti Megallohely;46,7833;17,5000;RSTP
3055731;Badacsonyörs Vasúti Megállóhely;Badacsonyors Vasuti Megallohely;46,8000;17,5333;RSTP
3055733;Badacsonylábdihegy Vasúti Megállóhely;Badacsonylabdihegy Vasuti Megallohely;46,7899;17,4739;RSTP
3055759;Bácsalmási Tanyák Vasúti Megállóhely;Bacsalmasi Tanyak Vasuti Megallohely;46,1667;19,3667;RSTP
3055805;Attala Vasúti Megállóhely;Attala Vasuti Megallohely;46,3833;18,0667;RSTP
3055807;Atra Gyár Vasúti Megállóhely;Atra Gyar Vasuti Megallohely;47,4167;19,1167;RSTP
3055843;Árpádszállás Vasúti Megállóhely;Arpadszallas Vasuti Megallohely;46,8667;19,9833;RSTP
3055846;Árpád híd vasúti megállóhely;Arpad hid vasuti megallohely;47,5398;19,0470;RSTP
3055891;Aquincum felső Vasúti Megállóhely;Aquincum felso Vasuti Megallohely;47,5656;19,0538;RSTP
3055987;Andocs Vasúti Megállóhely;Andocs Vasuti Megallohely;46,6465;17,8928;RSTP
3056013;Alsóúrrét Vasúti Megállóhely;Alsourret Vasuti Megallohely;46,9000;19,7833;RSTP
3056069;Alsórönök Vasúti Megállóhely;Alsoronok Vasuti Megallohely;46,9667;16,3833;RSTP
3056103;Alsónyék Vasúti Megállóhely;Alsonyek Vasuti Megallohely;46,2000;18,7333;RSTP
3056106;Alsónemesapáti Vasúti Megállóhely;Alsonemesapati Vasuti Megallohely;46,8500;16,9333;RSTP
3056125;Alsóméntelek Vasúti Megállóhely;Alsomentelek Vasuti Megallohely;46,9667;19,5833;RSTP
3056269;Alsóbélatelep Vasúti Megállóhely;Alsobelatelep Vasuti Megallohely;46,7333;17,5333;RSTP
3056277;Almás Vasúti Megállóhely;Almas Vasuti Megallohely;46,1167;19,3333;RSTP
3056289;Almásfüzitő Felső Vasútállomás;Almasfuzito Felso Vasutallomas;47,7312;18,2178;RSTP
3056333;Alagi Major Vasúti Megállóhely;Alagi Major Vasuti Megallohely;47,6000;19,1500;RSTP
3056356;Ajka-Gyártelep Vasúti Megállóhely;Ajka-Gyartelep Vasuti Megallohely;47,0967;17,5550;RSTP
3056387;Ágasegyházi Tanyák Vasúti Megállóhely;Agasegyhazi Tanyak Vasuti Megallohely;46,8333;19,4167;RSTP
3056394;Agárdytelep Vasúti Megállóhely;Agardytelep Vasuti Megallohely;46,8167;19,3833;RSTP
3056396;Agárd Vasúti Megállóhely;Agard Vasuti Megallohely;47,1986;18,6070;RSTP
3056406;Adorjánpuszta Vasúti Megállóhely;Adorjanpuszta Vasuti Megallohely;46,6333;18,3500;RSTP
3056422;Adács Vasúti Megállóhely;Adacs Vasuti Megallohely;47,6966;19,9761;RSTP
3056440;Ábrahámhegy Vasúti Megállóhely;Abrahamhegy Vasuti Megallohely;46,8153;17,5732;RSTP
3209481;Pedrócmajor Vasúti Megállóhely;Pedrocmajor Vasuti Megallohely;46,2000;17,0833;RSTP
6690926;Nagytétény Vasútállomás;Nagyteteny Vasutallomas;47,3883;18,9752;RSTP
6691850;Istvántelek Vasúti Megállóhely;Istvantelek Vasuti Megallohely;47,5504;19,1067;RSTP
6691854;Szemeretelep Vasúti Megállóhely;Szemeretelep Vasuti Megallohely;47,4434;19,2131;RSTP
6694195;Kámon Vasúti Megállóhely;Kamon Vasuti Megallohely;47,2543;16,6259;RSTP
8410967;Rábapatona Vasúti Megállóhely;Rabapatona Vasuti Megallohely;47,6490;17,4628;RSTP
8425801;Csánig Vasúti Megállóhely;Csanig Vasuti Megallohely;47,4302;17,0260;RSTP
8426436;Rábahíd Vasúti Megállóhely;Rabahid Vasuti Megallohely;47,4369;17,3394;RSTP
11550769;Budapest Libegő;Budapest Libego;47,5166;18,9746;RSTP
3043007;Vejke Vasúti Megállóhely;Vejke Vasuti Megallohely;47,5662;16,7300;RSTPQ
3043654;Tüskeszentpéter Vasúti Megállóhely;Tueskeszentpeter Vasuti Megallohely;46,9702;17,0774;RSTPQ
3043751;Tósokberénd Vasúti Megállóhely;Tosokberend Vasuti Megallohely;47,0918;17,5333;RSTPQ
3044424;Szilsárkány Vasúti Megállóhely;Szilsarkany Vasuti Megallohely;47,5589;17,2373;RSTPQ
3044985;Szajki Erdő Vasúti Megállóhely;Szajki Erdo Vasuti Megallohely;47,0584;17,0236;RSTPQ
3046464;Pereszteg Vasúti Megállóhely;Pereszteg Vasuti Megallohely;47,5881;16,7209;RSTPQ
3047409;Nemeskér-Egyházasfalu Vasúti Megállóhely;Nemesker-Egyhazasfalu Vasuti Megallohely;47,4784;16,7849;RSTPQ
3052155;Gór Vasúti Megállóhely;Gor Vasuti Megallohely;47,3384;16,7734;RSTPQ
3053551;Dör Vasúti Megállóhely;Doer Vasuti Megallohely;47,6110;17,2782;RSTPQ
3055508;Balffürdő Vasúti Megállóhely;Balffuerdo Vasuti Megallohely;47,6442;16,6544;RSTPQ
3055667;Bajti-elágazás Vasúti Megállóhely;Bajti-elagazas Vasuti Megallohely;47,2579;16,9770;RSTPQ
3055688;Bágyogszovát Vasúti Megállóhely;Bagyogszovat Vasuti Megallohely;47,6231;17,3213;RSTPQ
6694196;Szombathely-Repülőtér mh.;Szombathely-Repueloter mh.;47,2678;16,6189;RSTPQ
8410885;Bucsu Vasúti Megállóhely;Bucsu Vasuti Megallohely;47,2480;16,4974;RSTPQ
8410888;Olad Vasúti Megállóhely;Olad Vasuti Megallohely;47,2464;16,5718;RSTPQ
8410900;Kőszeg-Sörgyár Vasúti Megállóhely;Koszeg-Soergyar Vasuti Megallohely;47,4000;16,5407;RSTPQ
8410968;Nagycenk-Hidegség Vasúti Megállóhely;Nagycenk-Hidegseg Vasuti Megallohely;47,6147;16,7155;RSTPQ
8410969;Hegykő Vasúti Megállóhely;Hegyko Vasuti Megallohely;47,6007;16,8167;RSTPQ
8410973;Sarród Vasúti Megállóhely;Sarrod Vasuti Megallohely;47,6354;16,8566;RSTPQ
8410975;Fertőszentmiklós alsó Vasúti Megállóhely;Fertoszentmiklos also Vasuti Megallohely;47,5873;16,8840;RSTPQ
8410978;Pusztacsalád Vasúti Megállóhely;Pusztacsalad Vasuti Megallohely;47,4879;16,9086;RSTPQ
8410982;Nick-Rábahíd Vasúti Megállóhely;Nick-Rabahid Vasuti Megallohely;47,4017;17,0556;RSTPQ
8410984;Kemenespuszta Vasúti Megállóhely;Kemenespuszta Vasuti Megallohely;47,3593;17,1251;RSTPQ
8410989;Rábasömjén Vasúti Megállóhely;Rabasoemjen Vasuti Megallohely;47,2853;16,9196;RSTPQ
8410991;Zsédeny Vasúti Megállóhel;Zsedeny Vasuti Megallohel;47,3383;16,8990;RSTPQ
8410995;Chernelházadamonya Vasúti Megállóhely;Chernelhazadamonya Vasuti Megallohely;47,3690;16,8390;RSTPQ
8411003;Zalavég Vasúti Megállóhely;Zalaveg Vasuti Megallohely;47,0063;17,0179;RSTPQ
8426437;Emmamajor Vasúti Megállóhely;Emmamajor Vasuti Megallohely;47,5417;17,3166;RSTPQ
713922;Zajta Vasútállomás;Zajta Vasutallomas;47,9000;22,8000;RSTN
713928;Záhony Vasútállomás;Zahony Vasutallomas;48,4000;22,1833;RSTN
713987;Vitka Vasútállomás;Vitka Vasutallomas;48,1000;22,3167;RSTN
714072;Vésztő Vasútállomás;Veszto Vasutallomas;46,9500;21,2667;RSTN
714080;Verpelét Vasútállomás;Verpelet Vasutallomas;47,8667;20,2167;RSTN
714186;Vásárosnamény Vasútállomás;Vasarosnameny Vasutallomas;48,1254;22,3133;RSTN
714264;Vámospércs Vasútállomás;Vamospercs Vasutallomas;47,5167;21,9000;RSTN
714291;Vaja-Rohod Vasútállomás;Vaja-Rohod Vasutallomas;48,0000;22,1500;RSTN
714364;Újtitkos Vasútállomás;Ujtitkos Vasutallomas;47,9167;21,1833;RSTN
714414;Újszentmargita Vasútállomás;Ujszentmargita Vasutallomas;47,7500;21,1167;RSTN
714418;Újszeged Vasútállomás;Ujszeged Vasutallomas;46,2423;20,1594;RSTN
714420;Újszász Vasútállomás;Ujszasz Vasutallomas;47,2833;20,0667;RSTN
714462;Újfehértó Vasútállomás;Ujfeherto Vasutallomas;47,8000;21,7167;RSTN
714471;Újbög Vasútállomás;Ujbog Vasutallomas;46,9667;20,1000;RSTN
714489;Tuzsér Vasútállomás;Tuzser Vasutallomas;48,3500;22,1500;RSTN
714516;Tunyogmatolcs Vasútállomás;Tunyogmatolcs Vasutallomas;47,9667;22,4500;RSTN
714545;Tótkomlós Vasútállomás;Totkomlos Vasutallomas;46,4000;20,7333;RSTN
714569;Tószeg Vasútállomás;Toszeg Vasutallomas;47,1000;20,1500;RSTN
714580;Törökszentmiklós Vasútállomás;Torokszentmiklos Vasutallomas;47,1667;20,4000;RSTN
714592;Tornyospálca Vasútállomás;Tornyospalca Vasutallomas;48,2667;22,2000;RSTN
714597;Tornanádaska Vasútállomás;Tornanadaska Vasutallomas;48,5667;20,8000;RSTN
714656;Tokaj Vasútállomás;Tokaj Vasutallomas;48,1000;21,4167;RSTN
714691;Tiszavasvári Vasútállomás;Tiszavasvari Vasutallomas;47,9667;21,3833;RSTN
714693;Tiszavárkony Vasútállomás;Tiszavarkony Vasutallomas;47,0667;20,1500;RSTN
714696;Tiszaújváros Vasútállomás;Tiszaujvaros Vasutallomas;47,9167;21,0500;RSTN
714701;Tiszatenyő Vasútállomás;Tiszatenyo Vasutallomas;47,1333;20,3667;RSTN
714703;Tiszatelek Vasútállomás;Tiszatelek Vasutallomas;48,1667;21,7833;RSTN
714709;Tiszaszőlős Vasútállomás;Tiszaszolos Vasutallomas;47,5667;20,7333;RSTN
714713;Tiszaszentimre Vasútállomás;Tiszaszentimre Vasutallomas;47,5000;20,7333;RSTN
714719;Tiszasas Vasútállomás;Tiszasas Vasutallomas;46,8167;20,0667;RSTN
714727;Tiszapalkonya Erőmű Vasútállomás;Tiszapalkonya Eromu Vasutallomas;47,8833;21,0333;RSTN
714738;Tiszalúc Vasútállomás;Tiszaluc Vasutallomas;48,0377;21,0726;RSTN
714740;Tiszalök Vasútállomás;Tiszalok Vasutallomas;48,0167;21,3667;RSTN
714753;Tiszakécske Vasútállomás;Tiszakecske Vasutallomas;46,9333;20,0833;RSTN
714758;Tiszajenő-Vezseny Vasútállomás;Tiszajeno-Vezseny Vasutallomas;47,0333;20,1500;RSTN
714770;Tiszafüred Vasútállomás;Tiszafured Vasutallomas;47,6333;20,7500;RSTN
714773;Tiszaföldvár Vasútállomás;Tiszafoldvar Vasutallomas;46,9833;20,2833;RSTN
714775;Tiszaeszlár Vasútállomás;Tiszaeszlar Vasutallomas;48,0167;21,5000;RSTN
714778;Tiszadob Vasútállomás;Tiszadob Vasutallomas;48,0000;21,2167;RSTN
714781;Tiszadada Vasútállomás;Tiszadada Vasutallomas;48,0167;21,2500;RSTN
714784;Tiszacsege Vasútállomás;Tiszacsege Vasutallomas;47,7000;21,0000;RSTN
714792;Tiszabercel Vasútállomás;Tiszabercel Vasutallomas;48,1667;21,6000;RSTN
714819;Tiborszállás Vasútállomás;Tiborszallas Vasutallomas;47,8167;22,4167;RSTN
714885;Telekgerendás Vasútállomás;Telekgerendas Vasutallomas;46,6500;20,9667;RSTN
714908;Téglás Vasútállomás;Teglas Vasutallomas;47,7167;21,6833;RSTN
714943;Tarnaszentmiklós Vasútállomás;Tarnaszentmiklos Vasutallomas;47,5500;20,4000;RSTN
714972;Tarcal Vasútállomás;Tarcal Vasutallomas;48,1333;21,3333;RSTN
715000;Tállya Vasútállomás;Tallya Vasutallomas;48,2167;21,2167;RSTN
715008;Taktaharkány Vasútállomás;Taktaharkany Vasutallomas;48,1000;21,1333;RSTN
715043;Szuhakálló-Múcsony Vasútállomás;Szuhakallo-Mucsony Vasutallomas;48,2833;20,6667;RSTN
715072;Szőreg Vasútállomás;Szoreg Vasutallomas;46,2000;20,1833;RSTN
715122;Szolnok Vasútállomás;Szolnok Vasutallomas;47,1833;20,1667;RSTN
715124;Szolnok Teher Pályaudvar;Szolnok Teher Palyaudvar;47,1667;20,1833;RSTN
715215;Szilvásvárad Vasútállomás;Szilvasvarad Vasutallomas;48,1167;20,3833;RSTN
715256;Szikszó Vasútállomás;Szikszo Vasutallomas;48,2000;20,9333;RSTN
715268;Szikáncs Vasútállomás;Szikancs Vasutallomas;46,3667;20,4500;RSTN
715299;Szerencs Vasútállomás;Szerencs Vasutallomas;48,1500;21,2000;RSTN
715336;Szentes Vasútállomás;Szentes Vasutallomas;46,6667;20,2833;RSTN
715351;Szendrő Vasútállomás;Szendro Vasutallomas;48,4000;20,7167;RSTN
715352;Szendrőlád Vasútállomás;Szendrolad Vasutallomas;48,3333;20,7333;RSTN
715373;Szelevény Vasútállomás;Szeleveny Vasutallomas;46,8167;20,1833;RSTN
715392;Székkutas Vasútállomás;Szekkutas Vasutallomas;46,5167;20,5500;RSTN
715414;Szegvár Vasútállomás;Szegvar Vasutallomas;46,5833;20,2500;RSTN
715421;Szeghalom Vasútállomás;Szeghalom Vasutallomas;47,0167;21,1500;RSTN
715425;Szeged Vasútállomás;Szeged Vasutallomas;46,2405;20,1436;RSTN
715426;Szeged-Rókus Vasútállomás;Szeged-Rokus Vasutallomas;46,2670;20,1263;RSTN
715447;Szatymaz Vasútállomás;Szatymaz Vasutallomas;46,3500;20,0500;RSTN
715456;Szászberek Vasútállomás;Szaszberek Vasutallomas;47,3167;20,1000;RSTN
715458;Szarvas Vasútállomás;Szarvas Vasutallomas;46,8667;20,5667;RSTN
715461;Szarvaskő Vasútállomás;Szarvasko Vasutallomas;48,0167;20,3333;RSTN
715528;Szalonna Vasútállomás;Szalonna Vasutallomas;48,4500;20,7167;RSTN
715568;Szajol Vasútállomás;Szajol Vasutallomas;47,1667;20,3000;RSTN
715612;Szabadkígyós Vasútállomás;Szabadkigyos Vasutallomas;46,6000;21,1333;RSTN
715680;Sóstóhegy Vasútállomás;Sostohegy Vasutallomas;48,0167;21,7500;RSTN
715838;Sátoraljaújhely Vasútállomás;Satoraljaujhely Vasutallomas;48,3857;21,6577;RSTN
715866;Sárospatak Vasútállomás;Sarospatak Vasutallomas;48,3333;21,5833;RSTN
715881;Sarkad Vasútállomás;Sarkad Vasutallomas;46,7333;21,3833;RSTN
715885;Sarkadkeresztúr Vasútállomás;Sarkadkeresztur Vasutallomas;46,8000;21,4167;RSTN
715902;Sáránd Vasútállomás;Sarand Vasutallomas;47,4000;21,6167;RSTN
715905;Sáp Vasútállomás;Sap Vasutallomas;47,2667;21,3667;RSTN
715943;Sajószentpéter Vasútállomás;Sajoszentpeter Vasutallomas;48,2167;20,7167;RSTN
715961;Sajókaza Vasútállomás;Sajokaza Vasutallomas;48,2833;20,5833;RSTN
715967;Sajóecseg Vasútállomás;Sajoecseg Vasutallomas;48,1833;20,7667;RSTN
715987;Rudabánya Vasútállomás;Rudabanya Vasutallomas;48,3667;20,6333;RSTN
716150;Recsk-Parádfürdő Vasútállomás;Recsk-Paradfurdo Vasutallomas;47,9333;20,1167;RSTN
716203;Rakamaz Vasútállomás;Rakamaz Vasutallomas;48,1167;21,4833;RSTN
716246;Putnok Vasútállomás;Putnok Vasutallomas;48,2833;20,4500;RSTN
716293;Pusztabánréve Vasútállomás;Pusztabanreve Vasutallomas;46,9333;20,5667;RSTN
716299;Püspökladány Vasútállomás;Puspokladany Vasutallomas;47,3167;21,1167;RSTN
716338;Poroszló Vasútállomás;Poroszlo Vasutallomas;47,6667;20,6500;RSTN
716341;Porcsalma-Tyukod Vasútállomás;Porcsalma-Tyukod Vasutallomas;47,8676;22,5691;RSTN
716353;Polgár Vasútállomás;Polgar Vasutallomas;47,8667;21,1333;RSTN
716371;Pocsaj-Esztár Vasútállomás;Pocsaj-Esztar Vasutallomas;47,3000;21,7833;RSTN
716495;Penyige Vasútállomás;Penyige Vasutallomas;48,0000;22,5667;RSTN
716525;Pátroha Vasútállomás;Patroha Vasutallomas;48,1667;22,0000;RSTN
716668;Ózd Vasútállomás;Ozd Vasutallomas;48,2167;20,2833;RSTN
716726;Oros Vasútállomás;Oros Vasutallomas;47,9500;21,8000;RSTN
716729;Orosházi Tanyák Vasútállomás;Oroshazi Tanyak Vasutallomas;46,6000;20,7667;RSTN
716730;Orosháza Vasútállomás;Oroshaza Vasutallomas;46,5667;20,6833;RSTN
716745;Ormosbánya Vasútállomás;Ormosbanya Vasutallomas;48,3333;20,6500;RSTN
716797;Onga Vasútállomás;Onga Vasutallomas;48,1167;20,9000;RSTN
716827;Olaszliszka-Tolcsva Vasútállomás;Olaszliszka-Tolcsva Vasutallomas;47,2500;21,4500;RSTN
716851;Okány Vasútállomás;Okany Vasutallomas;46,9000;21,3333;RSTN
716855;Ohat-Pusztakócs Vasútállomás;Ohat-Pusztakocs Vasutallomas;47,6167;20,9500;RSTN
716859;Ófehértó Vasútállomás;Ofeherto Vasutallomas;47,9500;22,0500;RSTN
716892;Nyírtelek Vasútállomás;Nyirtelek Vasutallomas;48,0000;21,6167;RSTN
716907;Nyírmada Vasútállomás;Nyirmada Vasutallomas;48,0500;22,1167;RSTN
716925;Nyírgelse Vasútállomás;Nyirgelse Vasutallomas;47,7500;22,0000;RSTN
716931;Nyíregyháza Vasútállomás;Nyiregyhaza Vasutallomas;47,9467;21,7061;RSTN
716934;Nyíregyháza Külső Vasútállomás;Nyiregyhaza Kulso Vasutallomas;47,9431;21,7401;RSTN
716942;Nyírbogdány Vasútállomás;Nyirbogdany Vasutallomas;48,0833;21,8667;RSTN
716944;Nyírbogát Vasútállomás;Nyirbogat Vasutallomas;47,7833;22,0500;RSTN
716947;Nyírbátor Vasútállomás;Nyirbator Vasutallomas;47,8500;22,1167;RSTN
716950;Nyíradony Vasútállomás;Nyiradony Vasutallomas;47,6982;21,8994;RSTN
716953;Nyírábrány Vasútállomás;Nyirabrany Vasutallomas;47,5239;22,0166;RSTN
716967;Nyékládháza Vasútállomás;Nyekladhaza Vasutallomas;47,9833;20,8333;RSTN
716995;Novajidrány Vasútállomás;Novajidrany Vasutallomas;48,4000;21,1667;RSTN
717067;Nagyút Vasútállomás;Nagyut Vasutallomas;47,7333;20,1667;RSTN
717075;Nagytőke Vasútállomás;Nagytoke Vasutallomas;46,7667;20,3000;RSTN
717129;Nagyszénás Vasútállomás;Nagyszenas Vasutallomas;46,6833;20,6667;RSTN
717134;Nagyszekeres Vasútállomás;Nagyszekeres Vasutallomas;47,9833;22,6167;RSTN
717233;Nagylapos Vasútállomás;Nagylapos Vasutallomas;46,9833;20,7500;RSTN
717241;Nagylak Vasútállomás;Nagylak Vasutallomas;46,1667;20,7000;RSTN
717266;Nagykereki Vasútállomás;Nagykereki Vasutallomas;47,1833;21,8000;RSTN
717278;Nagykálló Vasútállomás;Nagykallo Vasutallomas;47,8726;21,8248;RSTN
717321;Nagyhát Vasútállomás;Nagyhat Vasutallomas;47,5833;21,4333;RSTN
717343;Nagyhalász Vasútállomás;Nagyhalasz Vasutallomas;48,1500;21,7667;RSTN
717344;Nagyhalászi Kendergyár Vasútállomás;Nagyhalaszi Kendergyar Vasutallomas;48,1333;21,7333;RSTN
717395;Nagyecsed Vasútállomás;Nagyecsed Vasutallomas;47,8833;22,3833;RSTN
717398;Nagydobos Vasútállomás;Nagydobos Vasutallomas;48,0500;22,3167;RSTN
717407;Nagycsere Vasútállomás;Nagycsere Vasutallomas;47,5167;21,7667;RSTN
717484;Murony Vasútállomás;Murony Vasutallomas;46,7667;20,0500;RSTN
717520;Monostorpályi Vasútállomás;Monostorpalyi Vasutallomas;47,3833;21,7667;RSTN
717525;Mónosbél Vasútállomás;Monosbel Vasutallomas;48,0500;20,3333;RSTN
717579;Miskolc-Tiszai Pályaudvar;Miskolc-Tiszai Palyaudvar;48,1000;20,8167;RSTN
717581;Miskolc-Gömöri Pályaudvar;Miskolc-Gomori Palyaudvar;48,1126;20,7985;RSTN
717590;Mindszent Vasútállomás;Mindszent Vasutallomas;46,5167;20,2000;RSTN
717631;Mezőzombor Vasútállomás;Mezozombor Vasutallomas;48,1667;21,2500;RSTN
717633;Mezőtúr Vasútállomás;Mezotur Vasutallomas;47,0167;20,6167;RSTN
717636;Mezőteperd Vasútállomás;Mezoteperd Vasutallomas;47,1833;21,6333;RSTN
717637;Mezőtárkány Vasútállomás;Mezotarkany Vasutallomas;47,7333;20,4833;RSTN
717650;Mezőkövesd Vasútállomás;Mezokovesd Vasutallomas;47,8000;20,5667;RSTN
717654;Mezőkovácsháza Vasútállomás;Mezokovacshaza Vasutallomas;46,4000;20,9167;RSTN
717657;Mezőkeresztes-Mezőnyárád Vasútállomás;Mezokeresztes-Mezonyarad Vasutallomas;47,8500;20,6833;RSTN
717660;Mezőhegyes Vasútállomás;Mezohegyes Vasutallomas;46,3167;20,8167;RSTN
717666;Mezőcsát Vasútállomás;Mezocsat Vasutallomas;47,8167;20,9167;RSTN
717668;Mezőberény Vasútállomás;Mezobereny Vasutallomas;46,8167;21,0167;RSTN
717740;Medgyesegyháza Vasútállomás;Medgyesegyhaza Vasutallomas;46,5000;21,0333;RSTN
717757;Mátraderecske Vasúti Megállóhely;Matraderecske Vasuti Megallohely;47,9500;20,0833;RSTN
717761;Mátraballa Vasútállomás;Matraballa Vasutallomas;47,9833;20,0167;RSTN
717770;Mátészalka Vasútállomás;Mateszalka Vasutallomas;47,9500;20,4000;RSTN
717789;Martfű Vasútállomás;Martfu Vasutallomas;47,0167;20,3000;RSTN
717792;Mártély Vasútállomás;Martely Vasutallomas;46,4833;20,2333;RSTN
717823;Máriapócs Vasútállomás;Mariapocs Vasutallomas;47,8500;22,0167;RSTN
717852;Mándok Vasútállomás;Mandok Vasutallomas;48,3167;22,2000;RSTN
717895;Makó Vasútállomás;Mako Vasutallomas;46,2000;20,4667;RSTN
717896;Makó-Újvásártér Vasúti Megállóhely;Mako-Ujvasarter Vasuti Megallohely;46,2167;20,5167;RSTN
717897;Makó-Újváros Vasútállomás;Mako-Ujvaros Vasutallomas;46,2333;20,5000;RSTN
717903;Maklár Vasútállomás;Maklar Vasutallomas;47,8000;20,4167;RSTN
717938;Magyarcsanád Vasútállomás;Magyarcsanad Vasutallomas;46,1667;20,6167;RSTN
717942;Magyarbánhegyes Vasútállomás;Magyarbanhegyes Vasutallomas;46,4333;20,9333;RSTN
717974;Mád Vasútállomás;Mad Vasutallomas;48,1833;21,2667;RSTN
717986;Macs Vasútállomás;Macs Vasutallomas;47,5667;21,4833;RSTN
718009;Ludas Vasútállomás;Ludas Vasutallomas;47,7167;20,1000;RSTN
718059;Lökösháza Vasútállomás;Lokoshaza Vasutallomas;46,4333;21,2333;RSTN
718086;Ligettanya Vasútállomás;Ligettanya Vasutallomas;47,9500;22,0833;RSTN
718112;Létavértes Vasútállomás;Letavertes Vasutallomas;47,4000;21,8833;RSTN
718227;Lakitelek Vasútállomás;Lakitelek Vasutallomas;46,8667;20,0000;RSTN
718264;Kútvölgyi Gyógyintézet Vasútállomás;Kutvolgyi Gyogyintezet Vasutallomas;46,4667;20,4667;RSTN
718310;Kunszentmárton Vasútállomás;Kunszentmarton Vasutallomas;46,8500;20,3000;RSTN
718314;Kunmadaras Vasútállomás;Kunmadaras Vasutallomas;47,4167;20,8000;RSTN
718320;Kunhegyes Vasútállomás;Kunhegyes Vasutallomas;47,3833;20,6500;RSTN
718468;Kótpuszta Vasútállomás;Kotpuszta Vasutallomas;46,9667;21,3667;RSTN
718475;Kötegyán Vasútállomás;Kotegyan Vasutallomas;46,7500;21,4833;RSTN
718478;Kótaj Vasútállomás;Kotaj Vasutallomas;48,0500;21,7167;RSTN
718483;Kősziget Vasúti Megállóhely;Kosziget Vasuti Megallohely;47,0000;20,9000;RSTN
718519;Körösszakál Vasútállomás;Korosszakal Vasutallomas;47,0000;21,6167;RSTN
718527;Körösladány Vasútállomás;Korosladany Vasutallomas;46,9667;21,0833;RSTN
718590;Kopáncs Vasútállomás;Kopancs Vasutallomas;46,3833;20,2500;RSTN
718598;Konyár Vasútállomás;Konyar Vasutallomas;47,3167;21,6833;RSTN
718612;Kondoros Vasútállomás;Kondoros Vasutallomas;46,7667;20,7833;RSTN
718619;Komoró Vasútállomás;Komoro Vasutallomas;48,3000;22,1167;RSTN
718636;Komádi Vasútállomás;Komadi Vasutallomas;46,9667;21,5000;RSTN
718717;Klárafalva Vasútállomás;Klarafalva Vasutallomas;46,2040;20,3180;RSTN
718722;Kiszombor Vasútállomás;Kiszombor Vasutallomas;46,1833;20,4167;RSTN
718737;Kisvárda Vasútállomás;Kisvarda Vasutallomas;48,2167;22,1000;RSTN
718743;Kisújszállás Vasútállomás;Kisujszallas Vasutallomas;47,2167;20,7500;RSTN
718805;Kisszénás Vasútállomás;Kisszenas Vasutallomas;46,7500;20,7333;RSTN
718887;Kismarja Vasútállomás;Kismarja Vasutallomas;47,2500;21,8167;RSTN
718905;Kiskundorozsma Vasútállomás;Kiskundorozsma Vasutallomas;46,2718;20,0911;RSTN
718908;Kisköre Vasútállomás;Kiskore Vasutallomas;47,5000;20,4833;RSTN
718923;Kiskapud Vasútállomás;Kiskapud Vasutallomas;48,2167;20,3500;RSTN
718980;Kisfástanya Vasútállomás;Kisfastanya Vasutallomas;47,9833;21,4833;RSTN
719065;Királd Vasútállomás;Kirald Vasutallomas;48,2500;20,3833;RSTN
719109;Kétpó Vasútállomás;Ketpo Vasutallomas;47,0833;20,4833;RSTN
719125;Kétegyháza Vasútállomás;Ketegyhaza Vasutallomas;46,5333;21,1667;RSTN
719226;Kengyel Vasútállomás;Kengyel Vasutallomas;47,0833;20,3333;RSTN
719249;Kenderes Vasútállomás;Kenderes Vasutallomas;47,2667;20,6833;RSTN
719259;Kemecse Vasútállomás;Kemecse Vasutallomas;48,0667;21,1500;RSTN
719309;Kazincbarcika Vasútállomás;Kazincbarcika Vasutallomas;48,2667;20,6333;RSTN
719389;Kardoskút Vasútállomás;Kardoskut Vasutallomas;46,4833;20,6667;RSTN
719397;Karcag Vasútállomás;Karcag Vasutallomas;47,3000;20,9333;RSTN
719398;Karcag-Vásártér Vasútállomás;Karcag-Vasarter Vasutallomas;47,3167;20,9000;RSTN
719417;Karácsond Vasútállomás;Karacsond Vasutallomas;47,7168;20,0447;RSTN
719492;Kállósemjén Vasútállomás;Kallosemjen Vasutallomas;47,8667;21,9333;RSTN
719502;Kál-Kápolna Vasútállomás;Kal-Kapolna Vasutallomas;47,7333;20,2667;RSTN
719553;Kaba Vasútállomás;Kaba Vasutallomas;47,3667;21,2500;RSTN
719589;Jósvafő-Aggtelek Vasútállomás;Josvafo-Aggtelek Vasutallomas;48,4833;20,7000;RSTN
719638;Jászladány Vasútállomás;Jaszladany Vasutallomas;47,3667;20,1500;RSTN
719641;Jászkisér Vasútállomás;Jaszkiser Vasutallomas;47,4667;20,2000;RSTN
719648;Jászdózsa Vasútállomás;Jaszdozsa Vasutallomas;47,5606;20,0289;RSTN
719650;Jászboldogháza-Jánoshida Vasútállomás;Jaszboldoghaza-Janoshida Vasutallomas;47,3682;20,0005;RSTN
719653;Jászapáti Vasútállomás;Jaszapati Vasutallomas;47,5167;20,0667;RSTN
719684;Jánkmajtis Vasútállomás;Jankmajtis Vasutallomas;47,8667;22,6500;RSTN
719709;Izsófalva Vasútállomás;Izsofalva Vasutallomas;48,3000;20,6500;RSTN
719805;Ibrány Vasútállomás;Ibrany Vasutallomas;48,1167;21,7000;RSTN
719842;Hosszúpályi Vasútállomás;Hosszupalyi Vasutallomas;47,3993;21,7289;RSTN
719885;Hortobágy Vasútállomás;Hortobagy Vasutallomas;47,5833;21,1667;RSTN
719889;Hortobágyi Halastó Vasútállomás;Hortobagyi Halasto Vasutallomas;47,6000;21,0833;RSTN
719961;Hódmezővásárhely Vasútállomás;Hodmezovasarhely Vasutallomas;46,4167;20,3500;RSTN
719966;Hodász Vasútállomás;Hodasz Vasutallomas;47,9000;22,2167;RSTN
719993;Hidasnémeti Vasútállomás;Hidasnemeti Vasutallomas;48,5167;21,2333;RSTN
720001;Heves Vasútállomás;Heves Vasutallomas;47,6167;20,3167;RSTN
720003;Hevesi Szőllők Vasútállomás;Hevesi Szollok Vasutallomas;47,6333;20,3000;RSTN
720025;Hernádnémeti-Bőcs Vasútállomás;Hernadnemeti-Bocs Vasutallomas;48,0500;20,9833;RSTN
720053;Hejőszalonta Vasútállomás;Hejoszalonta Vasutallomas;47,9333;20,9000;RSTN
720057;Hejőkeresztúr Vasútállomás;Hejokeresztur Vasutallomas;47,9667;20,8833;RSTN
720060;Hejőbába-Hejőpapi Vasútállomás;Hejobaba-Hejopapi Vasutallomas;47,9167;20,9167;RSTN
720063;Hejce-Vilmány Vasútállomás;Hejce-Vilmany Vasutallomas;48,4333;21,2500;RSTN
720225;Halmaj Vasútállomás;Halmaj Vasutallomas;48,2500;21,0000;RSTN
720275;Hajdúszoboszló Vasútállomás;Hajduszoboszlo Vasutallomas;47,4333;21,4000;RSTN
720278;Hajdúszentgyörgy Vasútállomás;Hajduszentgyorgy Vasutallomas;47,6167;21,5833;RSTN
720279;Hajdúsámson Vasútállomás;Hajdusamson Vasutallomas;47,6167;21,7667;RSTN
720282;Hajdúnánás Vasútállomás;Hajdunanas Vasutallomas;47,8333;21,3333;RSTN
720289;Hajdúdorog Vasútállomás;Hajdudorog Vasutallomas;47,8000;21,5000;RSTN
720291;Hajdúböszörmény Vasútállomás;Hajduboszormeny Vasutallomas;47,6667;21,5333;RSTN
720294;Hajdúbagos Vasútállomás;Hajdubagos Vasutallomas;47,4030;21,6621;RSTN
720313;Gyüre Vasútállomás;Gyure Vasutallomas;48,1667;22,2833;RSTN
720318;Gyula Vasútállomás;Gyula Vasutallomas;46,6500;21,2833;RSTN
720339;Győrtelek Alsó Vasútállomás;Gyortelek Also Vasutallomas;47,9167;22,4500;RSTN
720363;Gyoma Vasútállomás;Gyoma Vasutallomas;46,9333;20,8167;RSTN
720456;Görögszállás Vasútállomás;Gorogszallas Vasutallomas;48,0500;21,5667;RSTN
720490;Gönc Vasútállomás;Gonc Vasutallomas;48,4667;21,2667;RSTN
720572;Gégény Vasúti Megállóhely;Gegeny Vasuti Megallohely;48,1333;21,9667;RSTN
720601;Garadna Vasútállomás;Garadna Vasutallomas;48,1167;20,5667;RSTN
720642;Gádoros Vasútállomás;Gadoros Vasutallomas;46,6500;20,6167;RSTN
720647;Gacsály Vasútállomás;Gacsaly Vasutallomas;47,9333;22,7667;RSTN
720677;Füzesgyarmat Vasútállomás;Fuzesgyarmat Vasutallomas;47,1000;21,2167;RSTN
720686;Füzesabony Vasútállomás;Fuzesabony Vasutallomas;47,7500;20,4167;RSTN
720744;Forró-Encs Vasútállomás;Forro-Encs Vasutallomas;48,3333;21,1167;RSTN
720764;Folyás Vasútállomás;Folyas Vasutallomas;47,8000;21,1333;RSTN
720777;Földeák Vasútállomás;Foldeak Vasutallomas;46,3167;20,4833;RSTN
720845;Fényeslitke Vasútállomás;Fenyeslitke Vasutallomas;48,2667;22,1167;RSTN
720856;Felsőzsolca Vasútállomás;Felsozsolca Vasutallomas;48,0833;20,8667;RSTN
720918;Feldebrő Vasútállomás;Feldebro Vasutallomas;47,8167;20,2167;RSTN
720987;Fehérgyarmat Vasútállomás;Fehergyarmat Vasutallomas;47,9833;22,5333;RSTN
720990;Fegyvernek-Örményes Vasútállomás;Fegyvernek-Ormenyes Vasutallomas;47,1833;20,5667;RSTN
721067;Fábiánsebestyén Vasútállomás;Fabiansebestyen Vasutallomas;46,6667;20,4500;RSTN
721118;Erdőtelek Vasútállomás;Erdotelek Vasutallomas;47,6833;20,3000;RSTN
721160;Emőd Vasútállomás;Emod Vasutallomas;47,9333;20,8333;RSTN
721191;Elágazás Vasútállomás;Elagazas Vasutallomas;48,2667;21,5500;RSTN
721207;Egyek Vasútállomás;Egyek Vasutallomas;47,6333;20,8833;RSTN
721220;Eger Vasútállomás;Eger Vasutallomas;47,8833;20,3833;RSTN
721222;Eger-Tihamér Vasútállomás;Eger-Tihamer Vasutallomas;47,8833;20,4000;RSTN
721229;Eger-Felnémet Vasútállomás;Eger-Felnemet Vasutallomas;47,9500;20,3833;RSTN
721230;Egerfarmos Vasútállomás;Egerfarmos Vasutallomas;47,7167;20,5333;RSTN
721244;Edelény Vasútállomás;Edeleny Vasutallomas;48,3000;20,7500;RSTN
721254;Ebes Vasútállomás;Ebes Vasutallomas;47,4667;21,5000;RSTN
721308;Dombrád Vasútállomás;Dombrad Vasutallomas;48,2333;21,9167;RSTN
721403;Dévaványa Vasútállomás;Devavanya Vasutallomas;47,0333;20,9500;RSTN
721425;Derecske Vasútállomás;Derecske Vasutallomas;47,3667;21,5833;RSTN
721442;Demecser Vasútállomás;Demecser Vasutallomas;48,1167;21,9500;RSTN
721463;Debrecen Vasútállomás;Debrecen Vasutallomas;47,5193;21,6286;RSTN
721464;Debrecen-Vásártér Vasútállomás;Debrecen-Vasarter Vasutallomas;47,5500;21,6000;RSTN
721546;Csugar Vasútállomás;Csugar Vasutallomas;47,0500;20,5500;RSTN
721557;Csorvás Vasútállomás;Csorvas Vasutallomas;46,6167;20,8333;RSTN
721587;Csongrád Vasútállomás;Csongrad Vasutallomas;46,7167;20,1333;RSTN
721606;Csokvaomány Vasútállomás;Csokvaomany Vasutallomas;48,1667;20,1500;RSTN
721774;Csépa Vasútállomás;Csepa Vasutallomas;46,8167;20,1167;RSTN
721786;Csenger Vasútállomás;Csenger Vasutallomas;47,8333;22,6667;RSTN
721830;Császárszállás Vasútállomás;Csaszarszallas Vasutallomas;47,8833;21,7167;RSTN
721839;Csárdaszállás Vasútállomás;Csardaszallas Vasutallomas;46,8667;20,9333;RSTN
721860;Csanádpalota Vasútállomás;Csanadpalota Vasutallomas;46,2500;20,7333;RSTN
721883;Csabacsűd Vasútállomás;Csabacsud Vasutallomas;46,8167;20,6500;RSTN
721932;Center Vasútállomás;Center Vasutallomas;48,2500;20,3500;RSTN
721984;Buj Vasútállomás;Buj Vasutallomas;48,1000;21,6500;RSTN
722117;Boldva Vasútállomás;Boldva Vasutallomas;48,2167;20,8000;RSTN
722141;Bojár-Hollós Vasútállomás;Bojar-Hollos Vasutallomas;47,4000;21,2167;RSTN
722179;Bódvavendégi Vasútállomás;Bodvavendegi Vasutallomas;48,5833;20,8500;RSTN
722180;Bódvaszilas Vasútállomás;Bodvaszilas Vasutallomas;48,5333;20,7500;RSTN
722189;Bodrogkeresztúr Vasútállomás;Bodrogkeresztur Vasutallomas;48,1667;21,3667;RSTN
722277;Biharnagybajom Vasútállomás;Biharnagybajom Vasutallomas;47,2000;21,2333;RSTN
722279;Biharkeresztes Vasútállomás;Biharkeresztes Vasutallomas;47,1333;21,7167;RSTN
722287;Bicere Vasútállomás;Bicere Vasutallomas;46,6500;21,1667;RSTN
722423;Bélapátfalva Vasútállomás;Belapatfalva Vasutallomas;48,0667;20,3667;RSTN
722429;Békés Vasútállomás;Bekes Vasutallomas;46,7667;21,1167;RSTN
722435;Békéscsaba Vasútállomás;Bekescsaba Vasutallomas;46,6833;21,0833;RSTN
722475;Battonya Vasútállomás;Battonya Vasutallomas;46,2833;21,0167;RSTN
722553;Báránd Vasútállomás;Barand Vasutallomas;47,3000;21,2500;RSTN
722572;Bánréve Vasútállomás;Banreve Vasutallomas;48,3000;20,3500;RSTN
722589;Bánkút Vasútállomás;Bankut Vasutallomas;46,5000;21,1000;RSTN
722618;Balsa Vasútállomás;Balsa Vasutallomas;48,1667;21,5667;RSTN
722635;Balmazújváros Vasútállomás;Balmazujvaros Vasutallomas;47,6167;21,3333;RSTN
722648;Balkány Vasútállomás;Balkany Vasutallomas;47,7715;21,8490;RSTN
722674;Balástya Vasútállomás;Balastya Vasutallomas;46,4167;20,0000;RSTN
722681;Baktalórántháza Vasútállomás;Baktaloranthaza Vasutallomas;48,0000;22,0833;RSTN
722707;Bajonta Vasútállomás;Bajonta Vasutallomas;47,3167;21,7667;RSTN
722821;Aranyosapáti Vasútállomás;Aranyosapati Vasutallomas;48,2167;22,2500;RSTN
722848;Apátfalva Vasútállomás;Apatfalva Vasutallomas;46,1833;20,5667;RSTN
722850;Apagy Vasútállomás;Apagy Vasutallomas;47,9500;21,9333;RSTN
722853;Apafa Vasútállomás;Apafa Vasutallomas;47,5833;21,6667;RSTN
722937;Álomzug Vasútállomás;Alomzug Vasutallomas;47,3000;21,1000;RSTN
722963;Algyő Vasútállomás;Algyo Vasutallomas;46,3500;20,2000;RSTN
723011;Ágerdőmajor Vasútállomás;Agerdomajor Vasutallomas;47,7833;22,4333;RSTN
723027;Abony Vasútállomás;Abony Vasutallomas;47,1667;20,0167;RSTN
723034;Abaújszántó Vasútállomás;Abaujszanto Vasutallomas;48,2833;21,1833;RSTN
723035;Abaújszántói Fürdő Vasúti Megállóhely;Abaujszantoi Furdo Vasuti Megallohely;48,2667;21,1833;RSTN
723043;Abádszalók Vasútállomás;Abadszalok Vasutallomas;47,4500;20,5500;RSTN
3042535;Zirc Vasútállomás;Zirc Vasutallomas;47,2667;17,9000;RSTN
3042543;Zichyújfalu Vasútállomás;Zichyujfalu Vasutallomas;47,1333;18,6667;RSTN
3042556;Zebegény Vasútállomás;Zebegeny Vasutallomas;47,8000;18,9167;RSTN
3042568;Zánka-Köveskál Vasútállomás;Zanka-Koveskal Vasutallomas;46,8725;17,6874;RSTN
3042579;Zamárdi Felső Vasútállomás;Zamardi Felso Vasutallomas;46,8864;17,9709;RSTN
3042588;Zalaszentmihály-Pacsa Vasútállomás;Zalaszentmihaly-Pacsa Vasutallomas;46,7167;16,9500;RSTN
3042595;Zalaszentjakab Vasútállomás;Zalaszentjakab Vasutallomas;46,4833;17,1333;RSTN
3042597;Zalaszentiván Vasútállomás;Zalaszentivan Vasutallomas;46,8833;16,8833;RSTN
3042599;Zalaszentgyörgy Vasútállomás;Zalaszentgyorgy Vasutallomas;46,8667;16,7167;RSTN
3042615;Zalalövő Vasútállomás;Zalalovo Vasutallomas;46,8500;16,5500;RSTN
3042620;Zalakomár Vasútállomás;Zalakomar Vasutallomas;46,5333;17,1833;RSTN
3042629;Zalaháshágy-Szőce Vasútállomás;Zalahashagy-Szoce Vasutallomas;46,9000;16,6167;RSTN
3042635;Zalaegerszeg Vasútállomás;Zalaegerszeg Vasutallomas;46,8500;16,8500;RSTN
3042639;Zalacséb-Salomvár Vasútállomás;Zalacseb-Salomvar Vasutallomas;46,8667;16,6667;RSTN
3042644;Zalabér-Batyk Vasútállomás;Zalaber-Batyk Vasutallomas;46,9831;17,0406;RSTN
3042650;Zákány Vasútállomás;Zakany Vasutallomas;46,2500;16,9500;RSTN
3042664;Zagyvapálfalva Vasútállomás;Zagyvapalfalva Vasutallomas;48,0667;19,7833;RSTN
3042745;Vonyarcvashegy Vasútállomás;Vonyarcvashegy Vasutallomas;46,7500;17,3167;RSTN
3042759;Vokány Vasútállomás;Vokany Vasutallomas;45,8991;18,3327;RSTN
3042768;Vízvár Vasútállomás;Vizvar Vasutallomas;46,1024;17,2376;RSTN
3042811;Vitézipuszta Vasútállomás;Vitezipuszta Vasutallomas;45,9333;17,7333;RSTN
3042855;Vinár Vasútállomás;Vinar Vasutallomas;47,3060;17,2847;RSTN
3042864;Villány Vasútállomás;Villany Vasutallomas;45,8769;18,4506;RSTN
3042917;Vica Vasúti Megállóhely;Vica Vasuti Megallohely;47,4777;17,1117;RSTN
3042922;Veszprém Vasútállomás;Veszprem Vasutallomas;47,1191;17,9121;RSTN
3042923;Veszprémvarsány Vasútállomás;Veszpremvarsany Vasutallomas;47,4425;17,8195;RSTN
3042954;Verőcemaros Vasútállomás;Verocemaros Vasutallomas;47,8235;19,0379;RSTN
3042967;Veresegyház Vasútállomás;Veresegyhaz Vasutallomas;47,6500;19,2833;RSTN
3042976;Vép Vasútállomás;Vep Vasutallomas;47,2357;16,7275;RSTN
3042986;Véménd Vasútállomás;Vemend Vasutallomas;46,1500;18,6167;RSTN
3043017;Vecsés Vasútállomás;Vecses Vasutallomas;47,4167;19,2500;RSTN
3043029;Vaszar Vasútállomás;Vaszar Vasutallomas;47,4000;17,5000;RSTN
3043032;Vasvár Vasútállomás;Vasvar Vasutallomas;47,0570;16,8004;RSTN
3043071;Vasas-Hird Vasútállomás;Vasas-Hird Vasutallomas;46,1167;18,3500;RSTN
3043079;Vásárosdombó Vasútállomás;Vasarosdombo Vasutallomas;46,3000;18,1500;RSTN
3043094;Várpalota Vasútállomás;Varpalota Vasutallomas;47,1949;18,1496;RSTN
3043099;Városlőd-Kislőd Vasútállomás;Varoslod-Kislod Vasutallomas;47,1333;17,6301;RSTN
3043110;Városföld Vasútállomás;Varosfold Vasutallomas;46,8167;19,7533;RSTN
3043208;Vámosgyörk Vasútállomás;Vamosgyork Vasutallomas;47,6833;19,9167;RSTN
3043230;Vajta Vasútállomás;Vajta Vasutallomas;46,7151;18,6475;RSTN
3043232;Vajszló Vasútállomás;Vajszlo Vasutallomas;45,8667;17,9833;RSTN
3043246;Vágóhíd Vasútállomás;Vagohid Vasutallomas;47,4659;19,0765;RSTN
3043277;Vác Vasútállomás;Vac Vasutallomas;47,7833;19,1333;RSTN
3043280;Vácrátót Vasútállomás;Vacratot Vasutallomas;47,7318;19,2224;RSTN
3043294;Uzsa Vasútállomás;Uzsa Vasutallomas;46,9167;17,3333;RSTN
3043355;Üllő vasútállomás;UEllo vasutallomas;47,3908;19,3528;RSTN
3043359;Ukk Vasútállomás;Ukk Vasutallomas;47,0367;17,1979;RSTN
3043376;Újudvar Vasútállomás;Ujudvar Vasutallomas;46,5205;16,9806;RSTN
3043474;Újnéppuszta Vasútállomás;Ujneppuszta Vasutallomas;46,5493;16,9808;RSTN
3043616;Ugod Vasútállomás;Ugod Vasutallomas;47,3333;17,6000;RSTN
3043650;Tüskevár Vasútállomás;Tuskevar Vasutallomas;47,1287;17,3316;RSTN
3043677;Tura Vasútállomás;Tura Vasutallomas;47,6257;19,6007;RSTN
3043772;Törökfái Vasútállomás;Torokfai Vasutallomas;46,8500;19,6667;RSTN
3043805;Toponár Vasútállomás;Toponar Vasutallomas;46,4000;17,8333;RSTN
3043842;Tolnanémedi Vasútállomás;Tolnanemedi Vasutallomas;46,7167;18,4667;RSTN
3043844;Tolna-Mözs Vasútállomás;Tolna-Mozs Vasutallomas;46,4132;18,7487;RSTN
3043850;Tolmács Vasútállomás;Tolmacs Vasutallomas;47,9333;19,1167;RSTN
3043859;Tököl Vasútállomás;Tokol Vasutallomas;47,3167;18,9833;RSTN
3043861;Tokod Vasútállomás;Tokod Vasutallomas;47,7333;18,6833;RSTN
3043901;Tiszaalpár Vasútállomás;Tiszaalpar Vasutallomas;46,8167;19,9833;RSTN
3043903;Tiszaalpár Alsó Vasútállomás;Tiszaalpar Also Vasutallomas;46,7906;19,9509;RSTN
3044074;Tata Vasútállomás;Tata Vasutallomas;47,6667;18,3333;RSTN
3044086;Taszár Vasútállomás;Taszar Vasutallomas;46,3639;17,8934;RSTN
3044096;Tar Vasútállomás;Tar Vasutallomas;47,9562;19,7474;RSTN
3044099;Tárnok Vasútállomás;Tarnok Vasutallomas;47,3667;18,8833;RSTN
3044113;Tarjánpuszta Vasútállomás;Tarjanpuszta Vasutallomas;47,5000;17,7833;RSTN
3044132;Tápszentmiklós Vasútállomás;Tapszentmiklos Vasutallomas;47,4774;17,8682;RSTN
3044137;Tapolca Vasútállomás;Tapolca Vasutallomas;46,8833;17,4333;RSTN
3044150;Tápiószele Vasútállomás;Tapioszele Vasutallomas;47,3333;19,8833;RSTN
3044152;Tápiószecső Vasútállomás;Tapioszecso Vasutallomas;47,4333;19,6167;RSTN
3044159;Tápiógyörgye Vasútállomás;Tapiogyorgye Vasutallomas;47,3167;19,9667;RSTN
3044170;Tamási Vasútállomás;Tamasi Vasutallomas;46,6333;18,2833;RSTN
3044180;Taksony Vasútállomás;Taksony Vasutallomas;47,3167;19,0833;RSTN
3044189;Tajó Vasútállomás;Tajo Vasutallomas;46,4667;19,6833;RSTN
3044200;Tab Vasútállomás;Tab Vasutallomas;46,7333;18,0333;RSTN
3044210;Táborfalva Vasútállomás;Taborfalva Vasutallomas;47,1000;19,4833;RSTN
3044216;Tabdi Vasúti Megállóhely;Tabdi Vasuti Megallohely;46,6833;19,2833;RSTN
3044226;Szurdokpüspöki Vasútállomás;Szurdokpuspoki Vasutallomas;47,8500;19,6833;RSTN
3044307;Szombathely Vasútállomás;Szombathely Vasutallomas;47,2376;16,6321;RSTN
3044350;Szokolya Vasútállomás;Szokolya Vasutallomas;47,8713;19,0305;RSTN
3044377;Szob Vasútállomás;Szob Vasutallomas;47,8167;18,8667;RSTN
3044423;Szil-Sopronnémeti Vasútállomás;Szil-Sopronnemeti Vasutallomas;47,5330;17,2090;RSTN
3044468;Szigetvár Vasútállomás;Szigetvar Vasutallomas;46,0500;17,8167;RSTN
3044474;Szigetszentmiklós Gyártelep Vasútállomás;Szigetszentmiklos Gyartelep Vasutallomas;47,3333;19,0000;RSTN
3044476;Szigetszentmárton-Szigetújfalu Vasútállomás;Szigetszentmarton-Szigetujfalu Vasutallomas;47,2276;18,9462;RSTN
3044490;Szigetcsép Vasútállomás;Szigetcsep Vasutallomas;47,2698;18,9561;RSTN
3044573;Szentlőrinc Vasútállomás;Szentlorinc Vasutallomas;46,0333;18,0000;RSTN
3044599;Szentkirályszabadja Vasútállomás;Szentkiralyszabadja Vasutallomas;47,0333;17,9667;RSTN
3044668;Szentgotthárd Vasútállomás;Szentgotthard Vasutallomas;46,9571;16,2632;RSTN
3044670;Szentgál Vasútállomás;Szentgal Vasutallomas;47,1371;17,7057;RSTN
3044678;Szentendre Vasútállomás;Szentendre Vasutallomas;47,6667;19,0833;RSTN
3044693;Szenta Vasútállomás;Szenta Vasutallomas;46,2667;17,1833;RSTN
3044755;Szekszárd Vasútállomás;Szekszard Vasutallomas;46,3333;18,7167;RSTN
3044771;Székesfehérvár Vasútállomás;Szekesfehervar Vasutallomas;47,1831;18,4244;RSTN
3044797;Szedres Vasútállomás;Szedres Vasutallomas;46,4787;18,7170;RSTN
3044806;Szécsény Vasútállomás;Szecseny Vasutallomas;48,1000;19,5167;RSTN
3044813;Széchenyi-hegy Vasútállomás;Szechenyi-hegy Vasutallomas;47,4937;18,9766;RSTN
3044820;Százhalombatta Vasútállomás;Szazhalombatta Vasutallomas;47,3167;18,9000;RSTN
3044864;Szárliget Vasútállomás;Szarliget Vasutallomas;47,5199;18,4957;RSTN
3044882;Szárföld Vasútállomás;Szarfold Vasutallomas;47,5892;17,1224;RSTN
3044908;Szany-Rábaszentandrás Vasútállomás;Szany-Rabaszentandras Vasutallomas;47,4607;17,3152;RSTN
3044915;Szank Vasútállomás;Szank Vasutallomas;46,5500;19,6667;RSTN
3044940;Szalkszentmárton Vasútállomás;Szalkszentmarton Vasutallomas;46,9715;19,0253;RSTN
3044967;Szák-Szend Vasútállomás;Szak-Szend Vasutallomas;47,5164;18,1869;RSTN
3044978;Szakály-Hőgyész Vasútállomás;Szakaly-Hogyesz Vasutallomas;46,5247;18,3892;RSTN
3045015;Szabadszállás Vasútállomás;Szabadszallas Vasutallomas;46,8833;19,2167;RSTN
3045036;Szabadegyháza Vasútállomás;Szabadegyhaza Vasutallomas;47,0833;18,7167;RSTN
3045038;Szabadbattyán Vasútállomás;Szabadbattyan Vasutallomas;47,1050;18,3905;RSTN
3045043;Süttő Vasútállomás;Sutto Vasutallomas;47,7611;18,4553;RSTN
3045061;Sumony Vasútállomás;Sumony Vasutallomas;45,9667;17,9000;RSTN
3045065;Sümeg Vasútállomás;Sumeg Vasutallomas;46,9833;17,2667;RSTN
3045067;Sümegi Bazaltbánya Vasútállomás;Sumegi Bazaltbanya Vasutallomas;46,9525;17,2926;RSTN
3045073;Sülysáp Vasútállomás;Sulysap Vasutallomas;47,4500;19,5333;RSTN
3045151;Soroksár Vasútállomás;Soroksar Vasutallomas;47,4020;19,1231;RSTN
3045152;Soroksári Út Vasútállomás;Soroksari Ut Vasutallomas;47,4585;19,0827;RSTN
3045179;Sopron-GYSEV Pályaudvar;Sopron-GYSEV Palyaudvar;47,6782;16,5860;RSTN
3045200;Somoskőújfalu Vasútállomás;Somoskoujfalu Vasutallomas;48,1670;19,8210;RSTN
3045211;Somogyvár Vasútállomás;Somogyvar Vasutallomas;46,5827;17,6313;RSTN
3045214;Somogyudvarhely Vasútállomás;Somogyudvarhely Vasutallomas;46,1667;17,1833;RSTN
3045217;Somogytarnóca Vasútállomás;Somogytarnoca Vasutallomas;46,0167;17,4333;RSTN
3045218;Somogyszob Vasútállomás;Somogyszob Vasutallomas;46,3000;17,3000;RSTN
3045228;Somogyjád Vasútállomás;Somogyjad Vasutallomas;46,5000;17,7000;RSTN
3045293;Solymár Vasútállomás;Solymar Vasutallomas;47,5960;18,9495;RSTN
3045296;Solt Vasútállomás;Solt Vasutallomas;46,8000;19,0000;RSTN
3045297;Soltvadkert Vasútállomás;Soltvadkert Vasutallomas;46,5833;19,3833;RSTN
3045329;Siójut Vasútállomás;Siojut Vasutallomas;46,8833;18,1333;RSTN
3045331;Siófok Vasútállomás;Siofok Vasutallomas;46,9000;18,0500;RSTN
3045340;Simontornya Vasútállomás;Simontornya Vasutallomas;46,7500;18,5333;RSTN
3045360;Siklós Vasútállomás;Siklos Vasutallomas;45,8667;18,3000;RSTN
3045382;Seregélyes Vasútállomás;Seregelyes Vasutallomas;47,1167;18,5833;RSTN
3045395;Selyp Vasútállomás;Selyp Vasutallomas;47,7667;19,6833;RSTN
3045435;Sávoly Vasútállomás;Savoly Vasutallomas;46,6090;17,2353;RSTN
3045478;Sásd Vasútállomás;Sasd Vasutallomas;46,2667;18,1000;RSTN
3045486;Sárvár Vasútállomás;Sarvar Vasutallomas;47,2590;16,9293;RSTN
3045491;Sárszentmiklós Vasútállomás;Sarszentmiklos Vasutallomas;46,8500;18,6000;RSTN
3045492;Sárszentmihály Vasútállomás;Sarszentmihaly Vasutallomas;47,1700;18,3148;RSTN
3045501;Sárpilis-Várdomb Vasútállomás;Sarpilis-Vardomb Vasutallomas;46,2440;18,7200;RSTN
3045509;Sárosd Vasútállomás;Sarosd Vasutallomas;47,0500;18,6500;RSTN
3045563;Sárbogárd Vasútállomás;Sarbogard Vasutallomas;46,8959;18,6119;RSTN
3045630;Sámod Vasútállomás;Samod Vasutallomas;45,8444;18,0400;RSTN
3045640;Salgótarján Vasútállomás;Salgotarjan Vasutallomas;48,1000;19,8000;RSTN
3045641;Salgótarján Külső Pályaudvar;Salgotarjan Kulso Palyaudvar;48,0833;19,7833;RSTN
3045658;Szépjuhászné Vasútállomás;Szepjuhaszne Vasutallomas;47,5290;18,9549;RSTN
3045696;Rudics Vasútállomás;Rudics Vasutallomas;46,1333;19,3500;RSTN
3045756;Romhány Vasútállomás;Romhany Vasutallomas;47,9167;19,2667;RSTN
3045835;Révfülöp Vasútállomás;Revfulop Vasutallomas;46,8333;17,6333;RSTN
3045841;Rétszilas Vasútállomás;Retszilas Vasutallomas;46,8105;18,6011;RSTN
3045845;Rétság Vasútállomás;Retsag Vasutallomas;47,9333;19,1333;RSTN
3045882;Répcelak Vasútállomás;Repcelak Vasutallomas;47,4191;17,0091;RSTN
3045924;Rédics Vasútállomás;Redics Vasutallomas;46,6183;16,4717;RSTN
3045938;Rátót Vasútállomás;Ratot Vasutallomas;46,9667;16,4333;RSTN
3045958;Rákos Vasútállomás;Rakos Vasutallomas;47,4888;19,1751;RSTN
3045961;Rákosrendező Pályaudvar;Rakosrendezo Palyaudvar;47,5259;19,0902;RSTN
3045963;Rákospalota-Újpest Vasútállomás;Rakospalota-Ujpest Vasutallomas;47,5658;19,1120;RSTN
3045973;Rákoshegy Vasútállomás;Rakoshegy Vasutallomas;47,4686;19,2455;RSTN
3045977;Rákoscsaba Vasútállomás;Rakoscsaba Vasutallomas;47,4926;19,2858;RSTN
3045990;Rajka Vasútállomás;Rajka Vasutallomas;48,0000;17,2000;RSTN
3046024;Ráckeve Vasútállomás;Rackeve Vasutallomas;47,1833;18,8500;RSTN
3046035;Rácalmás Vasútállomás;Racalmas Vasutallomas;47,0333;18,9167;RSTN
3046046;Rábatamási Vasútállomás;Rabatamasi Vasutallomas;47,5929;17,1616;RSTN
3046053;Rábapordány Vasútállomás;Rabapordany Vasutallomas;47,5572;17,3152;RSTN
3046086;Pusztaszabolcs Vasútállomás;Pusztaszabolcs Vasutallomas;47,1333;18,7667;RSTN
3046090;Pusztamonostor Vasútállomás;Pusztamonostor Vasutallomas;47,5667;19,8000;RSTN
3046128;Püspökmolnári Vasútállomás;Puspokmolnari Vasutallomas;47,0852;16,7685;RSTN
3046196;Porva-Csesznek Vasútállomás;Porva-Csesznek Vasutallomas;47,3309;17,8404;RSTN
3046206;Porpác Vasútállomás;Porpac Vasutallomas;47,2389;16,8328;RSTN
3046224;Pörböly Vasútállomás;Porboly Vasutallomas;46,1991;18,8255;RSTN
3046229;Pomáz Vasútállomás;Pomaz Vasutallomas;47,6500;19,0333;RSTN
3046242;Polgárdi Vasútállomás;Polgardi Vasutallomas;47,0667;18,2833;RSTN
3046246;Polgárdi-Ipartelepek Vasútállomás;Polgardi-Ipartelepek Vasutallomas;47,0833;18,3167;RSTN
3046258;Pókaszepetk Vasútállomás;Pokaszepetk Vasutallomas;46,9167;16,9667;RSTN
3046298;Pirtó Vasútállomás;Pirto Vasutallomas;46,5004;19,4486;RSTN
3046322;Pinnye Vasútállomás;Pinnye Vasutallomas;47,6002;16,7694;RSTN
3046335;Pincehely Vasútállomás;Pincehely Vasutallomas;46,6833;18,4500;RSTN
3046339;Pilisvörösvár Vasútállomás;Pilisvorosvar Vasutallomas;47,6138;18,9040;RSTN
3046341;Pilis Vasútállomás;Pilis Vasutallomas;47,2667;19,5500;RSTN
3046350;Piliscsaba Vasútállomás;Piliscsaba Vasutallomas;47,6333;19,8333;RSTN
3046351;Piliscsaba-Jászfalu Vasútállomás;Piliscsaba-Jaszfalu Vasutallomas;47,6556;18,7978;RSTN
3046378;Petőháza Vasútállomás;Petohaza Vasutallomas;47,5957;16,8895;RSTN
3046383;Petőfiszállás Vasútállomás;Petofiszallas Vasutallomas;46,6167;19,8667;RSTN
3046395;Pétfürdő Vasútállomás;Petfurdo Vasutallomas;47,1673;18,1220;RSTN
3046432;Pestszentlőrinc Vasútállomás;Pestszentlorinc Vasutallomas;47,4551;19,1826;RSTN
3046436;Pestimre Vasútállomás;Pestimre Vasutallomas;47,4031;19,1879;RSTN
3046444;Pesterzsébet Felső Vasútállomás;Pesterzsebet Felso Vasutallomas;47,4371;19,0943;RSTN
3046502;Pécs Vasútállomás;Pecs Vasutallomas;46,0667;18,2333;RSTN
3046503;Pécs-Vasas Vasútállomás;Pecs-Vasas Vasutallomas;46,1167;18,3167;RSTN
3046504;Pécsvárad Vasútállomás;Pecsvarad Vasutallomas;46,1572;18,4319;RSTN
3046507;Pécsudvard Vasútállomás;Pecsudvard Vasutallomas;46,0167;18,2833;RSTN
3046511;Pécs Külváros Vasútállomás;Pecs Kulvaros Vasutallomas;46,0667;18,2500;RSTN
3046519;Pécs Felső Vasútállomás;Pecs Felso Vasutallomas;46,1167;18,3000;RSTN
3046523;Pécsbánya Rendező Pályaudvar;Pecsbanya Rendezo Palyaudvar;46,0557;18,2705;RSTN
3046530;Pécel Vasútállomás;Pecel Vasutallomas;47,4937;19,3371;RSTN
3046576;Pásztó Vasútállomás;Paszto Vasutallomas;47,9167;19,6833;RSTN
3046657;Papkeszi Vasútállomás;Papkeszi Vasutallomas;47,0982;18,0904;RSTN
3046677;Pápa Vasútállomás;Papa Vasutallomas;47,3333;17,4500;RSTN
3046679;Pápateszér Vasútállomás;Papateszer Vasutallomas;47,3667;17,6833;RSTN
3046692;Pannonhalma Vasútállomás;Pannonhalma Vasutallomas;47,5500;17,7500;RSTN
3046714;Palotabozsok Vasútállomás;Palotabozsok Vasutallomas;46,1333;18,6500;RSTN
3046767;Paks Vasútállomás;Paks Vasutallomas;46,6000;18,8500;RSTN
3046782;Páhi Vasútállomás;Pahi Vasutallomas;46,7167;19,4000;RSTN
3046791;Pácsony Vasútállomás;Pacsony Vasutallomas;47,0167;16,8333;RSTN
3046813;Ötvös Vasútállomás;Otvos Vasutallomas;47,0153;17,1359;RSTN
3046815;Ötvöskónyi Vasúti Megállóhely;Otvoskonyi Vasuti Megallohely;46,2833;17,3667;RSTN
3046824;Öttevény Vasútállomás;Otteveny Vasutallomas;47,7333;17,4833;RSTN
3046836;Osztopán Vasútállomás;Osztopan Vasutallomas;46,5167;17,6500;RSTN
3046843;Oszkó Vasútállomás;Oszko Vasutallomas;47,0568;16,8523;RSTN
3046851;Ostffyasszonyfa Vasútállomás;Ostffyasszonyfa Vasutallomas;47,2839;17,0243;RSTN
3046865;Őrtilos Vasútállomás;Ortilos Vasutallomas;46,2984;16,8876;RSTN
3046870;Őrszentmiklós - Vácbottyán Vasútállomás;Orszentmiklos - Vacbottyan Vasutallomas;47,6833;19,2833;RSTN
3046887;Oroszlány Vasútállomás;Oroszlany Vasutallomas;47,4667;18,3167;RSTN
3046910;Örkény Vasútállomás;Orkeny Vasutallomas;47,1338;19,4460;RSTN
3046936;Orgovány Vasútállomás;Orgovany Vasutallomas;46,7500;19,4833;RSTN
3046982;Öreglak Vasútállomás;Oreglak Vasutallomas;46,6167;17,6333;RSTN
3047098;Öregcsertő Vasútállomás;Oregcserto Vasutallomas;46,5167;19,1167;RSTN
3047126;Őrbottyán Vasútállomás;Orbottyan Vasutallomas;47,7000;19,2833;RSTN
3047160;Ölbő-Alsószeleste Vasútállomás;Olbo-Alsoszeleste Vasutallomas;47,3003;16,8435;RSTN
3047200;Őcsény Vasútállomás;Ocseny Vasutallomas;46,3181;18,7432;RSTN
3047202;Ócsa Vasútállomás;Ocsa Vasutallomas;47,3000;19,2333;RSTN
3047208;Óbuda Vasútállomás;Obuda Vasutallomas;47,5695;19,0308;RSTN
3047220;Óalmás Vasútállomás;Oalmas Vasutallomas;46,1167;19,3000;RSTN
3047224;Nyúl Vasútállomás;Nyul Vasutallomas;47,5833;17,6833;RSTN
3047280;Nyergesújfalu Vasútállomás;Nyergesujfalu Vasutallomas;47,7667;18,5667;RSTN
3047300;Nyársapát Vasútállomás;Nyarsapat Vasutallomas;47,1010;19,7919;RSTN
3047306;Nyárlőrinc Vasútállomás;Nyarlorinc Vasutallomas;46,8667;19,8500;RSTN
3047312;Nyárjas Vasútállomás;Nyarjas Vasutallomas;46,8667;19,9333;RSTN
3047342;Nógrád Vasútállomás;Nograd Vasutallomas;47,9000;19,0500;RSTN
3047343;Nógrádszakál Vasútállomás;Nogradszakal Vasutallomas;48,1833;19,5333;RSTN
3047350;Nógrádkövesd Vasútállomás;Nogradkovesd Vasutallomas;47,8833;19,3833;RSTN
3047362;Neszmély Vasútállomás;Neszmely Vasutallomas;47,7344;18,3472;RSTN
3047501;Nagytétény-Diósd Vasútállomás;Nagyteteny-Diosd Vasutallomas;47,3983;18,9723;RSTN
3047532;Nagyszentjános Vasútállomás;Nagyszentjanos Vasutallomas;47,7167;17,8833;RSTN
3047575;Nagyrécse Vasútállomás;Nagyrecse Vasutallomas;46,4667;17,0500;RSTN
3047605;Nagyoroszi Vasútállomás;Nagyoroszi Vasutallomas;47,9921;19,1024;RSTN
3047618;Nagymaros Vasútállomás;Nagymaros Vasutallomas;47,7833;18,9500;RSTN
3047621;Nagymányok Vasútállomás;Nagymanyok Vasutallomas;46,2833;18,4667;RSTN
3047629;Nagylók Vasútállomás;Nagylok Vasutallomas;46,9833;18,6500;RSTN
3047650;Nagykőrös Vasútállomás;Nagykoros Vasutallomas;47,0333;19,7500;RSTN
3047654;Nagykónyi Vasútállomás;Nagykonyi Vasutallomas;46,6000;18,2333;RSTN
3047668;Nagykáta Vasútállomás;Nagykata Vasutallomas;47,4000;19,7500;RSTN
3047671;Nagykarácsony Vasútállomás;Nagykaracsony Vasutallomas;46,8667;18,7833;RSTN
3047675;Nagykapornak Vasútállomás;Nagykapornak Vasutallomas;46,8167;16,9333;RSTN
3047677;Nagykanizsa Vasútállomás;Nagykanizsa Vasutallomas;46,4500;16,9833;RSTN
3047688;Nagyigmánd-Bábolna Vasútállomás;Nagyigmand-Babolna Vasutallomas;47,6667;18,0500;RSTN
3047691;Nagyicce Vasútállomás;Nagyicce Vasutallomas;47,5074;19,1688;RSTN
3047723;Nagyharsány Vasútállomás;Nagyharsany Vasutallomas;45,8475;18,3792;RSTN
3047736;Nagygyimót Vasútállomás;Nagygyimot Vasutallomas;47,3500;17,5667;RSTN
3047764;Nagydorog Vasútállomás;Nagydorog Vasutallomas;46,6167;18,6500;RSTN
3047780;Nagycenk Vasútállomás;Nagycenk Vasutallomas;47,6011;16,6904;RSTN
3047799;Nagybátony Vasútállomás;Nagybatony Vasutallomas;47,9837;19,8211;RSTN
3047817;Nagyatád Vasútállomás;Nagyatad Vasutallomas;46,2167;17,3667;RSTN
3047870;Murakeresztúr Vasútállomás;Murakeresztur Vasutallomas;46,3667;16,8667;RSTN
3047891;Mosonszolnok Vasútállomás;Mosonszolnok Vasutallomas;47,8522;17,1605;RSTN
3047895;Mosonmagyaróvár Vasútállomás;Mosonmagyarovar Vasutallomas;47,8667;17,2833;RSTN
3047901;Mór Vasútállomás;Mor Vasutallomas;47,3500;18,2000;RSTN
3047923;Mórágy Vasútállomás;Moragy Vasutallomas;46,2382;18,6268;RSTN
3047939;Monor Vasútállomás;Monor Vasutallomas;47,3333;19,4500;RSTN
3047959;Mohora Vasútállomás;Mohora Vasutallomas;47,9833;19,3500;RSTN
3047961;Moha Vasútállomás;Moha Vasutallomas;47,2469;18,3398;RSTN
3047963;Moha-Rakodó Vasútállomás;Moha-Rakodo Vasutallomas;47,2667;18,3000;RSTN
3047964;Mohács Vasútállomás;Mohacs Vasutallomas;46,0000;18,6833;RSTN
3047981;Mogyorósbánya Vasúti Megállóhely;Mogyorosbanya Vasuti Megallohely;47,7500;18,6000;RSTN
3047985;Mogyoród Vasútállomás;Mogyorod Vasutallomas;47,5957;19,2720;RSTN
3048099;Mezőlak Vasútállomás;Mezolak Vasutallomas;47,3232;17,3665;RSTN
3048103;Mezőhídvég Vasútállomás;Mezohidveg Vasutallomas;46,8333;18,2833;RSTN
3048106;Mezőfalva Vasútállomás;Mezofalva Vasutallomas;46,9041;18,8088;RSTN
3048118;Mézaszászvár Vasútállomás;Mezaszaszvar Vasutallomas;46,2833;18,4000;RSTN
3048124;Mesztegnyő Vasútállomás;Mesztegnyo Vasutallomas;46,5079;17,4330;RSTN
3048156;Mernye Vasútállomás;Mernye Vasutallomas;46,5167;17,8333;RSTN
3048175;Ménfőcsanak Vasútállomás;Menfocsanak Vasutallomas;47,6167;17,6167;RSTN
3048185;Mende Vasútállomás;Mende Vasutallomas;47,4333;19,4500;RSTN
3048190;Mélykút Vasútállomás;Melykut Vasutallomas;46,2500;19,3500;RSTN
3048251;Mecsekjánosi Vasútállomás;Mecsekjanosi Vasutallomas;46,2167;18,2500;RSTN
3048255;Mecsekalja-Cserkút Vasútállomás;Mecsekalja-Cserkut Vasutallomas;46,0667;18,1500;RSTN
3048260;Mázaszászvár Vasútállomás;Mazaszaszvar Vasutallomas;46,2833;18,4000;RSTN
3048279;Mátravidéki Erőmű Vasútállomás;Matravideki Eromu Vasutallomas;47,7167;19,6667;RSTN
3048289;Mátranovák-Homokterenye Vasútállomás;Matranovak-Homokterenye Vasutallomas;48,0350;19,9753;RSTN
3048292;Mátramindszent Vasútállomás;Matramindszent Vasutallomas;47,9970;19,9413;RSTN
3048316;Mátéházapuszta Vasútállomás;Matehazapuszta Vasutallomas;46,1501;19,0630;RSTN
3048325;Martonvásár Vasútállomás;Martonvasar Vasutallomas;47,3167;18,7833;RSTN
3048453;Marcali Vasútállomás;Marcali Vasutallomas;46,5838;17,4206;RSTN
3048575;Magyarszék Vasútállomás;Magyarszek Vasutallomas;46,2000;18,2000;RSTN
3048585;Magyarnándor Vasútállomás;Magyarnandor Vasutallomas;47,9667;19,3500;RSTN
3048610;Magyarbóly Vasútállomás;Magyarboly Vasutallomas;45,8336;18,4925;RSTN
3048626;Mágocs-Alsómocsolád Vasútállomás;Magocs-Alsomocsolad Vasutallomas;46,3066;18,2240;RSTN
3048628;Maglód Vasútállomás;Maglod Vasutallomas;47,4333;19,3333;RSTN
3048682;Lukácsháza Vasútállomás;Lukacshaza Vasutallomas;47,3410;16,5797;RSTN
3048683;Lukácsháza Alsó Vasúti Megállóhely;Lukacshaza Also Vasuti Megallohely;47,3270;16,5851;RSTN
3048705;Lövő Vasútállomás;Lovo Vasutallomas;47,5000;16,7833;RSTN
3048724;Lőrinci Vasútállomás;Lorinci Vasutallomas;47,7333;19,6667;RSTN
3048760;Litke Vasútállomás;Litke Vasutallomas;48,2167;19,6000;RSTN
3048827;Lesencetomaj Vasútállomás;Lesencetomaj Vasutallomas;46,8755;17,3808;RSTN
3048833;Lepsény Vasútállomás;Lepseny Vasutallomas;46,9833;18,2500;RSTN
3048842;Lenti Vasútállomás;Lenti Vasutallomas;46,6167;16,5333;RSTN
3048851;Lengyeltóti Vasútállomás;Lengyeltoti Vasutallomas;46,6500;17,6167;RSTN
3048887;Lébénymiklós Vasútállomás;Lebenymiklos Vasutallomas;47,7559;17,4219;RSTN
3048890;Leányvár Vasútállomás;Leanyvar Vasutallomas;47,6872;18,7735;RSTN
3049000;Lajosmizse Vasútállomás;Lajosmizse Vasutallomas;47,0284;19,5426;RSTN
3049035;Lábatlan Vasútállomás;Labatlan Vasutallomas;47,7500;18,5167;RSTN
3049094;Kurd Vasútállomás;Kurd Vasutallomas;46,4501;18,3192;RSTN
3049099;Kunszentmiklós-Tass Vasútállomás;Kunszentmiklos-Tass Vasutallomas;47,0170;19,1012;RSTN
3049110;Kunfehértó Vasútállomás;Kunfeherto Vasutallomas;46,3667;19,4167;RSTN
3049119;Külsővat Vasútállomás;Kulsovat Vasutallomas;47,2802;17,2217;RSTN
3049226;Középrigóc Vasútállomás;Kozeprigoc Vasutallomas;45,9710;17,5278;RSTN
3049359;Kőszeg Vasútállomás;Koszeg Vasutallomas;47,3817;16,5568;RSTN
3049418;Környe Vasútállomás;Kornye Vasutallomas;47,5333;18,3333;RSTN
3049427;Körmend Vasútállomás;Kormend Vasutallomas;47,0167;16,6000;RSTN
3049428;Körmend Külső Vasúti Megállóhely;Kormend Kulso Vasuti Megallohely;47,0167;16,5667;RSTN
3049488;Kóny Vasútállomás;Kony Vasutallomas;47,6325;17,3585;RSTN
3049507;Komló Vasútállomás;Komlo Vasutallomas;46,2000;18,2667;RSTN
3049508;Komló Teherpályaudvar;Komlo Teherpalyaudvar;46,2000;18,2500;RSTN
3049514;Komárom Vasútállomás;Komarom Vasutallomas;47,7500;18,1167;RSTN
3049547;Kölesd-Alsótengelic Vasútállomás;Kolesd-Alsotengelic Vasutallomas;46,5378;18,6723;RSTN
3049602;Kohárymajor Vasútállomás;Koharymajor Vasutallomas;46,8703;19,8509;RSTN
3049618;Kocsola Vasútállomás;Kocsola Vasutallomas;46,5333;18,2000;RSTN
3049643;Kőbánya-Kispest Vasútállomás;Kobanya-Kispest Vasutallomas;47,4643;19,1490;RSTN
3049665;Klábertelep Vasútállomás;Klabertelep Vasutallomas;47,0000;19,5500;RSTN
3049706;Kisterenye Vasútállomás;Kisterenye Vasutallomas;48,0099;19,8324;RSTN
3049710;Kistelek Vasútállomás;Kistelek Vasutallomas;46,4667;19,9667;RSTN
3049750;Kisszállás Vasútállomás;Kisszallas Vasutallomas;46,2790;19,5381;RSTN
3049794;Kispest Vasútállomás;Kispest Vasutallomas;47,4478;19,1575;RSTN
3049874;Kiskunmajzsa Vasútállomás;Kiskunmajzsa Vasutallomas;46,5000;19,7167;RSTN
3049877;Kiskunlacháza Vasútállomás;Kiskunlachaza Vasutallomas;47,1833;19,0500;RSTN
3049879;Kiskunhalas Vasútállomás;Kiskunhalas Vasutallomas;46,4333;19,5000;RSTN
3049884;Kiskunfélegyháza Vasútállomás;Kiskunfelegyhaza Vasutallomas;46,7000;19,8333;RSTN
3049893;Kiskorpád Vasútállomás;Kiskorpad Vasutallomas;46,3600;17,6007;RSTN
3049895;Kiskőrös Vasútállomás;Kiskoros Vasutallomas;46,6333;19,3000;RSTN
3050057;Kiscséripuszta Vasútállomás;Kiscseripuszta Vasutallomas;47,0468;18,3539;RSTN
3050085;Kisbér Vasútállomás;Kisber Vasutallomas;47,5000;18,0167;RSTN
3050100;Kisbárapáti Vasútállomás;Kisbarapati Vasutallomas;46,6167;17,8667;RSTN
3050164;Kimle Vasútállomás;Kimle Vasutallomas;47,8055;17,3407;RSTN
3050202;Kéthely Vasútállomás;Kethely Vasutallomas;46,6500;17,4167;RSTN
3050209;Keszthely Vasútállomás;Keszthely Vasutallomas;46,7667;17,2667;RSTN
3050213;Keszőhidegkút-Gyönk Vasútállomás;Keszohidegkut-Gyonk Vasutallomas;46,6000;18,4333;RSTN
3050243;Kerta Vasútállomás;Kerta Vasutallomas;47,1514;17,2385;RSTN
3050288;Kerepestarcsa Felső Vasútállomás;Kerepestarcsa Felso Vasutallomas;47,5667;19,2833;RSTN
3050289;Kerepestarcsa Alsó Vasútállomás;Kerepestarcsa Also Vasutallomas;47,5500;19,2667;RSTN
3050353;Kémes Vasútállomás;Kemes Vasutallomas;45,8292;18,0961;RSTN
3050403;Kelebia Vasútállomás;Kelebia Vasutallomas;46,2000;19,6000;RSTN
3050417;Kehida-Kustány Vasútállomás;Kehida-Kustany Vasutallomas;46,8333;17,1167;RSTN
3050427;Kecskemét Vasútállomás;Kecskemet Vasutallomas;46,9167;19,7000;RSTN
3050430;Kecskemét-Máriaváros Vasútállomás;Kecskemet-Mariavaros Vasutallomas;46,9000;19,6667;RSTN
3050432;Kecskemét Alsó Pályaudvar;Kecskemet Also Palyaudvar;46,9000;19,7000;RSTN
3050444;Kecskéd Vasúti Megállóhely;Kecsked Vasuti Megallohely;47,5333;18,3000;RSTN
3050450;Kecel Vasútállomás;Kecel Vasutallomas;46,5547;19,2427;RSTN
3050479;Katonatelep Vasútállomás;Katonatelep Vasutallomas;46,9667;19,7167;RSTN
3050518;Kaskantyú Vasútállomás;Kaskantyu Vasutallomas;46,6667;19,4000;RSTN
3050566;Kárász-Köblény Vasútállomás;Karasz-Kobleny Vasutallomas;46,2773;18,3123;RSTN
3050586;Karád Vasútállomás;Karad Vasutallomas;46,6800;17,8746;RSTN
3050593;Kapuvár Vasútállomás;Kapuvar Vasutallomas;47,5817;17,0440;RSTN
3050612;Kaposvár Vasútállomás;Kaposvar Vasutallomas;46,3667;17,8000;RSTN
3050626;Kaposmérő Vasútállomás;Kaposmero Vasutallomas;46,3667;17,7000;RSTN
3050634;Kaposfüred Vasútállomás;Kaposfured Vasutallomas;46,4161;17,7589;RSTN
3050635;Kaposfő Vasúti Megállóhely;Kaposfo Vasuti Megallohely;46,3667;17,6667;RSTN
3050640;Kapoly Vasútállomás;Kapoly Vasutallomas;46,7167;17,9833;RSTN
3050646;Kápolnásnyék Vasútállomás;Kapolnasnyek Vasutallomas;47,2500;18,7000;RSTN
3050716;Kalocsa Vasútállomás;Kalocsa Vasutallomas;46,5333;19,0000;RSTN
3050900;Jászszentlászló Vasútállomás;Jaszszentlaszlo Vasutallomas;46,5667;19,7667;RSTN
3050902;Jászfényszaru Vasútállomás;Jaszfenyszaru Vasutallomas;47,5932;19,7532;RSTN
3050906;Jászberény Vasútállomás;Jaszbereny Vasutallomas;47,4833;19,9000;RSTN
3050908;Jászárokszállás Vasútállomás;Jaszarokszallas Vasutallomas;47,6333;19,9833;RSTN
3050926;Jánossomorja Vasútállomás;Janossomorja Vasutallomas;47,7891;17,1375;RSTN
3050946;János-hegy Vasútállomás;Janos-hegy Vasutallomas;47,5333;18,9333;RSTN
3050958;Jánosháza Vasútállomás;Janoshaza Vasutallomas;47,1167;17,1667;RSTN
3050966;Jánoshalma Vasútállomás;Janoshalma Vasutallomas;46,3000;19,3333;RSTN
3050987;Jákó-Nagybajom Vasútállomás;Jako-Nagybajom Vasutallomas;46,3442;17,5554;RSTN
3050992;Ják-Balogunyom Vasútállomás;Jak-Balogunyom Vasutallomas;47,1667;16,6333;RSTN
3050995;Jakabszállás Vasútállomás;Jakabszallas Vasutallomas;46,7667;19,6000;RSTN
3051013;Izsák Vasútállomás;Izsak Vasutallomas;46,8114;19,3399;RSTN
3051034;Iváncsa Vasútállomás;Ivancsa Vasutallomas;47,1811;18,8160;RSTN
3051076;Isaszeg Vasútállomás;Isaszeg Vasutallomas;47,5378;19,3892;RSTN
3051103;Ipolyvece Vasútállomás;Ipolyvece Vasutallomas;48,0667;19,1167;RSTN
3051106;Ipolytarnóc Vasútállomás;Ipolytarnoc Vasutallomas;48,2333;19,6333;RSTN
3051131;Inárcs-Kakucs Vasútállomás;Inarcs-Kakucs Vasutallomas;47,2500;19,3167;RSTN
3051179;Ikrény Vasútállomás;Ikreny Vasutallomas;47,6577;17,5231;RSTN
3051185;Iklad-Domony Vasútállomás;Iklad-Domony Vasutallomas;47,6667;19,4500;RSTN
3051222;Hűvösvölgy Vasútállomás;Huvosvolgy Vasutallomas;47,5417;18,9635;RSTN
3051323;Hort-Csány Vasútállomás;Hort-Csany Vasutallomas;47,6667;19,8000;RSTN
3051356;Homokszentlőrinc Vasútállomás;Homokszentlorinc Vasutallomas;46,9333;19,1667;RSTN
3051471;Hidas-Bonyhád Vasútállomás;Hidas-Bonyhad Vasutallomas;46,2721;18,5209;RSTN
3051490;Hetényegyháza Vasútállomás;Hetenyegyhaza Vasutallomas;46,9167;19,6000;RSTN
3051497;Hernád Vasútállomás;Hernad Vasutallomas;47,1610;19,4042;RSTN
3051511;Herend Vasútállomás;Herend Vasutallomas;47,1369;17,7606;RSTN
3051523;Herceghalom Vasútállomás;Herceghalom Vasutallomas;47,4940;18,7486;RSTN
3051534;Helvécia Vasútállomás;Helvecia Vasutallomas;46,8500;19,6167;RSTN
3051565;Hegyfalu Vasútállomás;Hegyfalu Vasutallomas;47,3578;16,8982;RSTN
3051579;Hegyeshalom Vasútállomás;Hegyeshalom Vasutallomas;47,9124;17,1481;RSTN
3051617;Hatvan Vasútállomás;Hatvan Vasutallomas;47,6667;19,6667;RSTN
3051655;Harta Vasútállomás;Harta Vasutallomas;46,7000;19,0333;RSTN
3051660;Hárshegy Vasútállomás;Harshegy Vasutallomas;47,5356;18,9627;RSTN
3051716;Harkány Vasútállomás;Harkany Vasutallomas;45,8556;18,2247;RSTN
3051720;Harkakötöny Vasútállomás;Harkakotony Vasutallomas;46,4500;19,6000;RSTN
3051761;Hantháza Vasútállomás;Hanthaza Vasutallomas;47,1007;19,6361;RSTN
3051879;Hajmáskér Vasútállomás;Hajmasker Vasutallomas;47,1410;18,0097;RSTN
3051961;Győr Railway Station;Gyor Railway Station;47,6818;17,6338;RSTN
3051966;Győrszentiván Vasútállomás;Gyorszentivan Vasutallomas;47,6882;17,7458;RSTN
3051967;Győrszemere Vasútállomás;Gyorszemere Vasutallomas;47,5657;17,5849;RSTN
3051970;Győrszabadhegy Vasútállomás;Gyorszabadhegy Vasutallomas;47,6625;17,6475;RSTN
3051971;Boráros tér Vasútállomás;Boraros ter Vasutallomas;47,4788;19,0665;RSTN
3052007;Győrasszonyfa Vasútállomás;Gyorasszonyfa Vasutallomas;47,5000;17,8000;RSTN
3052020;Gyöngyös Vasútállomás;Gyongyos Vasutallomas;47,7833;19,9333;RSTN
3052036;Gyöngyösfalu Vasúti Megállóhely;Gyongyosfalu Vasuti Megallohely;47,3164;16,5886;RSTN
3052044;Gyömrő Vasútállomás;Gyomro Vasutallomas;47,4333;19,3833;RSTN
3052046;Gyömöre Vasútállomás;Gyomore Vasutallomas;47,4868;17,5598;RSTN
3052072;Gyékényes Vasútállomás;Gyekenyes Vasutallomas;46,2492;16,9548;RSTN
3052095;Gyál Vasútállomás;Gyal Vasutallomas;47,3833;19,2167;RSTN
3052106;Gutorfölde Vasútállomás;Gutorfolde Vasutallomas;46,6500;16,7500;RSTN
3052222;Gógánfa Vasútállomás;Goganfa Vasutallomas;47,0167;17,2167;RSTN
3052225;Göd Vasútállomás;God Vasutallomas;47,7000;19,1500;RSTN
3052232;Gödöllő Vasútállomás;Godollo Vasutallomas;47,5833;19,3667;RSTN
3052233;Gödöllő-Palotakert Vasútállomás;Godollo-Palotakert Vasutallomas;47,6000;19,3500;RSTN
3052237;Godisa Vasútállomás;Godisa Vasutallomas;46,2224;18,1156;RSTN
3052274;Gic-Hathalom Vasútállomás;Gic-Hathalom Vasutallomas;47,4277;17,7480;RSTN
3052337;Gelse Vasútállomás;Gelse Vasutallomas;46,6000;17,0000;RSTN
3052356;Gecse-Gyarmat Vasútállomás;Gecse-Gyarmat Vasutallomas;47,4500;17,5167;RSTN
3052365;Gátér Vasútállomás;Gater Vasutallomas;46,6833;19,9667;RSTN
3052377;Gárdony Vasútállomás;Gardony Vasutallomas;47,2053;18,6237;RSTN
3052416;Galgamácsa Vasútállomás;Galgamacsa Vasutallomas;47,7000;19,3833;RSTN
3052421;Galgaguta Vasútállomás;Galgaguta Vasutallomas;47,8500;19,3833;RSTN
3052428;Galambos Vasútállomás;Galambos Vasutallomas;46,6333;19,8000;RSTN
3052486;Fürged Vasútállomás;Furged Vasutallomas;46,7275;18,2900;RSTN
3052499;Fülöpszállás Vasútállomás;Fulopszallas Vasutallomas;46,8333;19,2500;RSTN
3052509;Füle Vasúti Megállóhely;Fule Vasuti Megallohely;47,0500;18,2500;RSTN
3052531;Franciavágás Vasútállomás;Franciavagas Vasutallomas;47,3500;17,6333;RSTN
3052539;Fót Vasútállomás;Fot Vasutallomas;47,6167;19,1833;RSTN
3052563;Fornád-Kecsege Vasútállomás;Fornad-Kecsege Vasutallomas;46,6745;18,2929;RSTN
3052571;Fonyód Vasútállomás;Fonyod Vasutallomas;46,7500;17,5667;RSTN
3052628;Filatorigát Vasúti Megállóhely;Filatorigat Vasuti Megallohely;47,5530;19,0458;RSTN
3052638;Fertőszentmiklós Vasútállomás;Fertoszentmiklos Vasutallomas;47,5998;16,8597;RSTN
3052646;Fertőboz Vasútállomás;Fertoboz Vasutallomas;47,6253;16,6917;RSTN
3052766;Felsőrajk Vasútállomás;Felsorajk Vasutallomas;46,6833;17,0000;RSTN
3052794;Felsőnyék Vasútállomás;Felsonyek Vasutallomas;46,7833;18,2833;RSTN
3052803;Felsőmocsolád Vasútállomás;Felsomocsolad Vasutallomas;46,5596;17,8219;RSTN
3052905;Felsőgalla Vasútállomás;Felsogalla Vasutallomas;47,5500;18,4500;RSTN
3053148;Ete Vasútállomás;Ete Vasutallomas;47,5154;18,0778;RSTN
3053150;Eternitgyár Vasútállomás;Eternitgyar Vasutallomas;47,7667;18,5333;RSTN
3053160;Esztergom Vasútállomás;Esztergom Vasutallomas;47,7833;18,7500;RSTN
3053161;Esztergom-Kertváros Vasútállomás;Esztergom-Kertvaros Vasutallomas;47,7500;18,7333;RSTN
3053162;Esztergom-Kenyérmező Vasútállomás;Esztergom-Kenyermezo Vasutallomas;47,7333;18,7167;RSTN
3053227;Érd Vasútállomás;Erd Vasutallomas;47,3703;18,9010;RSTN
3053238;Erdősmecske Vasútállomás;Erdosmecske Vasutallomas;46,1508;18,5166;RSTN
3053280;Érd Alsó Vasútállomás;Erd Also Vasutallomas;47,3833;18,9333;RSTN
3053282;Ercsi Vasútállomás;Ercsi Vasutallomas;47,2500;18,8833;RSTN
3053289;Eplény Vasútállomás;Epleny Vasutallomas;47,1953;17,9194;RSTN
3053296;Enying Vasútállomás;Enying Vasutallomas;46,9167;18,2667;RSTN
3053298;Enese Vasútállomás;Enese Vasutallomas;47,6442;17,4249;RSTN
3053320;Előszállás Vasútállomás;Eloszallas Vasutallomas;46,8309;18,8424;RSTN
3053322;János-hegy Vasútállomás;Janos-hegy Vasutallomas;47,5167;18,9500;RSTN
3053344;Egyházasrádóc Vasútállomás;Egyhazasradoc Vasutallomas;47,0833;16,6167;RSTN
3053360;Egyed-Rábacsanak Vasútállomás;Egyed-Rabacsanak Vasutallomas;47,5221;17,3165;RSTN
3053379;Egervár-Vasboldogasszony Vasútállomás;Egervar-Vasboldogasszony Vasutallomas;46,9333;16,8667;RSTN
3053430;Dunavecse Vasútállomás;Dunavecse Vasutallomas;46,9167;18,9833;RSTN
3053437;Dunaújváros Kikötő Vasútállomás;Dunaujvaros Kikoto Vasutallomas;46,9333;18,9500;RSTN
3053439;Dunaújuáros Vasútállomás;Dunaujuaros Vasutallomas;46,9612;18,9136;RSTN
3053442;Dunatetétlen Vasútállomás;Dunatetetlen Vasutallomas;46,7500;19,1167;RSTN
3053458;Dunapataj Vasútállomás;Dunapataj Vasutallomas;46,6500;19,0167;RSTN
3053473;Dunakeszi Vasútállomás;Dunakeszi Vasutallomas;47,6333;19,1333;RSTN
3053480;Dunai Finomító Vasútállomás;Dunai Finomito Vasutallomas;47,3000;18,8833;RSTN
3053482;Dunaharaszti Vasútállomás;Dunaharaszti Vasutallomas;47,3500;19,1000;RSTN
3053487;Dunaföldvár Vasútállomás;Dunafoldvar Vasutallomas;46,8000;18,9167;RSTN
3053492;Dunaegyháza Vasútállomás;Dunaegyhaza Vasutallomas;46,8460;19,0035;RSTN
3053513;Drégelypalánk Vasútállomás;Dregelypalank Vasutallomas;48,0545;19,0462;RSTN
3053528;Drávafok Vasútállomás;Dravafok Vasutallomas;45,8833;17,7667;RSTN
3053556;Dorog Vasútállomás;Dorog Vasutallomas;47,7167;18,7333;RSTN
3053574;Dömsöd Vasútállomás;Domsod Vasutallomas;47,1101;19,0795;RSTN
3053588;Dombóvár Vasútállomás;Dombovar Vasutallomas;46,3667;18,1500;RSTN
3053589;Dombóvár Alsó Vasútállomás;Dombovar Also Vasutallomas;46,3833;18,1167;RSTN
3053622;Döbrököz Vasútállomás;Dobrokoz Vasutallomas;46,4167;18,2667;RSTN
3053681;Diósjenő Vasútállomás;Diosjeno Vasutallomas;47,9333;19,0500;RSTN
3053692;Dinnyés Vasútállomás;Dinnyes Vasutallomas;47,1767;18,5514;RSTN
3053710;Devecser Vasútállomás;Devecser Vasutallomas;47,1124;17,4355;RSTN
3053759;Délegyháza Vasútállomás;Delegyhaza Vasutallomas;47,2500;19,0667;RSTN
3053762;Dejtár Vasútállomás;Dejtar Vasutallomas;48,0447;19,1976;RSTN
3053767;Decs Vasútállomás;Decs Vasutallomas;46,2833;18,7667;RSTN
3053800;Darány Vasútállomás;Darany Vasutallomas;45,9919;17,5982;RSTN
3053801;Daránypuszta Vasútállomás;Daranypuszta Vasutallomas;46,7667;18,1500;RSTN
3053819;Dalmand Vasútállomás;Dalmand Vasutallomas;46,4909;18,1966;RSTN
3053824;Dad Vasútállomás;Dad Vasutallomas;47,5333;18,2333;RSTN
3053834;Dabas Vasútállomás;Dabas Vasutallomas;47,1924;19,3317;RSTN
3053854;Csurgó Vasútállomás;Csurgo Vasutallomas;46,2667;17,1000;RSTN
3053914;Csorna Vasútállomás;Csorna Vasutallomas;47,6020;17,2493;RSTN
3053916;Csór-Nádasdladány Vasútállomás;Csor-Nadasdladany Vasutallomas;47,1739;18,2206;RSTN
3053966;Csömör Vasútállomás;Csomor Vasutallomas;47,5500;19,2333;RSTN
3053973;Csömödér-Páka Vasútállomás;Csomoder-Paka Vasutallomas;46,6081;16,6447;RSTN
3053977;Csoma-Szabadi Vasútállomás;Csoma-Szabadi Vasutallomas;46,3667;18,0333;RSTN
3053981;Csomád Vasútállomás;Csomad Vasutallomas;47,6356;19,2218;RSTN
3054247;Cserdi-Helesfa Vasúti Megállóhely;Cserdi-Helesfa Vasuti Megallohely;46,0667;18,0000;RSTN
3054278;Csengőd Vasútállomás;Csengod Vasutallomas;46,7167;19,2833;RSTN
3054286;Csengele Vasútállomás;Csengele Vasutallomas;46,5333;19,9167;RSTN
3054349;Császár Vasútállomás;Csaszar Vasutallomas;47,5167;18,1333;RSTN
3054394;Csányoszró Vasútállomás;Csanyoszro Vasutallomas;45,8833;17,9000;RSTN
3054443;Csákánydoroszló Vasútállomás;Csakanydoroszlo Vasutallomas;46,9667;16,5167;RSTN
3054447;Csajág Vasútállomás;Csajag Vasutallomas;47,0352;18,1855;RSTN
3054483;Cinkota Vasútállomás;Cinkota Vasutallomas;47,5201;19,2183;RSTN
3054532;Celldömölk Vasútállomás;Celldomolk Vasutallomas;47,2606;17,1547;RSTN
3054535;Cegléd Vasútállomás;Cegled Vasutallomas;47,1828;19,8060;RSTN
3054541;Ceglédbercel-Cserő Vasútállomás;Cegledbercel-Csero Vasutallomas;47,2101;19,6875;RSTN
3054546;Cece Vasútállomás;Cece Vasutallomas;46,7720;18,6245;RSTN
3054575;Bük Vasútállomás;Buk Vasutallomas;47,3833;16,7500;RSTN
3054584;Bükkösd Vasútállomás;Bukkosd Vasutallomas;46,1125;17,9998;RSTN
3054609;Bugac Vasútállomás;Bugac Vasutallomas;46,6833;19,6833;RSTN
3054610;Bugac Felső Vasútállomás;Bugac Felso Vasutallomas;46,6622;19,6645;RSTN
3054633;Budapest-Üröm Vasútállomás;Budapest-Urom Vasutallomas;47,5809;19,0027;RSTN
3054634;Budapest-Nyugati Pályaudvar;Budapest-Nyugati Palyaudvar;47,5105;19,0571;RSTN
3054635;Budapest-Keleti Pályaudvar;Budapest-Keleti Palyaudvar;47,5005;19,0831;RSTN
3054636;Kelenföld station;Kelenfoeld station;47,4651;19,0216;RSTN
3054637;Budapest-Józsefváros Vasútállomás;Budapest-Jozsefvaros Vasutallomas;47,4908;19,0911;RSTN
3054639;Budapest-Ferencváros Pályaudvar;Budapest-Ferencvaros Palyaudvar;47,4680;19,0906;RSTN
3054640;Pestszenterzsébet Felső Rendező Pályaudvar;Pestszenterzsebet Felso Rendezo Palyaudvar;47,4480;19,0898;RSTN
3054641;Budapest-Déli Pályaudvar;Budapest-Deli Palyaudvar;47,5003;19,0247;RSTN
3054642;Angyalföld Vasútállomás;Angyalfoeld Vasutallomas;47,5496;19,0899;RSTN
3054644;Budaörs Vasútállomás;Budaors Vasutallomas;47,4477;18,9681;RSTN
3054660;Budafok-Háros Vasútállomás;Budafok-Haros Vasutallomas;47,4129;19,0359;RSTN
3054662;Budafok-Albertfalva Vasútállomás;Budafok-Albertfalva Vasutallomas;47,4394;19,0347;RSTN
3054670;Bucsuszentlászló Vasútállomás;Bucsuszentlaszlo Vasutallomas;46,7833;16,9500;RSTN
3054725;Bősárkány Vasútállomás;Bosarkany Vasutallomas;47,6856;17,2345;RSTN
3054766;Borosberény Vasútállomás;Borosbereny Vasutallomas;47,9732;19,0947;RSTN
3054788;Börgönd Vasútállomás;Borgond Vasutallomas;47,1404;18,5162;RSTN
3054812;Bonnya Vasútállomás;Bonnya Vasutallomas;46,6106;17,9102;RSTN
3054821;Bóly Vasútállomás;Boly Vasutallomas;45,9387;18,5379;RSTN
3054852;Bölcske Vasútállomás;Bolcske Vasutallomas;46,7267;18,9300;RSTN
3054873;Böhönye Vasútállomás;Bohonye Vasutallomas;46,4106;17,4068;RSTN
3054941;Bodakajtor-Felsőszentiván Vasútállomás;Bodakajtor-Felsoszentivan Vasutallomas;47,0738;18,5084;RSTN
3054943;Bodajk Vasútállomás;Bodajk Vasutallomas;47,3167;18,2500;RSTN
3054963;Boba Vasútállomás;Boba Vasutallomas;47,1826;17,1915;RSTN
3055027;Bicske Vasútállomás;Bicske Vasutallomas;47,4833;18,6167;RSTN
3055031;Bicsérd Vasútállomás;Bicserd Vasutallomas;46,0333;18,0667;RSTN
3055037;Biatorbágy Vasútállomás;Biatorbagy Vasutallomas;47,4667;18,8333;RSTN
3055068;Berzence Vasútállomás;Berzence Vasutallomas;46,2000;17,1500;RSTN
3055086;Berkenye Vasútállomás;Berkenye Vasutallomas;47,8833;19,0667;RSTN
3055107;Beremendi Cementmű Vasútállomás;Beremendi Cementmu Vasutallomas;45,8343;18,4063;RSTN
3055193;Beleg Vasútállomás;Beleg Vasutallomas;46,3167;17,4167;RSTN
3055195;Beled Vasútállomás;Beled Vasutallomas;47,4666;17,0846;RSTN
3055232;Békásmegyer  Vasútállomás;Bekasmegyer  Vasutallomas;47,5983;19,0548;RSTN
3055291;Baté Vasútállomás;Bate Vasutallomas;46,3500;17,9500;RSTN
3055295;Báta Vasútállomás;Bata Vasutallomas;46,1410;18,7179;RSTN
3055297;Bátaszék Vasútállomás;Bataszek Vasutallomas;46,2000;18,7167;RSTN
3055366;Barcs Vasútállomás;Barcs Vasutallomas;45,9500;17,4500;RSTN
3055456;Bánk Vasútállomás;Bank Vasutallomas;47,9215;19,1864;RSTN
3055483;Balotaszállás Vasútállomás;Balotaszallas Vasutallomas;46,3500;19,5333;RSTN
3055530;Balatonszentgyörgy Vasútállomás;Balatonszentgyorgy Vasutallomas;46,6948;17,2921;RSTN
3055532;Balatonszemes Vasútállomás;Balatonszemes Vasutallomas;46,8167;17,7833;RSTN
3055534;Balatonszárszó Vasútállomás;Balatonszarszo Vasutallomas;46,8333;17,8333;RSTN
3055537;Balatonszabadi-Sóstó Vasútállomás;Balatonszabadi-Sosto Vasutallomas;46,9333;18,1333;RSTN
3055545;Balatonmáriafürdő Vasútállomás;Balatonmariafurdo Vasutallomas;46,7042;17,3745;RSTN
3055550;Balatonlelle Felső Vasútállomás;Balatonlelle Felso Vasutallomas;46,7833;17,7167;RSTN
3055552;Balatonkeresztúr Vasútállomás;Balatonkeresztur Vasutallomas;46,7000;17,3833;RSTN
3055554;Balatonkenese Vasútállomás;Balatonkenese Vasutallomas;47,0333;18,1167;RSTN
3055562;Balatonfűzfő Vasútállomás;Balatonfuzfo Vasutallomas;47,0500;18,0500;RSTN
3055564;Balatonfüred Vasútállomás;Balatonfured Vasutallomas;46,9500;17,8833;RSTN
3055569;Balatonfőkajár Vasútállomás;Balatonfokajar Vasutallomas;47,0167;18,2167;RSTN
3055573;Balatonfenyves Vasútállomás;Balatonfenyves Vasutallomas;46,7167;17,5000;RSTN
3055579;Balatonederics Vasútállomás;Balatonederics Vasutallomas;46,7994;17,3866;RSTN
3055583;Balatonboglár Vasútállomás;Balatonboglar Vasutallomas;46,7833;17,6667;RSTN
3055589;Balatonalmádi Vasútállomás;Balatonalmadi Vasutallomas;47,0282;18,0158;RSTN
3055591;Balatonaliga Vasútállomás;Balatonaliga Vasutallomas;46,9833;18,1667;RSTN
3055595;Balatonakali-Dörgicse Vasútállomás;Balatonakali-Dorgicse Vasutallomas;46,8833;17,7500;RSTN
3055600;Balassagyarmat Vasútállomás;Balassagyarmat Vasutallomas;48,0833;19,3167;RSTN
3055605;Bak Vasútállomás;Bak Vasutallomas;46,7167;16,8500;RSTN
3055622;Bakonyszentlászló Vasútállomás;Bakonyszentlaszlo Vasutallomas;47,4000;17,8167;RSTN
3055626;Bakonysárkány Vasútállomás;Bakonysarkany Vasutallomas;47,4500;18,1000;RSTN
3055647;Bakonybánk Vasútállomás;Bakonybank Vasutallomas;47,4667;17,9167;RSTN
3055678;Baja Vasútállomás;Baja Vasutallomas;46,1833;18,9667;RSTN
3055706;Bagodvitenyéd Vasútállomás;Bagodvitenyed Vasutallomas;46,8833;16,7500;RSTN
3055727;Badacsonytördemic-Szigliget Vasútállomás;Badacsonytordemic-Szigliget Vasutallomas;46,8167;17,4833;RSTN
3055729;Badacsonytomaj Vasútállomás;Badacsonytomaj Vasutallomas;46,8000;17,5167;RSTN
3055756;Bácsbokod-Bácsborsód Vasútállomás;Bacsbokod-Bacsborsod Vasutallomas;46,1167;19,2167;RSTN
3055758;Bácsalmás Vasútállomás;Bacsalmas Vasutallomas;46,1167;19,3500;RSTN
3055769;Bábonymegyer Vasútállomás;Babonymegyer Vasutallomas;46,7456;18,1108;RSTN
3055775;Babócsa Vasútállomás;Babocsa Vasutallomas;46,0333;17,3500;RSTN
3055813;Áta Vasútállomás;Ata Vasutallomas;45,9350;18,3067;RSTN
3055820;Aszófő Vasútállomás;Aszofo Vasutallomas;46,9333;17,8333;RSTN
3055822;Aszód Vasútállomás;Aszod Vasutallomas;47,6500;19,5000;RSTN
3055824;Ászár Vasúti Megállóhely;Aszar Vasuti Megallohely;47,5167;18,0167;RSTN
3055825;Ászár Keményítőgyár Vasútállomás;Aszar Kemenyitogyar Vasutallomas;47,5363;18,0200;RSTN
3055894;Apostag Vasútállomás;Apostag Vasutallomas;46,8833;18,9833;RSTN
3055900;Apc-Zagyvaszántó Vasútállomás;Apc-Zagyvaszanto Vasutallomas;47,7917;19,6676;RSTN
3055980;Andráshida Vasútállomás;Andrashida Vasutallomas;46,8667;16,8000;RSTN
3056095;Alsóörs Vasútállomás;Alsoors Vasutallomas;46,9833;17,9833;RSTN
3056137;Alsómajzsa Vasútállomás;Alsomajzsa Vasutallomas;46,6101;18,4030;RSTN
3056206;Alsógyenes Vasúti Megállóhely;Alsogyenes Vasuti Megallohely;46,7667;17,2833;RSTN
3056210;Alsógalla Vasútállomás;Alsogalla Vasutallomas;47,5667;18,4167;RSTN
3056288;Almásfüzitő Vasútállomás;Almasfuzito Vasutallomas;47,7252;18,2620;RSTN
3056301;Állampuszta Vasútállomás;Allampuszta Vasutallomas;46,7176;19,0597;RSTN
3056324;Albertirsa Vasútállomás;Albertirsa Vasutallomas;47,2333;19,6167;RSTN
3056329;Alap Vasútállomás;Alap Vasutallomas;46,8315;18,6562;RSTN
3056353;Ajka Vasútállomás;Ajka Vasutallomas;47,1068;17,5738;RSTN
3056389;Ágasegyháza Vasútállomás;Agasegyhaza Vasutallomas;46,8500;19,4500;RSTN
3056411;Adony Vasútállomás;Adony Vasutallomas;47,1000;18,8500;RSTN
3056413;Adony-Duna-part Vasútállomás;Adony-Duna-part Vasutallomas;47,1167;18,8000;RSTN
3056417;Ádánd Vasútállomás;Adand Vasutallomas;46,8559;18,1404;RSTN
3056425;Ács Vasútállomás;Acs Vasutallomas;47,7167;18,0000;RSTN
3056432;Acsa-Erdőkürt Vasútállomás;Acsa-Erdokurt Vasutallomas;47,7983;19,3897;RSTN
3056433;Acsád Vasútállomás;Acsad Vasutallomas;47,3073;16,7342;RSTN
3056444;Abda Vasútállomás;Abda Vasutallomas;47,7000;17,5500;RSTN
3056446;Aba-Sárkeresztúr Vasútállomás;Aba-Sarkeresztur Vasutallomas;47,0167;18,5500;RSTN
3056447;Abaliget Vasútállomás;Abaliget Vasutallomas;46,1519;18,0730;RSTN
6690559;Rákosfalva Vasútállomás;Rakosfalva Vasutallomas;47,5052;19,1514;RSTN
6690560;Örs Vezér tere vasútállomás;OErs Vezer tere vasutallomas;47,5035;19,1369;RSTN
6690561;Rákosszentmihály Vasútállomás;Rakosszentmihaly Vasutallomas;47,5209;19,1465;RSTN
6691852;Kőbánya Felső Pályaudvar;Kobanya Felso Palyaudvar;47,4912;19,1340;RSTN
6954074;Keleti Railway Station;Keleti Railway Station;47,5003;19,0839;RSTN
8426433;Tócóvölgy;Tocovoelgy;47,5294;21,5888;RSTN
8659182;LÁEV Tram Station;LAEV Tram Station;48,1000;20,7026;RSTN
8659262;Újgyőri piac Tram Station;Ujgyori piac Tram Station;48,1008;20,7262;RSTN
8659263;Bulgárföld Tram Station;Bulgarfoeld Tram Station;48,1005;20,7135;RSTN
9884090;Szent Anna tér Tram Station;Szent Anna ter Tram Station;48,1047;20,7635;RSTN
11102586;Diósgyőri Gimnázium Tram Station;Diosgyori Gimnazium Tram Station;48,1002;20,7086;RSTN
11102587;Soltész Nagy Kálmán utca Tram Station;Soltesz Nagy Kalman utca Tram Station;48,1028;20,7972;RSTN
11205690;Ferihegy;Ferihegy;47,4378;19,2240;RSTN
11550720;Budapest Castle Hill Funicular;Budapest Castle Hill Funicular;47,4978;19,0398;RSTN
11593107;Széchenyi-hegy, Gyermekvasút;Szechenyi-hegy, Gyermekvasut;47,4953;18,9796;RSTN
3042601;Zalaszentgrót Vasútállomás;Zalaszentgrot Vasutallomas;46,9507;17,0818;RSTNQ
3045189;Sopron-Déli Pályaudvar;Sopron-Deli Palyaudvar;47,6865;16,5716;RSTNQ
3048039;Mikosdpuszta Vasútállomás;Mikosdpuszta Vasutallomas;47,0265;17,0161;RSTNQ
3048606;Harka Vasútállomás;Harka Vasutallomas;47,6418;16,6189;RSTNQ
3051190;Ihász Vasútállomás;Ihasz Vasutallomas;47,3812;17,4011;RSTNQ
3052635;Fertőújlak Vasútállomás;Fertoujlak Vasutallomas;47,6792;16,8765;RSTNQ
3052643;Fertőendréd Vasútállomás;Fertoendred Vasutallomas;47,5896;16,9332;RSTNQ
3055250;Becske Vasúti Megállóhely;Becske Vasuti Megallohely;47,9233;19,3500;RSTNQ
8410866;Ágfalva Vasútállomás;Agfalva Vasutallomas;47,6906;16,5208;RSTNQ
8410886;Torony Vasútállomás;Torony Vasutallomas;47,2425;16,5292;RSTNQ
8410887;Sé Vasútállomás;Se Vasutallomas;47,2460;16,5592;RSTNQ
8410977;Csapod Vasútállomás;Csapod Vasutallomas;47,5109;16,9157;RSTNQ
8410979;Iván Vasútállomás;Ivan Vasutallomas;47,4476;16,9215;RSTNQ
8410980;Répceszemere Vasútállomás;Repceszemere Vasutallomas;47,4319;16,9669;RSTNQ
8410981;Nick Vasútállomás;Nick Vasutallomas;47,4039;17,0177;RSTNQ
8410983;Kenyeri Vasútállomás;Kenyeri Vasutallomas;47,3873;17,0908;RSTNQ
8410985;Vönöck Vasútállomás;Voenoeck Vasutallomas;47,3050;17,1658;RSTNQ
8410990;Felsőpaty Vasútállomás;Felsopaty Vasutallomas;47,3132;16,9243;RSTNQ
8410992;Zsédeny-Rózsamajor Vasútállomás;Zsedeny-Rozsamajor Vasutallomas;47,3441;16,8889;RSTNQ
8410993;Mesterháza-Tompaládony Vasútállomás;Mesterhaza-Tompaladony Vasutallomas;47,3771;16,8744;RSTNQ
8410994;Bő Vasútállomás;Bo Vasutallomas;47,3694;16,8133;RSTNQ
8410996;Sitke Vasútállomás;Sitke Vasutallomas;47,2359;17,0023;RSTNQ
8410997;Gérce Vasútállomás;Gerce Vasutallomas;47,2110;17,0235;RSTNQ
8410998;Vásárosmiske Vasútállomás;Vasarosmiske Vasutallomas;47,2054;17,0543;RSTNQ
8410999;Káld Vasútállomás;Kald Vasutallomas;47,1588;17,0527;RSTNQ
8411000;Pusztalánc Vasútállomás;Pusztalanc Vasutallomas;47,1355;17,0571;RSTNQ
8411001;Vashosszúfalu Vasútállomás;Vashosszufalu Vasutallomas;47,1178;17,0566;RSTNQ
8411002;Hosszúpereszteg Vasútállomás;Hosszupereszteg Vasutallomas;47,0847;17,0321;RSTNQ
8411004;Batyk-kitérő Vasútállomás;Batyk-kitero Vasutallomas;46,9887;17,0242;RSTNQ
